[{"Zipcode":"38601","ZipCodeType":"STANDARD","City":"ABBEVILLE","State":"MS","LocationType":"PRIMARY","Lat":"34.5","Long":"-89.5","Location":"NA-US-MS-ABBEVILLE","Decommisioned":"false","TaxReturnsFiled":"987","EstimatedPopulation":"1784","TotalWages":"24069593"},
{"Zipcode":"39730","ZipCodeType":"STANDARD","City":"ABERDEEN","State":"MS","LocationType":"PRIMARY","Lat":"33.82","Long":"-88.55","Location":"NA-US-MS-ABERDEEN","Decommisioned":"false","TaxReturnsFiled":"4926","EstimatedPopulation":"8894","TotalWages":"117793970"},
{"Zipcode":"39735","ZipCodeType":"STANDARD","City":"ACKERMAN","State":"MS","LocationType":"PRIMARY","Lat":"33.31","Long":"-89.17","Location":"NA-US-MS-ACKERMAN","Decommisioned":"false","TaxReturnsFiled":"1590","EstimatedPopulation":"2986","TotalWages":"42860765"},
{"Zipcode":"38820","ZipCodeType":"PO BOX","City":"ALGOMA","State":"MS","LocationType":"PRIMARY","Lat":"34.17","Long":"-89.03","Location":"NA-US-MS-ALGOMA","Decommisioned":"false","TaxReturnsFiled":"null","EstimatedPopulation":"null","TotalWages":"null"},
{"Zipcode":"38720","ZipCodeType":"STANDARD","City":"ALLIGATOR","State":"MS","LocationType":"PRIMARY","Lat":"34.08","Long":"-90.72","Location":"NA-US-MS-ALLIGATOR","Decommisioned":"false","TaxReturnsFiled":"null","EstimatedPopulation":"null","TotalWages":"null"},
{"Zipcode":"38821","ZipCodeType":"STANDARD","City":"AMORY","State":"MS","LocationType":"PRIMARY","Lat":"33.98","Long":"-88.48","Location":"NA-US-MS-AMORY","Decommisioned":"false","TaxReturnsFiled":"5057","EstimatedPopulation":"9536","TotalWages":"153437411"},
{"Zipcode":"38721","ZipCodeType":"STANDARD","City":"ANGUILLA","State":"MS","LocationType":"PRIMARY","Lat":"32.97","Long":"-90.82","Location":"NA-US-MS-ANGUILLA","Decommisioned":"false","TaxReturnsFiled":"528","EstimatedPopulation":"970","TotalWages":"10968344"},
{"Zipcode":"38722","ZipCodeType":"PO BOX","City":"ARCOLA","State":"MS","LocationType":"PRIMARY","Lat":"33.27","Long":"-90.88","Location":"NA-US-MS-ARCOLA","Decommisioned":"false","TaxReturnsFiled":"265","EstimatedPopulation":"474","TotalWages":"4295610"},
{"Zipcode":"38602","ZipCodeType":"PO BOX","City":"ARKABUTLA","State":"MS","LocationType":"PRIMARY","Lat":"34.7","Long":"-90.13","Location":"NA-US-MS-ARKABUTLA","Decommisioned":"false","TaxReturnsFiled":"null","EstimatedPopulation":"null","TotalWages":"null"},
{"Zipcode":"39736","ZipCodeType":"PO BOX","City":"ARTESIA","State":"MS","LocationType":"PRIMARY","Lat":"33.41","Long":"-88.64","Location":"NA-US-MS-ARTESIA","Decommisioned":"false","TaxReturnsFiled":"null","EstimatedPopulation":"null","TotalWages":"null"},
{"Zipcode":"38603","ZipCodeType":"STANDARD","City":"ASHLAND","State":"MS","LocationType":"PRIMARY","Lat":"34.83","Long":"-89.17","Location":"NA-US-MS-ASHLAND","Decommisioned":"false","TaxReturnsFiled":"1212","EstimatedPopulation":"2203","TotalWages":"28995795"},
{"Zipcode":"38723","ZipCodeType":"PO BOX","City":"AVON","State":"MS","LocationType":"PRIMARY","Lat":"33.2","Long":"-91.06","Location":"NA-US-MS-AVON","Decommisioned":"false","TaxReturnsFiled":"null","EstimatedPopulation":"null","TotalWages":"null"},
{"Zipcode":"39320","ZipCodeType":"STANDARD","City":"BAILEY","State":"MS","LocationType":"PRIMARY","Lat":"32.48","Long":"-88.69","Location":"NA-US-MS-BAILEY","Decommisioned":"false","TaxReturnsFiled":"781","EstimatedPopulation":"1483","TotalWages":"28656498"},
{"Zipcode":"38824","ZipCodeType":"STANDARD","City":"BALDWYN","State":"MS","LocationType":"PRIMARY","Lat":"34.5","Long":"-88.63","Location":"NA-US-MS-BALDWYN","Decommisioned":"false","TaxReturnsFiled":"3347","EstimatedPopulation":"6283","TotalWages":"91075717"},
{"Zipcode":"39421","ZipCodeType":"STANDARD","City":"BASSFIELD","State":"MS","LocationType":"PRIMARY","Lat":"31.49","Long":"-89.74","Location":"NA-US-MS-BASSFIELD","Decommisioned":"false","TaxReturnsFiled":"1399","EstimatedPopulation":"2545","TotalWages":"33695954"},
{"Zipcode":"38606","ZipCodeType":"STANDARD","City":"BATESVILLE","State":"MS","LocationType":"PRIMARY","Lat":"34.31","Long":"-89.93","Location":"NA-US-MS-BATESVILLE","Decommisioned":"false","TaxReturnsFiled":"6791","EstimatedPopulation":"12504","TotalWages":"191992018"},
{"Zipcode":"39520","ZipCodeType":"STANDARD","City":"BAY SAINT LOUIS","State":"MS","LocationType":"PRIMARY","Lat":"30.32","Long":"-89.51","Location":"NA-US-MS-BAY SAINT LOUIS","Decommisioned":"false","TaxReturnsFiled":"4756","EstimatedPopulation":"8359","TotalWages":"129239499"},
{"Zipcode":"39521","ZipCodeType":"PO BOX","City":"BAY SAINT LOUIS","State":"MS","LocationType":"PRIMARY","Lat":"30.32","Long":"-89.51","Location":"NA-US-MS-BAY SAINT LOUIS","Decommisioned":"false","TaxReturnsFiled":"685","EstimatedPopulation":"1069","TotalWages":"17610486"},
{"Zipcode":"39522","ZipCodeType":"UNIQUE","City":"STENNIS SPACE CENTER","State":"MS","LocationType":"PRIMARY","Lat":"30.34","Long":"-89.55","Location":"NA-US-MS-STENNIS SPACE CENTER","Decommisioned":"false","TaxReturnsFiled":"null","EstimatedPopulation":"null","TotalWages":"null"},
{"Zipcode":"39525","ZipCodeType":"STANDARD","City":"DIAMONDHEAD","State":"MS","LocationType":"PRIMARY","Lat":"30.38","Long":"-89.36","Location":"NA-US-MS-DIAMONDHEAD","Decommisioned":"false","TaxReturnsFiled":"3869","EstimatedPopulation":"6950","TotalWages":"148480879"},
{"Zipcode":"39529","ZipCodeType":"UNIQUE","City":"STENNIS SPACE CENTER","State":"MS","LocationType":"PRIMARY","Lat":"30.34","Long":"-89.55","Location":"NA-US-MS-STENNIS SPACE CENTER","Decommisioned":"false","TaxReturnsFiled":"null","EstimatedPopulation":"null","TotalWages":"null"},
{"Zipcode":"39558","ZipCodeType":"PO BOX","City":"LAKESHORE","State":"MS","LocationType":"PRIMARY","Lat":"30.21","Long":"-89.48","Location":"NA-US-MS-LAKESHORE","Decommisioned":"false","TaxReturnsFiled":"null","EstimatedPopulation":"null","TotalWages":"null"},
{"Zipcode":"39572","ZipCodeType":"STANDARD","City":"PEARLINGTON","State":"MS","LocationType":"PRIMARY","Lat":"30.24","Long":"-89.6","Location":"NA-US-MS-PEARLINGTON","Decommisioned":"false","TaxReturnsFiled":"502","EstimatedPopulation":"914","TotalWages":"13973785"},
{"Zipcode":"39576","ZipCodeType":"STANDARD","City":"WAVELAND","State":"MS","LocationType":"PRIMARY","Lat":"30.28","Long":"-89.38","Location":"NA-US-MS-WAVELAND","Decommisioned":"false","TaxReturnsFiled":"2138","EstimatedPopulation":"3797","TotalWages":"63603036"},
{"Zipcode":"39422","ZipCodeType":"STANDARD","City":"BAY SPRINGS","State":"MS","LocationType":"PRIMARY","Lat":"31.98","Long":"-89.28","Location":"NA-US-MS-BAY SPRINGS","Decommisioned":"false","TaxReturnsFiled":"2431","EstimatedPopulation":"4491","TotalWages":"73585777"},
{"Zipcode":"39423","ZipCodeType":"STANDARD","City":"BEAUMONT","State":"MS","LocationType":"PRIMARY","Lat":"31.17","Long":"-88.92","Location":"NA-US-MS-BEAUMONT","Decommisioned":"false","TaxReturnsFiled":"1016","EstimatedPopulation":"1960","TotalWages":"29328417"},
{"Zipcode":"38825","ZipCodeType":"PO BOX","City":"BECKER","State":"MS","LocationType":"PRIMARY","Lat":"33.91","Long":"-88.49","Location":"NA-US-MS-BECKER","Decommisioned":"false","TaxReturnsFiled":"null","EstimatedPopulation":"null","TotalWages":"null"},
{"Zipcode":"38826","ZipCodeType":"STANDARD","City":"BELDEN","State":"MS","LocationType":"PRIMARY","Lat":"34.27","Long":"-88.82","Location":"NA-US-MS-BELDEN","Decommisioned":"false","TaxReturnsFiled":"2036","EstimatedPopulation":"3831","TotalWages":"90771297"},
{"Zipcode":"39737","ZipCodeType":"STANDARD","City":"BELLEFONTAINE","State":"MS","LocationType":"PRIMARY","Lat":"33.64","Long":"-89.33","Location":"NA-US-MS-BELLEFONTAINE","Decommisioned":"false","TaxReturnsFiled":"null","EstimatedPopulation":"null","TotalWages":"null"},
{"Zipcode":"38827","ZipCodeType":"STANDARD","City":"BELMONT","State":"MS","LocationType":"PRIMARY","Lat":"34.5","Long":"-88.2","Location":"NA-US-MS-BELMONT","Decommisioned":"false","TaxReturnsFiled":"1221","EstimatedPopulation":"2407","TotalWages":"35030883"},
{"Zipcode":"39038","ZipCodeType":"STANDARD","City":"BELZONI","State":"MS","LocationType":"PRIMARY","Lat":"33.17","Long":"-90.48","Location":"NA-US-MS-BELZONI","Decommisioned":"false","TaxReturnsFiled":"2582","EstimatedPopulation":"4674","TotalWages":"50992742"},
{"Zipcode":"38725","ZipCodeType":"STANDARD","City":"BENOIT","State":"MS","LocationType":"PRIMARY","Lat":"33.65","Long":"-91","Location":"NA-US-MS-BENOIT","Decommisioned":"false","TaxReturnsFiled":"418","EstimatedPopulation":"758","TotalWages":"7539166"},
{"Zipcode":"39039","ZipCodeType":"STANDARD","City":"BENTON","State":"MS","LocationType":"PRIMARY","Lat":"32.8","Long":"-90.28","Location":"NA-US-MS-BENTON","Decommisioned":"false","TaxReturnsFiled":"973","EstimatedPopulation":"1812","TotalWages":"29239656"},
{"Zipcode":"39040","ZipCodeType":"STANDARD","City":"BENTONIA","State":"MS","LocationType":"PRIMARY","Lat":"32.64","Long":"-90.37","Location":"NA-US-MS-BENTONIA","Decommisioned":"false","TaxReturnsFiled":"1374","EstimatedPopulation":"2588","TotalWages":"41491984"},
{"Zipcode":"38726","ZipCodeType":"STANDARD","City":"BEULAH","State":"MS","LocationType":"PRIMARY","Lat":"33.79","Long":"-90.98","Location":"NA-US-MS-BEULAH","Decommisioned":"false","TaxReturnsFiled":"null","EstimatedPopulation":"null","TotalWages":"null"},
{"Zipcode":"38914","ZipCodeType":"STANDARD","City":"BIG CREEK","State":"MS","LocationType":"PRIMARY","Lat":"33.84","Long":"-89.41","Location":"NA-US-MS-BIG CREEK","Decommisioned":"false","TaxReturnsFiled":"null","EstimatedPopulation":"null","TotalWages":"null"},
{"Zipcode":"39530","ZipCodeType":"STANDARD","City":"BILOXI","State":"MS","LocationType":"PRIMARY","Lat":"30.39","Long":"-88.88","Location":"NA-US-MS-BILOXI","Decommisioned":"false","TaxReturnsFiled":"3427","EstimatedPopulation":"5497","TotalWages":"76167520"},
{"Zipcode":"39531","ZipCodeType":"STANDARD","City":"BILOXI","State":"MS","LocationType":"PRIMARY","Lat":"30.39","Long":"-88.88","Location":"NA-US-MS-BILOXI","Decommisioned":"false","TaxReturnsFiled":"7131","EstimatedPopulation":"12124","TotalWages":"212013631"},
{"Zipcode":"39532","ZipCodeType":"STANDARD","City":"BILOXI","State":"MS","LocationType":"PRIMARY","Lat":"30.39","Long":"-88.88","Location":"NA-US-MS-BILOXI","Decommisioned":"false","TaxReturnsFiled":"13855","EstimatedPopulation":"24883","TotalWages":"493593793"},
{"Zipcode":"39533","ZipCodeType":"PO BOX","City":"BILOXI","State":"MS","LocationType":"PRIMARY","Lat":"30.39","Long":"-88.88","Location":"NA-US-MS-BILOXI","Decommisioned":"false","TaxReturnsFiled":"311","EstimatedPopulation":"471","TotalWages":"7785666"},
{"Zipcode":"39534","ZipCodeType":"PO BOX","City":"BILOXI","State":"MS","LocationType":"PRIMARY","Lat":"30.39","Long":"-88.88","Location":"NA-US-MS-BILOXI","Decommisioned":"false","TaxReturnsFiled":"853","EstimatedPopulation":"989","TotalWages":"14835743"},
{"Zipcode":"39535","ZipCodeType":"PO BOX","City":"BILOXI","State":"MS","LocationType":"PRIMARY","Lat":"30.39","Long":"-88.88","Location":"NA-US-MS-BILOXI","Decommisioned":"false","TaxReturnsFiled":"417","EstimatedPopulation":"636","TotalWages":"12396146"},
{"Zipcode":"39540","ZipCodeType":"STANDARD","City":"DIBERVILLE","State":"MS","LocationType":"PRIMARY","Lat":"30.44","Long":"-88.9","Location":"NA-US-MS-DIBERVILLE","Decommisioned":"false","TaxReturnsFiled":"3793","EstimatedPopulation":"6371","TotalWages":"103915140"},
{"Zipcode":"38610","ZipCodeType":"STANDARD","City":"BLUE MOUNTAIN","State":"MS","LocationType":"PRIMARY","Lat":"34.67","Long":"-89.02","Location":"NA-US-MS-BLUE MOUNTAIN","Decommisioned":"false","TaxReturnsFiled":"1292","EstimatedPopulation":"2435","TotalWages":"35039809"},
{"Zipcode":"38828","ZipCodeType":"STANDARD","City":"BLUE SPRINGS","State":"MS","LocationType":"PRIMARY","Lat":"34.4","Long":"-88.87","Location":"NA-US-MS-BLUE SPRINGS","Decommisioned":"false","TaxReturnsFiled":"1665","EstimatedPopulation":"3176","TotalWages":"50507972"},
{"Zipcode":"39629","ZipCodeType":"STANDARD","City":"BOGUE CHITTO","State":"MS","LocationType":"PRIMARY","Lat":"31.43","Long":"-90.45","Location":"NA-US-MS-BOGUE CHITTO","Decommisioned":"false","TaxReturnsFiled":"2449","EstimatedPopulation":"4790","TotalWages":"84847311"},
{"Zipcode":"39041","ZipCodeType":"STANDARD","City":"BOLTON","State":"MS","LocationType":"PRIMARY","Lat":"32.35","Long":"-90.45","Location":"NA-US-MS-BOLTON","Decommisioned":"false","TaxReturnsFiled":"1653","EstimatedPopulation":"2921","TotalWages":"44199134"},
{"Zipcode":"38829","ZipCodeType":"STANDARD","City":"BOONEVILLE","State":"MS","LocationType":"PRIMARY","Lat":"34.66","Long":"-88.56","Location":"NA-US-MS-BOONEVILLE","Decommisioned":"false","TaxReturnsFiled":"7028","EstimatedPopulation":"13211","TotalWages":"192125150"},
{"Zipcode":"38859","ZipCodeType":"STANDARD","City":"NEW SITE","State":"MS","LocationType":"PRIMARY","Lat":"34.56","Long":"-88.41","Location":"NA-US-MS-NEW SITE","Decommisioned":"false","TaxReturnsFiled":"267","EstimatedPopulation":"523","TotalWages":"6792114"},
{"Zipcode":"38730","ZipCodeType":"STANDARD","City":"BOYLE","State":"MS","LocationType":"PRIMARY","Lat":"33.7","Long":"-90.72","Location":"NA-US-MS-BOYLE","Decommisioned":"false","TaxReturnsFiled":"825","EstimatedPopulation":"1539","TotalWages":"23730384"},
{"Zipcode":"39042","ZipCodeType":"STANDARD","City":"BRANDON","State":"MS","LocationType":"PRIMARY","Lat":"32.28","Long":"-90","Location":"NA-US-MS-BRANDON","Decommisioned":"false","TaxReturnsFiled":"14165","EstimatedPopulation":"26551","TotalWages":"592209817"},
{"Zipcode":"39043","ZipCodeType":"PO BOX","City":"BRANDON","State":"MS","LocationType":"PRIMARY","Lat":"32.28","Long":"-90","Location":"NA-US-MS-BRANDON","Decommisioned":"false","TaxReturnsFiled":"661","EstimatedPopulation":"1110","TotalWages":"25528523"},
{"Zipcode":"39047","ZipCodeType":"STANDARD","City":"BRANDON","State":"MS","LocationType":"PRIMARY","Lat":"32.28","Long":"-90","Location":"NA-US-MS-BRANDON","Decommisioned":"false","TaxReturnsFiled":"15601","EstimatedPopulation":"28833","TotalWages":"795726939"},
{"Zipcode":"39044","ZipCodeType":"STANDARD","City":"BRAXTON","State":"MS","LocationType":"PRIMARY","Lat":"32.02","Long":"-89.97","Location":"NA-US-MS-BRAXTON","Decommisioned":"false","TaxReturnsFiled":"1296","EstimatedPopulation":"2431","TotalWages":"41260740"},
{"Zipcode":"39601","ZipCodeType":"STANDARD","City":"BROOKHAVEN","State":"MS","LocationType":"PRIMARY","Lat":"31.58","Long":"-90.44","Location":"NA-US-MS-BROOKHAVEN","Decommisioned":"false","TaxReturnsFiled":"8904","EstimatedPopulation":"16719","TotalWages":"285103244"},
{"Zipcode":"39602","ZipCodeType":"PO BOX","City":"BROOKHAVEN","State":"MS","LocationType":"PRIMARY","Lat":"31.58","Long":"-90.44","Location":"NA-US-MS-BROOKHAVEN","Decommisioned":"false","TaxReturnsFiled":"445","EstimatedPopulation":"748","TotalWages":"13659398"},
{"Zipcode":"39603","ZipCodeType":"PO BOX","City":"BROOKHAVEN","State":"MS","LocationType":"PRIMARY","Lat":"31.58","Long":"-90.44","Location":"NA-US-MS-BROOKHAVEN","Decommisioned":"false","TaxReturnsFiled":"423","EstimatedPopulation":"778","TotalWages":"13427642"},
{"Zipcode":"39425","ZipCodeType":"STANDARD","City":"BROOKLYN","State":"MS","LocationType":"PRIMARY","Lat":"30.98","Long":"-89.23","Location":"NA-US-MS-BROOKLYN","Decommisioned":"false","TaxReturnsFiled":"700","EstimatedPopulation":"1317","TotalWages":"20760059"},
{"Zipcode":"39739","ZipCodeType":"STANDARD","City":"BROOKSVILLE","State":"MS","LocationType":"PRIMARY","Lat":"33.23","Long":"-88.58","Location":"NA-US-MS-BROOKSVILLE","Decommisioned":"false","TaxReturnsFiled":"1387","EstimatedPopulation":"2385","TotalWages":"24801226"},
{"Zipcode":"38913","ZipCodeType":"STANDARD","City":"BANNER","State":"MS","LocationType":"PRIMARY","Lat":"34.1","Long":"-89.4","Location":"NA-US-MS-BANNER","Decommisioned":"false","TaxReturnsFiled":"null","EstimatedPopulation":"null","TotalWages":"null"},
{"Zipcode":"38915","ZipCodeType":"STANDARD","City":"BRUCE","State":"MS","LocationType":"PRIMARY","Lat":"33.99","Long":"-89.34","Location":"NA-US-MS-BRUCE","Decommisioned":"false","TaxReturnsFiled":"1724","EstimatedPopulation":"3237","TotalWages":"40655034"},
{"Zipcode":"38949","ZipCodeType":"STANDARD","City":"PARIS","State":"MS","LocationType":"PRIMARY","Lat":"34.18","Long":"-89.46","Location":"NA-US-MS-PARIS","Decommisioned":"false","TaxReturnsFiled":"null","EstimatedPopulation":"null","TotalWages":"null"},
{"Zipcode":"39322","ZipCodeType":"STANDARD","City":"BUCKATUNNA","State":"MS","LocationType":"PRIMARY","Lat":"31.53","Long":"-88.52","Location":"NA-US-MS-BUCKATUNNA","Decommisioned":"false","TaxReturnsFiled":"765","EstimatedPopulation":"1487","TotalWages":"22105579"},
{"Zipcode":"39630","ZipCodeType":"STANDARD","City":"BUDE","State":"MS","LocationType":"PRIMARY","Lat":"31.46","Long":"-90.85","Location":"NA-US-MS-BUDE","Decommisioned":"false","TaxReturnsFiled":"429","EstimatedPopulation":"785","TotalWages":"10145867"},
{"Zipcode":"38833","ZipCodeType":"STANDARD","City":"BURNSVILLE","State":"MS","LocationType":"PRIMARY","Lat":"34.84","Long":"-88.31","Location":"NA-US-MS-BURNSVILLE","Decommisioned":"false","TaxReturnsFiled":"967","EstimatedPopulation":"1850","TotalWages":"23915006"},
{"Zipcode":"38611","ZipCodeType":"STANDARD","City":"BYHALIA","State":"MS","LocationType":"PRIMARY","Lat":"34.86","Long":"-89.68","Location":"NA-US-MS-BYHALIA","Decommisioned":"false","TaxReturnsFiled":"7245","EstimatedPopulation":"13055","TotalWages":"220334643"},
{"Zipcode":"39740","ZipCodeType":"STANDARD","City":"CALEDONIA","State":"MS","LocationType":"PRIMARY","Lat":"33.68","Long":"-88.32","Location":"NA-US-MS-CALEDONIA","Decommisioned":"false","TaxReturnsFiled":"2029","EstimatedPopulation":"4013","TotalWages":"77849897"},
{"Zipcode":"38916","ZipCodeType":"STANDARD","City":"CALHOUN CITY","State":"MS","LocationType":"PRIMARY","Lat":"33.85","Long":"-89.31","Location":"NA-US-MS-CALHOUN CITY","Decommisioned":"false","TaxReturnsFiled":"1842","EstimatedPopulation":"3415","TotalWages":"44832111"},
{"Zipcode":"38955","ZipCodeType":"PO BOX","City":"SLATE SPRING","State":"MS","LocationType":"PRIMARY","Lat":"33.74","Long":"-89.37","Location":"NA-US-MS-SLATE SPRING","Decommisioned":"false","TaxReturnsFiled":"null","EstimatedPopulation":"null","TotalWages":"null"},
{"Zipcode":"39045","ZipCodeType":"STANDARD","City":"CAMDEN","State":"MS","LocationType":"PRIMARY","Lat":"32.8","Long":"-89.87","Location":"NA-US-MS-CAMDEN","Decommisioned":"false","TaxReturnsFiled":"640","EstimatedPopulation":"1154","TotalWages":"12100016"},
{"Zipcode":"39046","ZipCodeType":"STANDARD","City":"CANTON","State":"MS","LocationType":"PRIMARY","Lat":"32.61","Long":"-90.03","Location":"NA-US-MS-CANTON","Decommisioned":"false","TaxReturnsFiled":"11149","EstimatedPopulation":"20588","TotalWages":"321126654"},
{"Zipcode":"39426","ZipCodeType":"STANDARD","City":"CARRIERE","State":"MS","LocationType":"PRIMARY","Lat":"30.6","Long":"-89.56","Location":"NA-US-MS-CARRIERE","Decommisioned":"false","TaxReturnsFiled":"6067","EstimatedPopulation":"11857","TotalWages":"219483738"},
{"Zipcode":"38917","ZipCodeType":"STANDARD","City":"CARROLLTON","State":"MS","LocationType":"PRIMARY","Lat":"33.5","Long":"-89.92","Location":"NA-US-MS-CARROLLTON","Decommisioned":"false","TaxReturnsFiled":"1343","EstimatedPopulation":"2512","TotalWages":"42293147"},
{"Zipcode":"39427","ZipCodeType":"STANDARD","City":"CARSON","State":"MS","LocationType":"PRIMARY","Lat":"31.55","Long":"-89.78","Location":"NA-US-MS-CARSON","Decommisioned":"false","TaxReturnsFiled":"517","EstimatedPopulation":"962","TotalWages":"13880664"},
{"Zipcode":"39051","ZipCodeType":"STANDARD","City":"CARTHAGE","State":"MS","LocationType":"PRIMARY","Lat":"32.74","Long":"-89.53","Location":"NA-US-MS-CARTHAGE","Decommisioned":"false","TaxReturnsFiled":"6249","EstimatedPopulation":"11734","TotalWages":"177686000"},
{"Zipcode":"39054","ZipCodeType":"STANDARD","City":"CARY","State":"MS","LocationType":"PRIMARY","Lat":"32.8","Long":"-90.92","Location":"NA-US-MS-CARY","Decommisioned":"false","TaxReturnsFiled":"null","EstimatedPopulation":"null","TotalWages":"null"},
{"Zipcode":"38920","ZipCodeType":"STANDARD","City":"CASCILLA","State":"MS","LocationType":"PRIMARY","Lat":"33.89","Long":"-90.03","Location":"NA-US-MS-CASCILLA","Decommisioned":"false","TaxReturnsFiled":"297","EstimatedPopulation":"561","TotalWages":"6449036"},
{"Zipcode":"39741","ZipCodeType":"STANDARD","City":"CEDARBLUFF","State":"MS","LocationType":"PRIMARY","Lat":"33.61","Long":"-88.84","Location":"NA-US-MS-CEDARBLUFF","Decommisioned":"false","TaxReturnsFiled":"619","EstimatedPopulation":"1188","TotalWages":"16682041"},
{"Zipcode":"39631","ZipCodeType":"STANDARD","City":"CENTREVILLE","State":"MS","LocationType":"PRIMARY","Lat":"31.08","Long":"-91.06","Location":"NA-US-MS-CENTREVILLE","Decommisioned":"false","TaxReturnsFiled":"1446","EstimatedPopulation":"2627","TotalWages":"36676235"},
{"Zipcode":"38921","ZipCodeType":"STANDARD","City":"CHARLESTON","State":"MS","LocationType":"PRIMARY","Lat":"34","Long":"-90.05","Location":"NA-US-MS-CHARLESTON","Decommisioned":"false","TaxReturnsFiled":"1841","EstimatedPopulation":"3343","TotalWages":"38933892"},
{"Zipcode":"38958","ZipCodeType":"PO BOX","City":"SWAN LAKE","State":"MS","LocationType":"PRIMARY","Lat":"33.89","Long":"-90.24","Location":"NA-US-MS-SWAN LAKE","Decommisioned":"false","TaxReturnsFiled":"null","EstimatedPopulation":"null","TotalWages":"null"},
{"Zipcode":"39632","ZipCodeType":"PO BOX","City":"CHATAWA","State":"MS","LocationType":"PRIMARY","Lat":"31.1","Long":"-90.52","Location":"NA-US-MS-CHATAWA","Decommisioned":"false","TaxReturnsFiled":"null","EstimatedPopulation":"null","TotalWages":"null"},
{"Zipcode":"39323","ZipCodeType":"STANDARD","City":"CHUNKY","State":"MS","LocationType":"PRIMARY","Lat":"32.32","Long":"-88.92","Location":"NA-US-MS-CHUNKY","Decommisioned":"false","TaxReturnsFiled":"516","EstimatedPopulation":"988","TotalWages":"16069320"},
{"Zipcode":"39324","ZipCodeType":"PO BOX","City":"CLARA","State":"MS","LocationType":"PRIMARY","Lat":"31.57","Long":"-88.69","Location":"NA-US-MS-CLARA","Decommisioned":"false","TaxReturnsFiled":"null","EstimatedPopulation":"null","TotalWages":"null"},
{"Zipcode":"38614","ZipCodeType":"STANDARD","City":"CLARKSDALE","State":"MS","LocationType":"PRIMARY","Lat":"34.2","Long":"-90.57","Location":"NA-US-MS-CLARKSDALE","Decommisioned":"false","TaxReturnsFiled":"7768","EstimatedPopulation":"14062","TotalWages":"188124583"},
{"Zipcode":"38630","ZipCodeType":"PO BOX","City":"FARRELL","State":"MS","LocationType":"PRIMARY","Lat":"34.26","Long":"-90.67","Location":"NA-US-MS-FARRELL","Decommisioned":"false","TaxReturnsFiled":"null","EstimatedPopulation":"null","TotalWages":"null"},
{"Zipcode":"38669","ZipCodeType":"PO BOX","City":"SHERARD","State":"MS","LocationType":"PRIMARY","Lat":"34.21","Long":"-90.71","Location":"NA-US-MS-SHERARD","Decommisioned":"false","TaxReturnsFiled":"null","EstimatedPopulation":"null","TotalWages":"null"},
{"Zipcode":"38732","ZipCodeType":"STANDARD","City":"CLEVELAND","State":"MS","LocationType":"PRIMARY","Lat":"33.74","Long":"-90.72","Location":"NA-US-MS-CLEVELAND","Decommisioned":"false","TaxReturnsFiled":"7021","EstimatedPopulation":"12577","TotalWages":"205956688"},
{"Zipcode":"38733","ZipCodeType":"STANDARD","City":"CLEVELAND","State":"MS","LocationType":"PRIMARY","Lat":"33.74","Long":"-90.72","Location":"NA-US-MS-CLEVELAND","Decommisioned":"false","TaxReturnsFiled":"null","EstimatedPopulation":"null","TotalWages":"null"},
{"Zipcode":"39056","ZipCodeType":"STANDARD","City":"CLINTON","State":"MS","LocationType":"PRIMARY","Lat":"32.33","Long":"-90.33","Location":"NA-US-MS-CLINTON","Decommisioned":"false","TaxReturnsFiled":"11396","EstimatedPopulation":"20758","TotalWages":"441425722"},
{"Zipcode":"39058","ZipCodeType":"UNIQUE","City":"CLINTON","State":"MS","LocationType":"PRIMARY","Lat":"32.33","Long":"-90.33","Location":"NA-US-MS-CLINTON","Decommisioned":"false","TaxReturnsFiled":"null","EstimatedPopulation":"null","TotalWages":"null"},
{"Zipcode":"39060","ZipCodeType":"PO BOX","City":"CLINTON","State":"MS","LocationType":"PRIMARY","Lat":"32.33","Long":"-90.33","Location":"NA-US-MS-CLINTON","Decommisioned":"false","TaxReturnsFiled":"462","EstimatedPopulation":"803","TotalWages":"15785723"},
{"Zipcode":"38617","ZipCodeType":"STANDARD","City":"COAHOMA","State":"MS","LocationType":"PRIMARY","Lat":"34.36","Long":"-90.52","Location":"NA-US-MS-COAHOMA","Decommisioned":"false","TaxReturnsFiled":"262","EstimatedPopulation":"480","TotalWages":"5052942"},
{"Zipcode":"38922","ZipCodeType":"STANDARD","City":"COFFEEVILLE","State":"MS","LocationType":"PRIMARY","Lat":"33.97","Long":"-89.67","Location":"NA-US-MS-COFFEEVILLE","Decommisioned":"false","TaxReturnsFiled":"1427","EstimatedPopulation":"2629","TotalWages":"33137942"},
{"Zipcode":"38923","ZipCodeType":"STANDARD","City":"COILA","State":"MS","LocationType":"PRIMARY","Lat":"33.36","Long":"-89.97","Location":"NA-US-MS-COILA","Decommisioned":"false","TaxReturnsFiled":"495","EstimatedPopulation":"941","TotalWages":"13025893"},
{"Zipcode":"38618","ZipCodeType":"STANDARD","City":"COLDWATER","State":"MS","LocationType":"PRIMARY","Lat":"34.69","Long":"-89.97","Location":"NA-US-MS-COLDWATER","Decommisioned":"false","TaxReturnsFiled":"5009","EstimatedPopulation":"9294","TotalWages":"153034488"},
{"Zipcode":"39428","ZipCodeType":"STANDARD","City":"COLLINS","State":"MS","LocationType":"PRIMARY","Lat":"31.63","Long":"-89.55","Location":"NA-US-MS-COLLINS","Decommisioned":"false","TaxReturnsFiled":"3921","EstimatedPopulation":"7305","TotalWages":"102207879"},
{"Zipcode":"39325","ZipCodeType":"STANDARD","City":"COLLINSVILLE","State":"MS","LocationType":"PRIMARY","Lat":"32.49","Long":"-88.84","Location":"NA-US-MS-COLLINSVILLE","Decommisioned":"false","TaxReturnsFiled":"2501","EstimatedPopulation":"4923","TotalWages":"103868605"},
{"Zipcode":"39429","ZipCodeType":"STANDARD","City":"COLUMBIA","State":"MS","LocationType":"PRIMARY","Lat":"31.25","Long":"-89.82","Location":"NA-US-MS-COLUMBIA","Decommisioned":"false","TaxReturnsFiled":"6856","EstimatedPopulation":"12877","TotalWages":"211000989"},
{"Zipcode":"39701","ZipCodeType":"STANDARD","City":"COLUMBUS","State":"MS","LocationType":"PRIMARY","Lat":"33.5","Long":"-88.4","Location":"NA-US-MS-COLUMBUS","Decommisioned":"false","TaxReturnsFiled":"5498","EstimatedPopulation":"9383","TotalWages":"125026666"},
{"Zipcode":"39702","ZipCodeType":"STANDARD","City":"COLUMBUS","State":"MS","LocationType":"PRIMARY","Lat":"33.5","Long":"-88.4","Location":"NA-US-MS-COLUMBUS","Decommisioned":"false","TaxReturnsFiled":"9048","EstimatedPopulation":"16834","TotalWages":"275287188"},
{"Zipcode":"39703","ZipCodeType":"PO BOX","City":"COLUMBUS","State":"MS","LocationType":"PRIMARY","Lat":"33.5","Long":"-88.4","Location":"NA-US-MS-COLUMBUS","Decommisioned":"false","TaxReturnsFiled":"342","EstimatedPopulation":"576","TotalWages":"11382004"},
{"Zipcode":"39704","ZipCodeType":"PO BOX","City":"COLUMBUS","State":"MS","LocationType":"PRIMARY","Lat":"33.5","Long":"-88.4","Location":"NA-US-MS-COLUMBUS","Decommisioned":"false","TaxReturnsFiled":"405","EstimatedPopulation":"710","TotalWages":"12296483"},
{"Zipcode":"39705","ZipCodeType":"STANDARD","City":"COLUMBUS","State":"MS","LocationType":"PRIMARY","Lat":"33.5","Long":"-88.4","Location":"NA-US-MS-COLUMBUS","Decommisioned":"false","TaxReturnsFiled":"6162","EstimatedPopulation":"11121","TotalWages":"231687792"},
{"Zipcode":"39710","ZipCodeType":"UNIQUE","City":"COLUMBUS","State":"MS","LocationType":"PRIMARY","Lat":"33.5","Long":"-88.4","Location":"NA-US-MS-COLUMBUS","Decommisioned":"false","TaxReturnsFiled":"null","EstimatedPopulation":"null","TotalWages":"null"},
{"Zipcode":"38619","ZipCodeType":"STANDARD","City":"COMO","State":"MS","LocationType":"PRIMARY","Lat":"34.51","Long":"-89.94","Location":"NA-US-MS-COMO","Decommisioned":"false","TaxReturnsFiled":"2097","EstimatedPopulation":"3841","TotalWages":"47187504"},
{"Zipcode":"39057","ZipCodeType":"STANDARD","City":"CONEHATTA","State":"MS","LocationType":"PRIMARY","Lat":"32.45","Long":"-89.27","Location":"NA-US-MS-CONEHATTA","Decommisioned":"false","TaxReturnsFiled":"888","EstimatedPopulation":"1630","TotalWages":"21110771"},
{"Zipcode":"38834","ZipCodeType":"STANDARD","City":"CORINTH","State":"MS","LocationType":"PRIMARY","Lat":"34.93","Long":"-88.51","Location":"NA-US-MS-CORINTH","Decommisioned":"false","TaxReturnsFiled":"10293","EstimatedPopulation":"19260","TotalWages":"302220490"},
{"Zipcode":"38835","ZipCodeType":"PO BOX","City":"CORINTH","State":"MS","LocationType":"PRIMARY","Lat":"34.93","Long":"-88.51","Location":"NA-US-MS-CORINTH","Decommisioned":"false","TaxReturnsFiled":"819","EstimatedPopulation":"1435","TotalWages":"23717161"},
{"Zipcode":"38620","ZipCodeType":"STANDARD","City":"COURTLAND","State":"MS","LocationType":"PRIMARY","Lat":"34.24","Long":"-89.94","Location":"NA-US-MS-COURTLAND","Decommisioned":"false","TaxReturnsFiled":"1363","EstimatedPopulation":"2556","TotalWages":"36074805"},
{"Zipcode":"39743","ZipCodeType":"STANDARD","City":"CRAWFORD","State":"MS","LocationType":"PRIMARY","Lat":"33.3","Long":"-88.62","Location":"NA-US-MS-CRAWFORD","Decommisioned":"false","TaxReturnsFiled":"910","EstimatedPopulation":"1616","TotalWages":"18849729"},
{"Zipcode":"38621","ZipCodeType":"STANDARD","City":"CRENSHAW","State":"MS","LocationType":"PRIMARY","Lat":"34.5","Long":"-90.19","Location":"NA-US-MS-CRENSHAW","Decommisioned":"false","TaxReturnsFiled":"710","EstimatedPopulation":"1332","TotalWages":"14107691"},
{"Zipcode":"39633","ZipCodeType":"STANDARD","City":"CROSBY","State":"MS","LocationType":"PRIMARY","Lat":"31.27","Long":"-91.06","Location":"NA-US-MS-CROSBY","Decommisioned":"false","TaxReturnsFiled":"387","EstimatedPopulation":"732","TotalWages":"10989700"},
{"Zipcode":"38622","ZipCodeType":"PO BOX","City":"CROWDER","State":"MS","LocationType":"PRIMARY","Lat":"34.17","Long":"-90.13","Location":"NA-US-MS-CROWDER","Decommisioned":"false","TaxReturnsFiled":"284","EstimatedPopulation":"525","TotalWages":"5817272"},
{"Zipcode":"38924","ZipCodeType":"STANDARD","City":"CRUGER","State":"MS","LocationType":"PRIMARY","Lat":"33.32","Long":"-90.23","Location":"NA-US-MS-CRUGER","Decommisioned":"false","TaxReturnsFiled":"321","EstimatedPopulation":"608","TotalWages":"7025225"},
{"Zipcode":"39059","ZipCodeType":"STANDARD","City":"CRYSTAL SPRINGS","State":"MS","LocationType":"PRIMARY","Lat":"31.98","Long":"-90.35","Location":"NA-US-MS-CRYSTAL SPRINGS","Decommisioned":"false","TaxReturnsFiled":"4977","EstimatedPopulation":"8962","TotalWages":"140722718"},
{"Zipcode":"39326","ZipCodeType":"STANDARD","City":"DALEVILLE","State":"MS","LocationType":"PRIMARY","Lat":"32.54","Long":"-88.67","Location":"NA-US-MS-DALEVILLE","Decommisioned":"false","TaxReturnsFiled":"322","EstimatedPopulation":"571","TotalWages":"8463548"},
{"Zipcode":"38623","ZipCodeType":"PO BOX","City":"DARLING","State":"MS","LocationType":"PRIMARY","Lat":"34.35","Long":"-90.26","Location":"NA-US-MS-DARLING","Decommisioned":"false","TaxReturnsFiled":"null","EstimatedPopulation":"null","TotalWages":"null"},
{"Zipcode":"39327","ZipCodeType":"STANDARD","City":"DECATUR","State":"MS","LocationType":"PRIMARY","Lat":"32.43","Long":"-89.11","Location":"NA-US-MS-DECATUR","Decommisioned":"false","TaxReturnsFiled":"1585","EstimatedPopulation":"3078","TotalWages":"50639147"},
{"Zipcode":"39328","ZipCodeType":"STANDARD","City":"DE KALB","State":"MS","LocationType":"PRIMARY","Lat":"32.76","Long":"-88.65","Location":"NA-US-MS-DE KALB","Decommisioned":"false","TaxReturnsFiled":"2034","EstimatedPopulation":"3501","TotalWages":"44981679"},
{"Zipcode":"39061","ZipCodeType":"PO BOX","City":"DELTA CITY","State":"MS","LocationType":"PRIMARY","Lat":"33.07","Long":"-90.75","Location":"NA-US-MS-DELTA CITY","Decommisioned":"false","TaxReturnsFiled":"null","EstimatedPopulation":"null","TotalWages":"null"},
{"Zipcode":"38838","ZipCodeType":"STANDARD","City":"DENNIS","State":"MS","LocationType":"PRIMARY","Lat":"34.56","Long":"-88.18","Location":"NA-US-MS-DENNIS","Decommisioned":"false","TaxReturnsFiled":"562","EstimatedPopulation":"1115","TotalWages":"15032592"},
{"Zipcode":"38839","ZipCodeType":"PO BOX","City":"DERMA","State":"MS","LocationType":"PRIMARY","Lat":"33.85","Long":"-89.28","Location":"NA-US-MS-DERMA","Decommisioned":"false","TaxReturnsFiled":"null","EstimatedPopulation":"null","TotalWages":"null"},
{"Zipcode":"39062","ZipCodeType":"PO BOX","City":"D LO","State":"MS","LocationType":"PRIMARY","Lat":"31.98","Long":"-89.85","Location":"NA-US-MS-D LO","Decommisioned":"false","TaxReturnsFiled":"330","EstimatedPopulation":"600","TotalWages":"7204123"},
{"Zipcode":"38736","ZipCodeType":"STANDARD","City":"DODDSVILLE","State":"MS","LocationType":"PRIMARY","Lat":"33.65","Long":"-90.52","Location":"NA-US-MS-DODDSVILLE","Decommisioned":"false","TaxReturnsFiled":"null","EstimatedPopulation":"null","TotalWages":"null"},
{"Zipcode":"38737","ZipCodeType":"STANDARD","City":"DREW","State":"MS","LocationType":"PRIMARY","Lat":"33.8","Long":"-90.53","Location":"NA-US-MS-DREW","Decommisioned":"false","TaxReturnsFiled":"1177","EstimatedPopulation":"2141","TotalWages":"24867982"},
{"Zipcode":"38738","ZipCodeType":"PO BOX","City":"PARCHMAN","State":"MS","LocationType":"PRIMARY","Lat":"33.87","Long":"-90.55","Location":"NA-US-MS-PARCHMAN","Decommisioned":"false","TaxReturnsFiled":"null","EstimatedPopulation":"null","TotalWages":"null"},
{"Zipcode":"38739","ZipCodeType":"PO BOX","City":"DUBLIN","State":"MS","LocationType":"PRIMARY","Lat":"34.08","Long":"-90.5","Location":"NA-US-MS-DUBLIN","Decommisioned":"false","TaxReturnsFiled":"null","EstimatedPopulation":"null","TotalWages":"null"},
{"Zipcode":"38925","ZipCodeType":"STANDARD","City":"DUCK HILL","State":"MS","LocationType":"PRIMARY","Lat":"33.63","Long":"-89.71","Location":"NA-US-MS-DUCK HILL","Decommisioned":"false","TaxReturnsFiled":"972","EstimatedPopulation":"1809","TotalWages":"23162398"},
{"Zipcode":"38625","ZipCodeType":"STANDARD","City":"DUMAS","State":"MS","LocationType":"PRIMARY","Lat":"34.63","Long":"-88.83","Location":"NA-US-MS-DUMAS","Decommisioned":"false","TaxReturnsFiled":"403","EstimatedPopulation":"766","TotalWages":"11544087"},
{"Zipcode":"38740","ZipCodeType":"STANDARD","City":"DUNCAN","State":"MS","LocationType":"PRIMARY","Lat":"34.04","Long":"-90.74","Location":"NA-US-MS-DUNCAN","Decommisioned":"false","TaxReturnsFiled":"null","EstimatedPopulation":"null","TotalWages":"null"},
{"Zipcode":"38626","ZipCodeType":"STANDARD","City":"DUNDEE","State":"MS","LocationType":"PRIMARY","Lat":"34.51","Long":"-90.45","Location":"NA-US-MS-DUNDEE","Decommisioned":"false","TaxReturnsFiled":"532","EstimatedPopulation":"960","TotalWages":"12030196"},
{"Zipcode":"39063","ZipCodeType":"STANDARD","City":"DURANT","State":"MS","LocationType":"PRIMARY","Lat":"33.08","Long":"-89.85","Location":"NA-US-MS-DURANT","Decommisioned":"false","TaxReturnsFiled":"1502","EstimatedPopulation":"2735","TotalWages":"30171048"},
{"Zipcode":"39436","ZipCodeType":"PO BOX","City":"EASTABUCHIE","State":"MS","LocationType":"PRIMARY","Lat":"31.47","Long":"-89.23","Location":"NA-US-MS-EASTABUCHIE","Decommisioned":"false","TaxReturnsFiled":"null","EstimatedPopulation":"null","TotalWages":"null"},
{"Zipcode":"38841","ZipCodeType":"STANDARD","City":"ECRU","State":"MS","LocationType":"PRIMARY","Lat":"34.35","Long":"-89.02","Location":"NA-US-MS-ECRU","Decommisioned":"false","TaxReturnsFiled":"1292","EstimatedPopulation":"2508","TotalWages":"35530829"},
{"Zipcode":"39066","ZipCodeType":"STANDARD","City":"EDWARDS","State":"MS","LocationType":"PRIMARY","Lat":"32.33","Long":"-90.6","Location":"NA-US-MS-EDWARDS","Decommisioned":"false","TaxReturnsFiled":"1940","EstimatedPopulation":"3500","TotalWages":"50209565"},
{"Zipcode":"39437","ZipCodeType":"STANDARD","City":"ELLISVILLE","State":"MS","LocationType":"PRIMARY","Lat":"31.59","Long":"-89.2","Location":"NA-US-MS-ELLISVILLE","Decommisioned":"false","TaxReturnsFiled":"4760","EstimatedPopulation":"8960","TotalWages":"161205024"},
{"Zipcode":"38927","ZipCodeType":"STANDARD","City":"ENID","State":"MS","LocationType":"PRIMARY","Lat":"34.11","Long":"-89.95","Location":"NA-US-MS-ENID","Decommisioned":"false","TaxReturnsFiled":"461","EstimatedPopulation":"879","TotalWages":"12808833"},
{"Zipcode":"39330","ZipCodeType":"STANDARD","City":"ENTERPRISE","State":"MS","LocationType":"PRIMARY","Lat":"32.17","Long":"-88.81","Location":"NA-US-MS-ENTERPRISE","Decommisioned":"false","TaxReturnsFiled":"1129","EstimatedPopulation":"2169","TotalWages":"42587237"},
{"Zipcode":"39552","ZipCodeType":"PO BOX","City":"ESCATAWPA","State":"MS","LocationType":"PRIMARY","Lat":"30.48","Long":"-88.55","Location":"NA-US-MS-ESCATAWPA","Decommisioned":"false","TaxReturnsFiled":"681","EstimatedPopulation":"1198","TotalWages":"21470363"},
{"Zipcode":"39067","ZipCodeType":"STANDARD","City":"ETHEL","State":"MS","LocationType":"PRIMARY","Lat":"33.12","Long":"-89.46","Location":"NA-US-MS-ETHEL","Decommisioned":"false","TaxReturnsFiled":"534","EstimatedPopulation":"1026","TotalWages":"13307322"},
{"Zipcode":"38627","ZipCodeType":"STANDARD","City":"ETTA","State":"MS","LocationType":"PRIMARY","Lat":"34.46","Long":"-89.2","Location":"NA-US-MS-ETTA","Decommisioned":"false","TaxReturnsFiled":"475","EstimatedPopulation":"923","TotalWages":"13710874"},
{"Zipcode":"39744","ZipCodeType":"STANDARD","City":"EUPORA","State":"MS","LocationType":"PRIMARY","Lat":"33.54","Long":"-89.27","Location":"NA-US-MS-EUPORA","Decommisioned":"false","TaxReturnsFiled":"2379","EstimatedPopulation":"4472","TotalWages":"59281776"},
{"Zipcode":"38629","ZipCodeType":"STANDARD","City":"FALKNER","State":"MS","LocationType":"PRIMARY","Lat":"34.84","Long":"-88.93","Location":"NA-US-MS-FALKNER","Decommisioned":"false","TaxReturnsFiled":"667","EstimatedPopulation":"1272","TotalWages":"19421093"},
{"Zipcode":"39069","ZipCodeType":"STANDARD","City":"FAYETTE","State":"MS","LocationType":"PRIMARY","Lat":"31.71","Long":"-91.06","Location":"NA-US-MS-FAYETTE","Decommisioned":"false","TaxReturnsFiled":"2150","EstimatedPopulation":"3899","TotalWages":"49069340"},
{"Zipcode":"39081","ZipCodeType":"PO BOX","City":"HARRISTON","State":"MS","LocationType":"PRIMARY","Lat":"31.71","Long":"-91.03","Location":"NA-US-MS-HARRISTON","Decommisioned":"false","TaxReturnsFiled":"null","EstimatedPopulation":"null","TotalWages":"null"},
{"Zipcode":"39635","ZipCodeType":"PO BOX","City":"FERNWOOD","State":"MS","LocationType":"PRIMARY","Lat":"31.18","Long":"-90.44","Location":"NA-US-MS-FERNWOOD","Decommisioned":"false","TaxReturnsFiled":"null","EstimatedPopulation":"null","TotalWages":"null"},
{"Zipcode":"39071","ZipCodeType":"STANDARD","City":"FLORA","State":"MS","LocationType":"PRIMARY","Lat":"32.54","Long":"-90.31","Location":"NA-US-MS-FLORA","Decommisioned":"false","TaxReturnsFiled":"2264","EstimatedPopulation":"4237","TotalWages":"90306918"},
{"Zipcode":"39072","ZipCodeType":"PO BOX","City":"POCAHONTAS","State":"MS","LocationType":"PRIMARY","Lat":"32.41","Long":"-90.22","Location":"NA-US-MS-POCAHONTAS","Decommisioned":"false","TaxReturnsFiled":"null","EstimatedPopulation":"null","TotalWages":"null"},
{"Zipcode":"39073","ZipCodeType":"STANDARD","City":"FLORENCE","State":"MS","LocationType":"PRIMARY","Lat":"32.15","Long":"-90.12","Location":"NA-US-MS-FLORENCE","Decommisioned":"false","TaxReturnsFiled":"8194","EstimatedPopulation":"15468","TotalWages":"290324081"},
{"Zipcode":"39074","ZipCodeType":"STANDARD","City":"FOREST","State":"MS","LocationType":"PRIMARY","Lat":"32.35","Long":"-89.47","Location":"NA-US-MS-FOREST","Decommisioned":"false","TaxReturnsFiled":"5837","EstimatedPopulation":"10722","TotalWages":"147109672"},
{"Zipcode":"39483","ZipCodeType":"STANDARD","City":"FOXWORTH","State":"MS","LocationType":"PRIMARY","Lat":"31.27","Long":"-89.95","Location":"NA-US-MS-FOXWORTH","Decommisioned":"false","TaxReturnsFiled":"2361","EstimatedPopulation":"4727","TotalWages":"77681237"},
{"Zipcode":"39745","ZipCodeType":"STANDARD","City":"FRENCH CAMP","State":"MS","LocationType":"PRIMARY","Lat":"33.29","Long":"-89.39","Location":"NA-US-MS-FRENCH CAMP","Decommisioned":"false","TaxReturnsFiled":"331","EstimatedPopulation":"659","TotalWages":"10494886"},
{"Zipcode":"38631","ZipCodeType":"PO BOX","City":"FRIARS POINT","State":"MS","LocationType":"PRIMARY","Lat":"34.36","Long":"-90.63","Location":"NA-US-MS-FRIARS POINT","Decommisioned":"false","TaxReturnsFiled":"543","EstimatedPopulation":"993","TotalWages":"10485800"},
{"Zipcode":"38843","ZipCodeType":"STANDARD","City":"FULTON","State":"MS","LocationType":"PRIMARY","Lat":"34.26","Long":"-88.4","Location":"NA-US-MS-FULTON","Decommisioned":"false","TaxReturnsFiled":"4334","EstimatedPopulation":"8170","TotalWages":"133859861"},
{"Zipcode":"39077","ZipCodeType":"PO BOX","City":"GALLMAN","State":"MS","LocationType":"PRIMARY","Lat":"31.9","Long":"-90.42","Location":"NA-US-MS-GALLMAN","Decommisioned":"false","TaxReturnsFiled":"null","EstimatedPopulation":"null","TotalWages":"null"},
{"Zipcode":"38844","ZipCodeType":"STANDARD","City":"GATTMAN","State":"MS","LocationType":"PRIMARY","Lat":"33.88","Long":"-88.23","Location":"NA-US-MS-GATTMAN","Decommisioned":"false","TaxReturnsFiled":"null","EstimatedPopulation":"null","TotalWages":"null"},
{"Zipcode":"39553","ZipCodeType":"STANDARD","City":"GAUTIER","State":"MS","LocationType":"PRIMARY","Lat":"30.38","Long":"-88.63","Location":"NA-US-MS-GAUTIER","Decommisioned":"false","TaxReturnsFiled":"7496","EstimatedPopulation":"13379","TotalWages":"261312821"},
{"Zipcode":"39078","ZipCodeType":"STANDARD","City":"GEORGETOWN","State":"MS","LocationType":"PRIMARY","Lat":"31.86","Long":"-90.16","Location":"NA-US-MS-GEORGETOWN","Decommisioned":"false","TaxReturnsFiled":"334","EstimatedPopulation":"615","TotalWages":"6699957"},
{"Zipcode":"38846","ZipCodeType":"STANDARD","City":"GLEN","State":"MS","LocationType":"PRIMARY","Lat":"34.86","Long":"-88.5","Location":"NA-US-MS-GLEN","Decommisioned":"false","TaxReturnsFiled":"917","EstimatedPopulation":"1765","TotalWages":"25274851"},
{"Zipcode":"38744","ZipCodeType":"STANDARD","City":"GLEN ALLAN","State":"MS","LocationType":"PRIMARY","Lat":"33.03","Long":"-91.01","Location":"NA-US-MS-GLEN ALLAN","Decommisioned":"false","TaxReturnsFiled":"364","EstimatedPopulation":"676","TotalWages":"7891382"},
{"Zipcode":"38928","ZipCodeType":"STANDARD","City":"GLENDORA","State":"MS","LocationType":"PRIMARY","Lat":"33.82","Long":"-90.29","Location":"NA-US-MS-GLENDORA","Decommisioned":"false","TaxReturnsFiled":"null","EstimatedPopulation":"null","TotalWages":"null"},
{"Zipcode":"39638","ZipCodeType":"STANDARD","City":"GLOSTER","State":"MS","LocationType":"PRIMARY","Lat":"31.19","Long":"-91.01","Location":"NA-US-MS-GLOSTER","Decommisioned":"false","TaxReturnsFiled":"1349","EstimatedPopulation":"2449","TotalWages":"34903350"},
{"Zipcode":"38847","ZipCodeType":"STANDARD","City":"GOLDEN","State":"MS","LocationType":"PRIMARY","Lat":"34.48","Long":"-88.18","Location":"NA-US-MS-GOLDEN","Decommisioned":"false","TaxReturnsFiled":"1326","EstimatedPopulation":"2592","TotalWages":"37582287"},
{"Zipcode":"39079","ZipCodeType":"STANDARD","City":"GOODMAN","State":"MS","LocationType":"PRIMARY","Lat":"32.96","Long":"-89.91","Location":"NA-US-MS-GOODMAN","Decommisioned":"false","TaxReturnsFiled":"718","EstimatedPopulation":"1308","TotalWages":"15025777"},
{"Zipcode":"39171","ZipCodeType":"PO BOX","City":"THOMASTOWN","State":"MS","LocationType":"PRIMARY","Lat":"32.85","Long":"-89.66","Location":"NA-US-MS-THOMASTOWN","Decommisioned":"false","TaxReturnsFiled":"null","EstimatedPopulation":"null","TotalWages":"null"},
{"Zipcode":"38929","ZipCodeType":"STANDARD","City":"GORE SPRINGS","State":"MS","LocationType":"PRIMARY","Lat":"33.71","Long":"-89.57","Location":"NA-US-MS-GORE SPRINGS","Decommisioned":"false","TaxReturnsFiled":"534","EstimatedPopulation":"976","TotalWages":"13073843"},
{"Zipcode":"38745","ZipCodeType":"PO BOX","City":"GRACE","State":"MS","LocationType":"PRIMARY","Lat":"32.96","Long":"-90.94","Location":"NA-US-MS-GRACE","Decommisioned":"false","TaxReturnsFiled":"null","EstimatedPopulation":"null","TotalWages":"null"},
{"Zipcode":"38701","ZipCodeType":"STANDARD","City":"GREENVILLE","State":"MS","LocationType":"PRIMARY","Lat":"33.38","Long":"-91.05","Location":"NA-US-MS-GREENVILLE","Decommisioned":"false","TaxReturnsFiled":"9667","EstimatedPopulation":"17629","TotalWages":"250298620"},
{"Zipcode":"38702","ZipCodeType":"PO BOX","City":"GREENVILLE","State":"MS","LocationType":"PRIMARY","Lat":"33.38","Long":"-91.05","Location":"NA-US-MS-GREENVILLE","Decommisioned":"false","TaxReturnsFiled":"415","EstimatedPopulation":"717","TotalWages":"13755598"},
{"Zipcode":"38703","ZipCodeType":"STANDARD","City":"GREENVILLE","State":"MS","LocationType":"PRIMARY","Lat":"33.38","Long":"-91.05","Location":"NA-US-MS-GREENVILLE","Decommisioned":"false","TaxReturnsFiled":"5221","EstimatedPopulation":"9461","TotalWages":"111694510"},
{"Zipcode":"38704","ZipCodeType":"PO BOX","City":"GREENVILLE","State":"MS","LocationType":"PRIMARY","Lat":"33.38","Long":"-91.05","Location":"NA-US-MS-GREENVILLE","Decommisioned":"false","TaxReturnsFiled":"605","EstimatedPopulation":"1034","TotalWages":"16782041"},
{"Zipcode":"38731","ZipCodeType":"STANDARD","City":"CHATHAM","State":"MS","LocationType":"PRIMARY","Lat":"33.08","Long":"-91.08","Location":"NA-US-MS-CHATHAM","Decommisioned":"false","TaxReturnsFiled":"null","EstimatedPopulation":"null","TotalWages":"null"},
{"Zipcode":"38782","ZipCodeType":"PO BOX","City":"WINTERVILLE","State":"MS","LocationType":"PRIMARY","Lat":"33.28","Long":"-91.01","Location":"NA-US-MS-WINTERVILLE","Decommisioned":"false","TaxReturnsFiled":"null","EstimatedPopulation":"null","TotalWages":"null"},
{"Zipcode":"38930","ZipCodeType":"STANDARD","City":"GREENWOOD","State":"MS","LocationType":"PRIMARY","Lat":"33.51","Long":"-90.19","Location":"NA-US-MS-GREENWOOD","Decommisioned":"false","TaxReturnsFiled":"9462","EstimatedPopulation":"17053","TotalWages":"253881543"},
{"Zipcode":"38935","ZipCodeType":"PO BOX","City":"GREENWOOD","State":"MS","LocationType":"PRIMARY","Lat":"33.51","Long":"-90.19","Location":"NA-US-MS-GREENWOOD","Decommisioned":"false","TaxReturnsFiled":"707","EstimatedPopulation":"1225","TotalWages":"17833830"},
{"Zipcode":"38945","ZipCodeType":"PO BOX","City":"MONEY","State":"MS","LocationType":"PRIMARY","Lat":"33.61","Long":"-90.19","Location":"NA-US-MS-MONEY","Decommisioned":"false","TaxReturnsFiled":"null","EstimatedPopulation":"null","TotalWages":"null"},
{"Zipcode":"38848","ZipCodeType":"STANDARD","City":"GREENWOOD SPRINGS","State":"MS","LocationType":"PRIMARY","Lat":"33.98","Long":"-88.29","Location":"NA-US-MS-GREENWOOD SPRINGS","Decommisioned":"false","TaxReturnsFiled":"327","EstimatedPopulation":"656","TotalWages":"10990052"},
{"Zipcode":"38901","ZipCodeType":"STANDARD","City":"GRENADA","State":"MS","LocationType":"PRIMARY","Lat":"33.77","Long":"-89.81","Location":"NA-US-MS-GRENADA","Decommisioned":"false","TaxReturnsFiled":"7217","EstimatedPopulation":"13430","TotalWages":"209088324"},
{"Zipcode":"38902","ZipCodeType":"PO BOX","City":"GRENADA","State":"MS","LocationType":"PRIMARY","Lat":"33.77","Long":"-89.81","Location":"NA-US-MS-GRENADA","Decommisioned":"false","TaxReturnsFiled":"814","EstimatedPopulation":"1406","TotalWages":"21443490"},
{"Zipcode":"38926","ZipCodeType":"PO BOX","City":"ELLIOTT","State":"MS","LocationType":"PRIMARY","Lat":"33.7","Long":"-89.74","Location":"NA-US-MS-ELLIOTT","Decommisioned":"false","TaxReturnsFiled":"null","EstimatedPopulation":"null","TotalWages":"null"},
{"Zipcode":"38960","ZipCodeType":"PO BOX","City":"TIE PLANT","State":"MS","LocationType":"PRIMARY","Lat":"33.77","Long":"-89.8","Location":"NA-US-MS-TIE PLANT","Decommisioned":"false","TaxReturnsFiled":"null","EstimatedPopulation":"null","TotalWages":"null"},
{"Zipcode":"39501","ZipCodeType":"STANDARD","City":"GULFPORT","State":"MS","LocationType":"PRIMARY","Lat":"30.38","Long":"-89.06","Location":"NA-US-MS-GULFPORT","Decommisioned":"false","TaxReturnsFiled":"8523","EstimatedPopulation":"14519","TotalWages":"176802095"},
{"Zipcode":"39502","ZipCodeType":"PO BOX","City":"GULFPORT","State":"MS","LocationType":"PRIMARY","Lat":"30.38","Long":"-89.06","Location":"NA-US-MS-GULFPORT","Decommisioned":"false","TaxReturnsFiled":"571","EstimatedPopulation":"906","TotalWages":"21978227"},
{"Zipcode":"39503","ZipCodeType":"STANDARD","City":"GULFPORT","State":"MS","LocationType":"PRIMARY","Lat":"30.38","Long":"-89.06","Location":"NA-US-MS-GULFPORT","Decommisioned":"false","TaxReturnsFiled":"18811","EstimatedPopulation":"33916","TotalWages":"655526353"},
{"Zipcode":"39505","ZipCodeType":"PO BOX","City":"GULFPORT","State":"MS","LocationType":"PRIMARY","Lat":"30.38","Long":"-89.06","Location":"NA-US-MS-GULFPORT","Decommisioned":"false","TaxReturnsFiled":"678","EstimatedPopulation":"1140","TotalWages":"21534046"},
{"Zipcode":"39506","ZipCodeType":"PO BOX","City":"GULFPORT","State":"MS","LocationType":"PRIMARY","Lat":"30.38","Long":"-89.06","Location":"NA-US-MS-GULFPORT","Decommisioned":"false","TaxReturnsFiled":"506","EstimatedPopulation":"797","TotalWages":"14933311"},
{"Zipcode":"39507","ZipCodeType":"STANDARD","City":"GULFPORT","State":"MS","LocationType":"PRIMARY","Lat":"30.38","Long":"-89.06","Location":"NA-US-MS-GULFPORT","Decommisioned":"false","TaxReturnsFiled":"7338","EstimatedPopulation":"12140","TotalWages":"235544292"},
{"Zipcode":"38746","ZipCodeType":"STANDARD","City":"GUNNISON","State":"MS","LocationType":"PRIMARY","Lat":"33.94","Long":"-90.94","Location":"NA-US-MS-GUNNISON","Decommisioned":"false","TaxReturnsFiled":"null","EstimatedPopulation":"null","TotalWages":"null"},
{"Zipcode":"38849","ZipCodeType":"STANDARD","City":"GUNTOWN","State":"MS","LocationType":"PRIMARY","Lat":"34.44","Long":"-88.66","Location":"NA-US-MS-GUNTOWN","Decommisioned":"false","TaxReturnsFiled":"2129","EstimatedPopulation":"4127","TotalWages":"67087853"},
{"Zipcode":"39746","ZipCodeType":"STANDARD","City":"HAMILTON","State":"MS","LocationType":"PRIMARY","Lat":"33.8","Long":"-88.43","Location":"NA-US-MS-HAMILTON","Decommisioned":"false","TaxReturnsFiled":"1357","EstimatedPopulation":"2549","TotalWages":"42045203"},
{"Zipcode":"39080","ZipCodeType":"PO BOX","City":"HARPERVILLE","State":"MS","LocationType":"PRIMARY","Lat":"32.47","Long":"-89.45","Location":"NA-US-MS-HARPERVILLE","Decommisioned":"false","TaxReturnsFiled":"null","EstimatedPopulation":"null","TotalWages":"null"},
{"Zipcode":"39082","ZipCodeType":"STANDARD","City":"HARRISVILLE","State":"MS","LocationType":"PRIMARY","Lat":"31.96","Long":"-90.09","Location":"NA-US-MS-HARRISVILLE","Decommisioned":"false","TaxReturnsFiled":"553","EstimatedPopulation":"1038","TotalWages":"16703409"},
{"Zipcode":"39401","ZipCodeType":"STANDARD","City":"HATTIESBURG","State":"MS","LocationType":"PRIMARY","Lat":"31.31","Long":"-89.3","Location":"NA-US-MS-HATTIESBURG","Decommisioned":"false","TaxReturnsFiled":"16447","EstimatedPopulation":"27486","TotalWages":"395331583"},
{"Zipcode":"39402","ZipCodeType":"STANDARD","City":"HATTIESBURG","State":"MS","LocationType":"PRIMARY","Lat":"31.31","Long":"-89.3","Location":"NA-US-MS-HATTIESBURG","Decommisioned":"false","TaxReturnsFiled":"15516","EstimatedPopulation":"27793","TotalWages":"678391743"},
{"Zipcode":"39403","ZipCodeType":"PO BOX","City":"HATTIESBURG","State":"MS","LocationType":"PRIMARY","Lat":"31.31","Long":"-89.3","Location":"NA-US-MS-HATTIESBURG","Decommisioned":"false","TaxReturnsFiled":"449","EstimatedPopulation":"768","TotalWages":"17841890"},
{"Zipcode":"39404","ZipCodeType":"PO BOX","City":"HATTIESBURG","State":"MS","LocationType":"PRIMARY","Lat":"31.31","Long":"-89.3","Location":"NA-US-MS-HATTIESBURG","Decommisioned":"false","TaxReturnsFiled":"1015","EstimatedPopulation":"1685","TotalWages":"32266631"},
{"Zipcode":"39406","ZipCodeType":"UNIQUE","City":"HATTIESBURG","State":"MS","LocationType":"PRIMARY","Lat":"31.31","Long":"-89.3","Location":"NA-US-MS-HATTIESBURG","Decommisioned":"false","TaxReturnsFiled":"256","EstimatedPopulation":"356","TotalWages":"3291124"},
{"Zipcode":"39407","ZipCodeType":"UNIQUE","City":"HATTIESBURG","State":"MS","LocationType":"PRIMARY","Lat":"31.31","Long":"-89.3","Location":"NA-US-MS-HATTIESBURG","Decommisioned":"false","TaxReturnsFiled":"null","EstimatedPopulation":"null","TotalWages":"null"},
{"Zipcode":"39083","ZipCodeType":"STANDARD","City":"HAZLEHURST","State":"MS","LocationType":"PRIMARY","Lat":"31.86","Long":"-90.39","Location":"NA-US-MS-HAZLEHURST","Decommisioned":"false","TaxReturnsFiled":"4415","EstimatedPopulation":"7946","TotalWages":"107224889"},
{"Zipcode":"39439","ZipCodeType":"STANDARD","City":"HEIDELBERG","State":"MS","LocationType":"PRIMARY","Lat":"31.89","Long":"-88.98","Location":"NA-US-MS-HEIDELBERG","Decommisioned":"false","TaxReturnsFiled":"1975","EstimatedPopulation":"3578","TotalWages":"51526217"},
{"Zipcode":"39086","ZipCodeType":"STANDARD","City":"HERMANVILLE","State":"MS","LocationType":"PRIMARY","Lat":"32.02","Long":"-90.8","Location":"NA-US-MS-HERMANVILLE","Decommisioned":"false","TaxReturnsFiled":"973","EstimatedPopulation":"1808","TotalWages":"20062724"},
{"Zipcode":"38632","ZipCodeType":"STANDARD","City":"HERNANDO","State":"MS","LocationType":"PRIMARY","Lat":"34.82","Long":"-89.98","Location":"NA-US-MS-HERNANDO","Decommisioned":"false","TaxReturnsFiled":"10455","EstimatedPopulation":"20071","TotalWages":"477331729"},
{"Zipcode":"39332","ZipCodeType":"STANDARD","City":"HICKORY","State":"MS","LocationType":"PRIMARY","Lat":"32.31","Long":"-89.02","Location":"NA-US-MS-HICKORY","Decommisioned":"false","TaxReturnsFiled":"739","EstimatedPopulation":"1412","TotalWages":"23665513"},
{"Zipcode":"38633","ZipCodeType":"STANDARD","City":"HICKORY FLAT","State":"MS","LocationType":"PRIMARY","Lat":"34.61","Long":"-89.18","Location":"NA-US-MS-HICKORY FLAT","Decommisioned":"false","TaxReturnsFiled":"889","EstimatedPopulation":"1709","TotalWages":"24973041"},
{"Zipcode":"39087","ZipCodeType":"PO BOX","City":"HILLSBORO","State":"MS","LocationType":"PRIMARY","Lat":"32.44","Long":"-89.51","Location":"NA-US-MS-HILLSBORO","Decommisioned":"false","TaxReturnsFiled":"null","EstimatedPopulation":"null","TotalWages":"null"},
{"Zipcode":"38940","ZipCodeType":"STANDARD","City":"HOLCOMB","State":"MS","LocationType":"PRIMARY","Lat":"33.75","Long":"-89.96","Location":"NA-US-MS-HOLCOMB","Decommisioned":"false","TaxReturnsFiled":"812","EstimatedPopulation":"1554","TotalWages":"24183913"},
{"Zipcode":"38748","ZipCodeType":"STANDARD","City":"HOLLANDALE","State":"MS","LocationType":"PRIMARY","Lat":"33.17","Long":"-90.85","Location":"NA-US-MS-HOLLANDALE","Decommisioned":"false","TaxReturnsFiled":"1560","EstimatedPopulation":"2886","TotalWages":"32865432"},
{"Zipcode":"39088","ZipCodeType":"STANDARD","City":"HOLLY BLUFF","State":"MS","LocationType":"PRIMARY","Lat":"32.83","Long":"-90.69","Location":"NA-US-MS-HOLLY BLUFF","Decommisioned":"false","TaxReturnsFiled":"null","EstimatedPopulation":"null","TotalWages":"null"},
{"Zipcode":"38634","ZipCodeType":"PO BOX","City":"HOLLY SPRINGS","State":"MS","LocationType":"PRIMARY","Lat":"34.77","Long":"-89.44","Location":"NA-US-MS-HOLLY SPRINGS","Decommisioned":"false","TaxReturnsFiled":"263","EstimatedPopulation":"450","TotalWages":"5971231"},
{"Zipcode":"38635","ZipCodeType":"STANDARD","City":"HOLLY SPRINGS","State":"MS","LocationType":"PRIMARY","Lat":"34.77","Long":"-89.44","Location":"NA-US-MS-HOLLY SPRINGS","Decommisioned":"false","TaxReturnsFiled":"6045","EstimatedPopulation":"10658","TotalWages":"153126740"},
{"Zipcode":"38649","ZipCodeType":"PO BOX","City":"MOUNT PLEASANT","State":"MS","LocationType":"PRIMARY","Lat":"34.93","Long":"-89.53","Location":"NA-US-MS-MOUNT PLEASANT","Decommisioned":"false","TaxReturnsFiled":"null","EstimatedPopulation":"null","TotalWages":"null"},
{"Zipcode":"38637","ZipCodeType":"STANDARD","City":"HORN LAKE","State":"MS","LocationType":"PRIMARY","Lat":"34.95","Long":"-90.03","Location":"NA-US-MS-HORN LAKE","Decommisioned":"false","TaxReturnsFiled":"11398","EstimatedPopulation":"20486","TotalWages":"347172382"},
{"Zipcode":"38850","ZipCodeType":"STANDARD","City":"HOULKA","State":"MS","LocationType":"PRIMARY","Lat":"34.03","Long":"-89.01","Location":"NA-US-MS-HOULKA","Decommisioned":"false","TaxReturnsFiled":"1420","EstimatedPopulation":"2656","TotalWages":"35029519"},
{"Zipcode":"38851","ZipCodeType":"STANDARD","City":"HOUSTON","State":"MS","LocationType":"PRIMARY","Lat":"33.89","Long":"-89","Location":"NA-US-MS-HOUSTON","Decommisioned":"false","TaxReturnsFiled":"3547","EstimatedPopulation":"6604","TotalWages":"88282710"},
{"Zipcode":"39555","ZipCodeType":"PO BOX","City":"HURLEY","State":"MS","LocationType":"PRIMARY","Lat":"30.66","Long":"-88.49","Location":"NA-US-MS-HURLEY","Decommisioned":"false","TaxReturnsFiled":"615","EstimatedPopulation":"1212","TotalWages":"26911268"},
{"Zipcode":"38638","ZipCodeType":"PO BOX","City":"INDEPENDENCE","State":"MS","LocationType":"PRIMARY","Lat":"34.7","Long":"-89.8","Location":"NA-US-MS-INDEPENDENCE","Decommisioned":"false","TaxReturnsFiled":"null","EstimatedPopulation":"null","TotalWages":"null"},
{"Zipcode":"38749","ZipCodeType":"PO BOX","City":"HOLLY RIDGE","State":"MS","LocationType":"PRIMARY","Lat":"33.48","Long":"-90.68","Location":"NA-US-MS-HOLLY RIDGE","Decommisioned":"false","TaxReturnsFiled":"null","EstimatedPopulation":"null","TotalWages":"null"},
{"Zipcode":"38751","ZipCodeType":"STANDARD","City":"INDIANOLA","State":"MS","LocationType":"PRIMARY","Lat":"33.44","Long":"-90.64","Location":"NA-US-MS-INDIANOLA","Decommisioned":"false","TaxReturnsFiled":"4964","EstimatedPopulation":"8896","TotalWages":"109803462"},
{"Zipcode":"38753","ZipCodeType":"STANDARD","City":"INVERNESS","State":"MS","LocationType":"PRIMARY","Lat":"33.35","Long":"-90.59","Location":"NA-US-MS-INVERNESS","Decommisioned":"false","TaxReturnsFiled":"695","EstimatedPopulation":"1246","TotalWages":"17289119"},
{"Zipcode":"38754","ZipCodeType":"STANDARD","City":"ISOLA","State":"MS","LocationType":"PRIMARY","Lat":"33.26","Long":"-90.59","Location":"NA-US-MS-ISOLA","Decommisioned":"false","TaxReturnsFiled":"728","EstimatedPopulation":"1256","TotalWages":"12173540"},
{"Zipcode":"38941","ZipCodeType":"STANDARD","City":"ITTA BENA","State":"MS","LocationType":"PRIMARY","Lat":"33.49","Long":"-90.32","Location":"NA-US-MS-ITTA BENA","Decommisioned":"false","TaxReturnsFiled":"1732","EstimatedPopulation":"3110","TotalWages":"36667112"},
{"Zipcode":"38852","ZipCodeType":"STANDARD","City":"IUKA","State":"MS","LocationType":"PRIMARY","Lat":"34.8","Long":"-88.19","Location":"NA-US-MS-IUKA","Decommisioned":"false","TaxReturnsFiled":"3644","EstimatedPopulation":"6756","TotalWages":"103265337"},
{"Zipcode":"39193","ZipCodeType":"PO BOX","City":"WHITFIELD","State":"MS","LocationType":"PRIMARY","Lat":"32.12","Long":"-90.13","Location":"NA-US-MS-WHITFIELD","Decommisioned":"false","TaxReturnsFiled":"null","EstimatedPopulation":"null","TotalWages":"null"},
{"Zipcode":"39201","ZipCodeType":"STANDARD","City":"JACKSON","State":"MS","LocationType":"PRIMARY","Lat":"32.32","Long":"-90.2","Location":"NA-US-MS-JACKSON","Decommisioned":"false","TaxReturnsFiled":"276","EstimatedPopulation":"407","TotalWages":"6279788"},
{"Zipcode":"39202","ZipCodeType":"STANDARD","City":"JACKSON","State":"MS","LocationType":"PRIMARY","Lat":"32.32","Long":"-90.2","Location":"NA-US-MS-JACKSON","Decommisioned":"false","TaxReturnsFiled":"3284","EstimatedPopulation":"5162","TotalWages":"103618280"},
{"Zipcode":"39203","ZipCodeType":"STANDARD","City":"JACKSON","State":"MS","LocationType":"PRIMARY","Lat":"32.32","Long":"-90.2","Location":"NA-US-MS-JACKSON","Decommisioned":"false","TaxReturnsFiled":"2320","EstimatedPopulation":"3973","TotalWages":"35043902"},
{"Zipcode":"39204","ZipCodeType":"STANDARD","City":"JACKSON","State":"MS","LocationType":"PRIMARY","Lat":"32.32","Long":"-90.2","Location":"NA-US-MS-JACKSON","Decommisioned":"false","TaxReturnsFiled":"7371","EstimatedPopulation":"12836","TotalWages":"141291255"},
{"Zipcode":"39205","ZipCodeType":"PO BOX","City":"JACKSON","State":"MS","LocationType":"PRIMARY","Lat":"32.32","Long":"-90.2","Location":"NA-US-MS-JACKSON","Decommisioned":"false","TaxReturnsFiled":"307","EstimatedPopulation":"501","TotalWages":"10986076"},
{"Zipcode":"39206","ZipCodeType":"STANDARD","City":"JACKSON","State":"MS","LocationType":"PRIMARY","Lat":"32.32","Long":"-90.2","Location":"NA-US-MS-JACKSON","Decommisioned":"false","TaxReturnsFiled":"11239","EstimatedPopulation":"19006","TotalWages":"277027735"},
{"Zipcode":"39207","ZipCodeType":"PO BOX","City":"JACKSON","State":"MS","LocationType":"PRIMARY","Lat":"32.32","Long":"-90.2","Location":"NA-US-MS-JACKSON","Decommisioned":"false","TaxReturnsFiled":"null","EstimatedPopulation":"null","TotalWages":"null"},
{"Zipcode":"39208","ZipCodeType":"STANDARD","City":"PEARL","State":"MS","LocationType":"PRIMARY","Lat":"32.32","Long":"-90.2","Location":"NA-US-MS-PEARL","Decommisioned":"false","TaxReturnsFiled":"12241","EstimatedPopulation":"21916","TotalWages":"387897218"},
{"Zipcode":"39209","ZipCodeType":"STANDARD","City":"JACKSON","State":"MS","LocationType":"PRIMARY","Lat":"32.32","Long":"-90.2","Location":"NA-US-MS-JACKSON","Decommisioned":"false","TaxReturnsFiled":"12580","EstimatedPopulation":"21859","TotalWages":"251035515"},
{"Zipcode":"39210","ZipCodeType":"UNIQUE","City":"JACKSON","State":"MS","LocationType":"PRIMARY","Lat":"32.32","Long":"-90.2","Location":"NA-US-MS-JACKSON","Decommisioned":"false","TaxReturnsFiled":"null","EstimatedPopulation":"null","TotalWages":"null"},
{"Zipcode":"39211","ZipCodeType":"STANDARD","City":"JACKSON","State":"MS","LocationType":"PRIMARY","Lat":"32.32","Long":"-90.2","Location":"NA-US-MS-JACKSON","Decommisioned":"false","TaxReturnsFiled":"11198","EstimatedPopulation":"18806","TotalWages":"521231524"},
{"Zipcode":"39212","ZipCodeType":"STANDARD","City":"JACKSON","State":"MS","LocationType":"PRIMARY","Lat":"32.32","Long":"-90.2","Location":"NA-US-MS-JACKSON","Decommisioned":"false","TaxReturnsFiled":"13839","EstimatedPopulation":"24414","TotalWages":"360434350"},
{"Zipcode":"39213","ZipCodeType":"STANDARD","City":"JACKSON","State":"MS","LocationType":"PRIMARY","Lat":"32.32","Long":"-90.2","Location":"NA-US-MS-JACKSON","Decommisioned":"false","TaxReturnsFiled":"10119","EstimatedPopulation":"17191","TotalWages":"190155007"},
{"Zipcode":"39215","ZipCodeType":"PO BOX","City":"JACKSON","State":"MS","LocationType":"PRIMARY","Lat":"32.32","Long":"-90.2","Location":"NA-US-MS-JACKSON","Decommisioned":"false","TaxReturnsFiled":"250","EstimatedPopulation":"392","TotalWages":"9393495"},
{"Zipcode":"39216","ZipCodeType":"STANDARD","City":"JACKSON","State":"MS","LocationType":"PRIMARY","Lat":"32.32","Long":"-90.2","Location":"NA-US-MS-JACKSON","Decommisioned":"false","TaxReturnsFiled":"1610","EstimatedPopulation":"2521","TotalWages":"71441927"},
{"Zipcode":"39217","ZipCodeType":"UNIQUE","City":"JACKSON","State":"MS","LocationType":"PRIMARY","Lat":"32.32","Long":"-90.2","Location":"NA-US-MS-JACKSON","Decommisioned":"false","TaxReturnsFiled":"null","EstimatedPopulation":"null","TotalWages":"null"},
{"Zipcode":"39218","ZipCodeType":"STANDARD","City":"RICHLAND","State":"MS","LocationType":"PRIMARY","Lat":"32.32","Long":"-90.2","Location":"NA-US-MS-RICHLAND","Decommisioned":"false","TaxReturnsFiled":"3041","EstimatedPopulation":"5496","TotalWages":"97603990"},
{"Zipcode":"39225","ZipCodeType":"PO BOX","City":"JACKSON","State":"MS","LocationType":"PRIMARY","Lat":"32.32","Long":"-90.2","Location":"NA-US-MS-JACKSON","Decommisioned":"false","TaxReturnsFiled":"254","EstimatedPopulation":"400","TotalWages":"10987069"},
{"Zipcode":"39232","ZipCodeType":"STANDARD","City":"FLOWOOD","State":"MS","LocationType":"PRIMARY","Lat":"32.32","Long":"-90.2","Location":"NA-US-MS-FLOWOOD","Decommisioned":"false","TaxReturnsFiled":"3145","EstimatedPopulation":"5340","TotalWages":"152116797"},
{"Zipcode":"39236","ZipCodeType":"PO BOX","City":"JACKSON","State":"MS","LocationType":"PRIMARY","Lat":"32.32","Long":"-90.2","Location":"NA-US-MS-JACKSON","Decommisioned":"false","TaxReturnsFiled":"636","EstimatedPopulation":"1013","TotalWages":"25526024"},
{"Zipcode":"39250","ZipCodeType":"UNIQUE","City":"JACKSON","State":"MS","LocationType":"PRIMARY","Lat":"32.32","Long":"-90.2","Location":"NA-US-MS-JACKSON","Decommisioned":"false","TaxReturnsFiled":"null","EstimatedPopulation":"null","TotalWages":"null"},
{"Zipcode":"39269","ZipCodeType":"STANDARD","City":"JACKSON","State":"MS","LocationType":"PRIMARY","Lat":"32.32","Long":"-90.2","Location":"NA-US-MS-JACKSON","Decommisioned":"false","TaxReturnsFiled":"null","EstimatedPopulation":"null","TotalWages":"null"},
{"Zipcode":"39271","ZipCodeType":"UNIQUE","City":"JACKSON","State":"MS","LocationType":"PRIMARY","Lat":"32.32","Long":"-90.2","Location":"NA-US-MS-JACKSON","Decommisioned":"false","TaxReturnsFiled":"null","EstimatedPopulation":"null","TotalWages":"null"},
{"Zipcode":"39272","ZipCodeType":"STANDARD","City":"BYRAM","State":"MS","LocationType":"PRIMARY","Lat":"32.32","Long":"-90.2","Location":"NA-US-MS-BYRAM","Decommisioned":"false","TaxReturnsFiled":"5790","EstimatedPopulation":"10412","TotalWages":"211945858"},
{"Zipcode":"39282","ZipCodeType":"PO BOX","City":"JACKSON","State":"MS","LocationType":"PRIMARY","Lat":"32.32","Long":"-90.2","Location":"NA-US-MS-JACKSON","Decommisioned":"false","TaxReturnsFiled":"357","EstimatedPopulation":"620","TotalWages":"8505129"},
{"Zipcode":"39283","ZipCodeType":"PO BOX","City":"JACKSON","State":"MS","LocationType":"PRIMARY","Lat":"32.32","Long":"-90.2","Location":"NA-US-MS-JACKSON","Decommisioned":"false","TaxReturnsFiled":"null","EstimatedPopulation":"null","TotalWages":"null"},
{"Zipcode":"39284","ZipCodeType":"PO BOX","City":"JACKSON","State":"MS","LocationType":"PRIMARY","Lat":"32.32","Long":"-90.2","Location":"NA-US-MS-JACKSON","Decommisioned":"false","TaxReturnsFiled":"374","EstimatedPopulation":"633","TotalWages":"7886132"},
{"Zipcode":"39286","ZipCodeType":"PO BOX","City":"JACKSON","State":"MS","LocationType":"PRIMARY","Lat":"32.32","Long":"-90.2","Location":"NA-US-MS-JACKSON","Decommisioned":"false","TaxReturnsFiled":"480","EstimatedPopulation":"786","TotalWages":"13443316"},
{"Zipcode":"39288","ZipCodeType":"PO BOX","City":"PEARL","State":"MS","LocationType":"PRIMARY","Lat":"32.32","Long":"-90.2","Location":"NA-US-MS-PEARL","Decommisioned":"false","TaxReturnsFiled":"412","EstimatedPopulation":"688","TotalWages":"11426134"},
{"Zipcode":"39289","ZipCodeType":"PO BOX","City":"JACKSON","State":"MS","LocationType":"PRIMARY","Lat":"32.32","Long":"-90.2","Location":"NA-US-MS-JACKSON","Decommisioned":"false","TaxReturnsFiled":"374","EstimatedPopulation":"614","TotalWages":"9449220"},
{"Zipcode":"39296","ZipCodeType":"PO BOX","City":"JACKSON","State":"MS","LocationType":"PRIMARY","Lat":"32.32","Long":"-90.2","Location":"NA-US-MS-JACKSON","Decommisioned":"false","TaxReturnsFiled":"251","EstimatedPopulation":"378","TotalWages":"9875015"},
{"Zipcode":"39298","ZipCodeType":"PO BOX","City":"JACKSON","State":"MS","LocationType":"PRIMARY","Lat":"32.32","Long":"-90.2","Location":"NA-US-MS-JACKSON","Decommisioned":"false","TaxReturnsFiled":"null","EstimatedPopulation":"null","TotalWages":"null"},
{"Zipcode":"39641","ZipCodeType":"STANDARD","City":"JAYESS","State":"MS","LocationType":"PRIMARY","Lat":"31.41","Long":"-90.18","Location":"NA-US-MS-JAYESS","Decommisioned":"false","TaxReturnsFiled":"1656","EstimatedPopulation":"3282","TotalWages":"54283703"},
{"Zipcode":"38639","ZipCodeType":"PO BOX","City":"JONESTOWN","State":"MS","LocationType":"PRIMARY","Lat":"34.32","Long":"-90.45","Location":"NA-US-MS-JONESTOWN","Decommisioned":"false","TaxReturnsFiled":"588","EstimatedPopulation":"1096","TotalWages":"10907768"},
{"Zipcode":"39747","ZipCodeType":"STANDARD","City":"KILMICHAEL","State":"MS","LocationType":"PRIMARY","Lat":"33.43","Long":"-89.56","Location":"NA-US-MS-KILMICHAEL","Decommisioned":"false","TaxReturnsFiled":"779","EstimatedPopulation":"1378","TotalWages":"17978869"},
{"Zipcode":"39556","ZipCodeType":"STANDARD","City":"KILN","State":"MS","LocationType":"PRIMARY","Lat":"30.41","Long":"-89.43","Location":"NA-US-MS-KILN","Decommisioned":"false","TaxReturnsFiled":"2811","EstimatedPopulation":"5321","TotalWages":"90764163"},
{"Zipcode":"39643","ZipCodeType":"STANDARD","City":"KOKOMO","State":"MS","LocationType":"PRIMARY","Lat":"31.17","Long":"-89.98","Location":"NA-US-MS-KOKOMO","Decommisioned":"false","TaxReturnsFiled":"528","EstimatedPopulation":"1005","TotalWages":"14800930"},
{"Zipcode":"39090","ZipCodeType":"STANDARD","City":"KOSCIUSKO","State":"MS","LocationType":"PRIMARY","Lat":"33.05","Long":"-89.58","Location":"NA-US-MS-KOSCIUSKO","Decommisioned":"false","TaxReturnsFiled":"5249","EstimatedPopulation":"9789","TotalWages":"144877411"},
{"Zipcode":"39092","ZipCodeType":"STANDARD","City":"LAKE","State":"MS","LocationType":"PRIMARY","Lat":"32.34","Long":"-89.32","Location":"NA-US-MS-LAKE","Decommisioned":"false","TaxReturnsFiled":"1287","EstimatedPopulation":"2446","TotalWages":"33822722"},
{"Zipcode":"38641","ZipCodeType":"STANDARD","City":"LAKE CORMORANT","State":"MS","LocationType":"PRIMARY","Lat":"34.9","Long":"-90.21","Location":"NA-US-MS-LAKE CORMORANT","Decommisioned":"false","TaxReturnsFiled":"1043","EstimatedPopulation":"1952","TotalWages":"36897777"},
{"Zipcode":"38642","ZipCodeType":"STANDARD","City":"LAMAR","State":"MS","LocationType":"PRIMARY","Lat":"34.91","Long":"-89.31","Location":"NA-US-MS-LAMAR","Decommisioned":"false","TaxReturnsFiled":"1044","EstimatedPopulation":"1901","TotalWages":"28146495"},
{"Zipcode":"38643","ZipCodeType":"STANDARD","City":"LAMBERT","State":"MS","LocationType":"PRIMARY","Lat":"34.2","Long":"-90.28","Location":"NA-US-MS-LAMBERT","Decommisioned":"false","TaxReturnsFiled":"877","EstimatedPopulation":"1620","TotalWages":"16201952"},
{"Zipcode":"39335","ZipCodeType":"STANDARD","City":"LAUDERDALE","State":"MS","LocationType":"PRIMARY","Lat":"32.52","Long":"-88.46","Location":"NA-US-MS-LAUDERDALE","Decommisioned":"false","TaxReturnsFiled":"1397","EstimatedPopulation":"2536","TotalWages":"41633630"},
{"Zipcode":"39440","ZipCodeType":"STANDARD","City":"LAUREL","State":"MS","LocationType":"PRIMARY","Lat":"31.69","Long":"-89.14","Location":"NA-US-MS-LAUREL","Decommisioned":"false","TaxReturnsFiled":"7730","EstimatedPopulation":"13723","TotalWages":"208360016"},
{"Zipcode":"39441","ZipCodeType":"PO BOX","City":"LAUREL","State":"MS","LocationType":"PRIMARY","Lat":"31.69","Long":"-89.14","Location":"NA-US-MS-LAUREL","Decommisioned":"false","TaxReturnsFiled":"1200","EstimatedPopulation":"2042","TotalWages":"36066100"},
{"Zipcode":"39442","ZipCodeType":"PO BOX","City":"LAUREL","State":"MS","LocationType":"PRIMARY","Lat":"31.69","Long":"-89.14","Location":"NA-US-MS-LAUREL","Decommisioned":"false","TaxReturnsFiled":"null","EstimatedPopulation":"null","TotalWages":"null"},
{"Zipcode":"39443","ZipCodeType":"STANDARD","City":"LAUREL","State":"MS","LocationType":"PRIMARY","Lat":"31.69","Long":"-89.14","Location":"NA-US-MS-LAUREL","Decommisioned":"false","TaxReturnsFiled":"8974","EstimatedPopulation":"17235","TotalWages":"314174022"},
{"Zipcode":"39336","ZipCodeType":"STANDARD","City":"LAWRENCE","State":"MS","LocationType":"PRIMARY","Lat":"32.27","Long":"-89.28","Location":"NA-US-MS-LAWRENCE","Decommisioned":"false","TaxReturnsFiled":"595","EstimatedPopulation":"1127","TotalWages":"14933446"},
{"Zipcode":"39451","ZipCodeType":"STANDARD","City":"LEAKESVILLE","State":"MS","LocationType":"PRIMARY","Lat":"31.15","Long":"-88.55","Location":"NA-US-MS-LEAKESVILLE","Decommisioned":"false","TaxReturnsFiled":"1583","EstimatedPopulation":"3111","TotalWages":"58319663"},
{"Zipcode":"38756","ZipCodeType":"STANDARD","City":"LELAND","State":"MS","LocationType":"PRIMARY","Lat":"33.4","Long":"-90.89","Location":"NA-US-MS-LELAND","Decommisioned":"false","TaxReturnsFiled":"3026","EstimatedPopulation":"5547","TotalWages":"71069389"},
{"Zipcode":"39094","ZipCodeType":"STANDARD","City":"LENA","State":"MS","LocationType":"PRIMARY","Lat":"32.59","Long":"-89.59","Location":"NA-US-MS-LENA","Decommisioned":"false","TaxReturnsFiled":"1496","EstimatedPopulation":"2813","TotalWages":"42297612"},
{"Zipcode":"39095","ZipCodeType":"STANDARD","City":"LEXINGTON","State":"MS","LocationType":"PRIMARY","Lat":"33.11","Long":"-90.04","Location":"NA-US-MS-LEXINGTON","Decommisioned":"false","TaxReturnsFiled":"2858","EstimatedPopulation":"5211","TotalWages":"61228864"},
{"Zipcode":"39645","ZipCodeType":"STANDARD","City":"LIBERTY","State":"MS","LocationType":"PRIMARY","Lat":"31.16","Long":"-90.8","Location":"NA-US-MS-LIBERTY","Decommisioned":"false","TaxReturnsFiled":"2103","EstimatedPopulation":"3881","TotalWages":"58825082"},
{"Zipcode":"39337","ZipCodeType":"STANDARD","City":"LITTLE ROCK","State":"MS","LocationType":"PRIMARY","Lat":"32.53","Long":"-89.18","Location":"NA-US-MS-LITTLE ROCK","Decommisioned":"false","TaxReturnsFiled":"732","EstimatedPopulation":"1431","TotalWages":"23363136"},
{"Zipcode":"39560","ZipCodeType":"STANDARD","City":"LONG BEACH","State":"MS","LocationType":"PRIMARY","Lat":"30.36","Long":"-89.16","Location":"NA-US-MS-LONG BEACH","Decommisioned":"false","TaxReturnsFiled":"7628","EstimatedPopulation":"13545","TotalWages":"262755129"},
{"Zipcode":"39096","ZipCodeType":"STANDARD","City":"LORMAN","State":"MS","LocationType":"PRIMARY","Lat":"31.81","Long":"-91.19","Location":"NA-US-MS-LORMAN","Decommisioned":"false","TaxReturnsFiled":"860","EstimatedPopulation":"1507","TotalWages":"20656446"},
{"Zipcode":"39338","ZipCodeType":"STANDARD","City":"LOUIN","State":"MS","LocationType":"PRIMARY","Lat":"32.07","Long":"-89.26","Location":"NA-US-MS-LOUIN","Decommisioned":"false","TaxReturnsFiled":"1273","EstimatedPopulation":"2344","TotalWages":"35626990"},
{"Zipcode":"39097","ZipCodeType":"STANDARD","City":"LOUISE","State":"MS","LocationType":"PRIMARY","Lat":"32.98","Long":"-90.59","Location":"NA-US-MS-LOUISE","Decommisioned":"false","TaxReturnsFiled":"346","EstimatedPopulation":"631","TotalWages":"6725487"},
{"Zipcode":"39339","ZipCodeType":"STANDARD","City":"LOUISVILLE","State":"MS","LocationType":"PRIMARY","Lat":"33.12","Long":"-89.05","Location":"NA-US-MS-LOUISVILLE","Decommisioned":"false","TaxReturnsFiled":"6511","EstimatedPopulation":"11855","TotalWages":"181577163"},
{"Zipcode":"39452","ZipCodeType":"STANDARD","City":"LUCEDALE","State":"MS","LocationType":"PRIMARY","Lat":"30.92","Long":"-88.59","Location":"NA-US-MS-LUCEDALE","Decommisioned":"false","TaxReturnsFiled":"9858","EstimatedPopulation":"19596","TotalWages":"363756494"},
{"Zipcode":"39098","ZipCodeType":"PO BOX","City":"LUDLOW","State":"MS","LocationType":"PRIMARY","Lat":"32.55","Long":"-89.66","Location":"NA-US-MS-LUDLOW","Decommisioned":"false","TaxReturnsFiled":"null","EstimatedPopulation":"null","TotalWages":"null"},
{"Zipcode":"38644","ZipCodeType":"PO BOX","City":"LULA","State":"MS","LocationType":"PRIMARY","Lat":"34.45","Long":"-90.47","Location":"NA-US-MS-LULA","Decommisioned":"false","TaxReturnsFiled":"null","EstimatedPopulation":"null","TotalWages":"null"},
{"Zipcode":"39455","ZipCodeType":"STANDARD","City":"LUMBERTON","State":"MS","LocationType":"PRIMARY","Lat":"31","Long":"-89.45","Location":"NA-US-MS-LUMBERTON","Decommisioned":"false","TaxReturnsFiled":"3429","EstimatedPopulation":"6728","TotalWages":"101811112"},
{"Zipcode":"38645","ZipCodeType":"STANDARD","City":"LYON","State":"MS","LocationType":"PRIMARY","Lat":"34.21","Long":"-90.54","Location":"NA-US-MS-LYON","Decommisioned":"false","TaxReturnsFiled":"691","EstimatedPopulation":"1236","TotalWages":"17981435"},
{"Zipcode":"39647","ZipCodeType":"STANDARD","City":"MC CALL CREEK","State":"MS","LocationType":"PRIMARY","Lat":"31.52","Long":"-90.76","Location":"NA-US-MS-MC CALL CREEK","Decommisioned":"false","TaxReturnsFiled":"437","EstimatedPopulation":"871","TotalWages":"14290330"},
{"Zipcode":"38943","ZipCodeType":"STANDARD","City":"MC CARLEY","State":"MS","LocationType":"PRIMARY","Lat":"33.59","Long":"-89.84","Location":"NA-US-MS-MC CARLEY","Decommisioned":"false","TaxReturnsFiled":"272","EstimatedPopulation":"527","TotalWages":"8728109"},
{"Zipcode":"39648","ZipCodeType":"STANDARD","City":"MCCOMB","State":"MS","LocationType":"PRIMARY","Lat":"31.24","Long":"-90.46","Location":"NA-US-MS-MCCOMB","Decommisioned":"false","TaxReturnsFiled":"8148","EstimatedPopulation":"14847","TotalWages":"199774613"},
{"Zipcode":"39649","ZipCodeType":"PO BOX","City":"MCCOMB","State":"MS","LocationType":"PRIMARY","Lat":"31.24","Long":"-90.46","Location":"NA-US-MS-MCCOMB","Decommisioned":"false","TaxReturnsFiled":"878","EstimatedPopulation":"1539","TotalWages":"29156698"},
{"Zipcode":"39108","ZipCodeType":"STANDARD","City":"MC COOL","State":"MS","LocationType":"PRIMARY","Lat":"33.16","Long":"-89.33","Location":"NA-US-MS-MC COOL","Decommisioned":"false","TaxReturnsFiled":"747","EstimatedPopulation":"1399","TotalWages":"19838153"},
{"Zipcode":"39561","ZipCodeType":"STANDARD","City":"MC HENRY","State":"MS","LocationType":"PRIMARY","Lat":"30.69","Long":"-89.18","Location":"NA-US-MS-MC HENRY","Decommisioned":"false","TaxReturnsFiled":"690","EstimatedPopulation":"1331","TotalWages":"21640809"},
{"Zipcode":"39456","ZipCodeType":"STANDARD","City":"MC LAIN","State":"MS","LocationType":"PRIMARY","Lat":"31.05","Long":"-88.8","Location":"NA-US-MS-MC LAIN","Decommisioned":"false","TaxReturnsFiled":"602","EstimatedPopulation":"1156","TotalWages":"18031063"},
{"Zipcode":"39457","ZipCodeType":"PO BOX","City":"MC NEILL","State":"MS","LocationType":"PRIMARY","Lat":"30.7","Long":"-89.68","Location":"NA-US-MS-MC NEILL","Decommisioned":"false","TaxReturnsFiled":"343","EstimatedPopulation":"631","TotalWages":"9926678"},
{"Zipcode":"39750","ZipCodeType":"STANDARD","City":"MABEN","State":"MS","LocationType":"PRIMARY","Lat":"33.55","Long":"-89.08","Location":"NA-US-MS-MABEN","Decommisioned":"false","TaxReturnsFiled":"1190","EstimatedPopulation":"2204","TotalWages":"27542643"},
{"Zipcode":"39341","ZipCodeType":"STANDARD","City":"MACON","State":"MS","LocationType":"PRIMARY","Lat":"33.11","Long":"-88.56","Location":"NA-US-MS-MACON","Decommisioned":"false","TaxReturnsFiled":"3192","EstimatedPopulation":"5664","TotalWages":"62245351"},
{"Zipcode":"39109","ZipCodeType":"PO BOX","City":"MADDEN","State":"MS","LocationType":"PRIMARY","Lat":"32.7","Long":"-89.37","Location":"NA-US-MS-MADDEN","Decommisioned":"false","TaxReturnsFiled":"null","EstimatedPopulation":"null","TotalWages":"null"},
{"Zipcode":"39110","ZipCodeType":"STANDARD","City":"MADISON","State":"MS","LocationType":"PRIMARY","Lat":"32.45","Long":"-90.1","Location":"NA-US-MS-MADISON","Decommisioned":"false","TaxReturnsFiled":"15649","EstimatedPopulation":"30789","TotalWages":"1028646903"},
{"Zipcode":"39130","ZipCodeType":"PO BOX","City":"MADISON","State":"MS","LocationType":"PRIMARY","Lat":"32.45","Long":"-90.1","Location":"NA-US-MS-MADISON","Decommisioned":"false","TaxReturnsFiled":"736","EstimatedPopulation":"1292","TotalWages":"36019917"},
{"Zipcode":"39111","ZipCodeType":"STANDARD","City":"MAGEE","State":"MS","LocationType":"PRIMARY","Lat":"31.87","Long":"-89.73","Location":"NA-US-MS-MAGEE","Decommisioned":"false","TaxReturnsFiled":"4053","EstimatedPopulation":"7398","TotalWages":"113022804"},
{"Zipcode":"39652","ZipCodeType":"STANDARD","City":"MAGNOLIA","State":"MS","LocationType":"PRIMARY","Lat":"31.15","Long":"-90.46","Location":"NA-US-MS-MAGNOLIA","Decommisioned":"false","TaxReturnsFiled":"3333","EstimatedPopulation":"6103","TotalWages":"80044508"},
{"Zipcode":"38855","ZipCodeType":"STANDARD","City":"MANTACHIE","State":"MS","LocationType":"PRIMARY","Lat":"34.32","Long":"-88.49","Location":"NA-US-MS-MANTACHIE","Decommisioned":"false","TaxReturnsFiled":"1832","EstimatedPopulation":"3563","TotalWages":"54482622"},
{"Zipcode":"39751","ZipCodeType":"STANDARD","City":"MANTEE","State":"MS","LocationType":"PRIMARY","Lat":"33.68","Long":"-89.02","Location":"NA-US-MS-MANTEE","Decommisioned":"false","TaxReturnsFiled":"563","EstimatedPopulation":"1045","TotalWages":"15408639"},
{"Zipcode":"38856","ZipCodeType":"STANDARD","City":"MARIETTA","State":"MS","LocationType":"PRIMARY","Lat":"34.5","Long":"-88.47","Location":"NA-US-MS-MARIETTA","Decommisioned":"false","TaxReturnsFiled":"710","EstimatedPopulation":"1380","TotalWages":"21812226"},
{"Zipcode":"39342","ZipCodeType":"STANDARD","City":"MARION","State":"MS","LocationType":"PRIMARY","Lat":"32.42","Long":"-88.64","Location":"NA-US-MS-MARION","Decommisioned":"false","TaxReturnsFiled":"751","EstimatedPopulation":"1300","TotalWages":"23864412"},
{"Zipcode":"38609","ZipCodeType":"STANDARD","City":"BELEN","State":"MS","LocationType":"PRIMARY","Lat":"34.26","Long":"-90.35","Location":"NA-US-MS-BELEN","Decommisioned":"false","TaxReturnsFiled":"null","EstimatedPopulation":"null","TotalWages":"null"},
{"Zipcode":"38646","ZipCodeType":"STANDARD","City":"MARKS","State":"MS","LocationType":"PRIMARY","Lat":"34.25","Long":"-90.27","Location":"NA-US-MS-MARKS","Decommisioned":"false","TaxReturnsFiled":"1281","EstimatedPopulation":"2304","TotalWages":"28350847"},
{"Zipcode":"39752","ZipCodeType":"STANDARD","City":"MATHISTON","State":"MS","LocationType":"PRIMARY","Lat":"33.53","Long":"-89.12","Location":"NA-US-MS-MATHISTON","Decommisioned":"false","TaxReturnsFiled":"955","EstimatedPopulation":"1857","TotalWages":"28716799"},
{"Zipcode":"39113","ZipCodeType":"PO BOX","City":"MAYERSVILLE","State":"MS","LocationType":"PRIMARY","Lat":"32.89","Long":"-91.04","Location":"NA-US-MS-MAYERSVILLE","Decommisioned":"false","TaxReturnsFiled":"null","EstimatedPopulation":"null","TotalWages":"null"},
{"Zipcode":"39753","ZipCodeType":"PO BOX","City":"MAYHEW","State":"MS","LocationType":"PRIMARY","Lat":"33.48","Long":"-88.59","Location":"NA-US-MS-MAYHEW","Decommisioned":"false","TaxReturnsFiled":"null","EstimatedPopulation":"null","TotalWages":"null"},
{"Zipcode":"39653","ZipCodeType":"STANDARD","City":"MEADVILLE","State":"MS","LocationType":"PRIMARY","Lat":"31.47","Long":"-90.89","Location":"NA-US-MS-MEADVILLE","Decommisioned":"false","TaxReturnsFiled":"1206","EstimatedPopulation":"2285","TotalWages":"41155747"},
{"Zipcode":"39114","ZipCodeType":"STANDARD","City":"MENDENHALL","State":"MS","LocationType":"PRIMARY","Lat":"31.96","Long":"-89.86","Location":"NA-US-MS-MENDENHALL","Decommisioned":"false","TaxReturnsFiled":"3887","EstimatedPopulation":"7230","TotalWages":"112161750"},
{"Zipcode":"39301","ZipCodeType":"STANDARD","City":"MERIDIAN","State":"MS","LocationType":"PRIMARY","Lat":"32.38","Long":"-88.71","Location":"NA-US-MS-MERIDIAN","Decommisioned":"false","TaxReturnsFiled":"10480","EstimatedPopulation":"18824","TotalWages":"283626787"},
{"Zipcode":"39302","ZipCodeType":"PO BOX","City":"MERIDIAN","State":"MS","LocationType":"PRIMARY","Lat":"32.38","Long":"-88.71","Location":"NA-US-MS-MERIDIAN","Decommisioned":"false","TaxReturnsFiled":"608","EstimatedPopulation":"998","TotalWages":"24594342"},
{"Zipcode":"39303","ZipCodeType":"PO BOX","City":"MERIDIAN","State":"MS","LocationType":"PRIMARY","Lat":"32.38","Long":"-88.71","Location":"NA-US-MS-MERIDIAN","Decommisioned":"false","TaxReturnsFiled":"405","EstimatedPopulation":"679","TotalWages":"16606642"},
{"Zipcode":"39304","ZipCodeType":"PO BOX","City":"MERIDIAN","State":"MS","LocationType":"PRIMARY","Lat":"32.38","Long":"-88.71","Location":"NA-US-MS-MERIDIAN","Decommisioned":"false","TaxReturnsFiled":"453","EstimatedPopulation":"767","TotalWages":"10767097"},
{"Zipcode":"39305","ZipCodeType":"STANDARD","City":"MERIDIAN","State":"MS","LocationType":"PRIMARY","Lat":"32.38","Long":"-88.71","Location":"NA-US-MS-MERIDIAN","Decommisioned":"false","TaxReturnsFiled":"8348","EstimatedPopulation":"15228","TotalWages":"352589774"},
{"Zipcode":"39307","ZipCodeType":"STANDARD","City":"MERIDIAN","State":"MS","LocationType":"PRIMARY","Lat":"32.38","Long":"-88.71","Location":"NA-US-MS-MERIDIAN","Decommisioned":"false","TaxReturnsFiled":"6383","EstimatedPopulation":"11208","TotalWages":"143012354"},
{"Zipcode":"39309","ZipCodeType":"UNIQUE","City":"MERIDIAN","State":"MS","LocationType":"PRIMARY","Lat":"32.38","Long":"-88.71","Location":"NA-US-MS-MERIDIAN","Decommisioned":"false","TaxReturnsFiled":"null","EstimatedPopulation":"null","TotalWages":"null"},
{"Zipcode":"38759","ZipCodeType":"STANDARD","City":"MERIGOLD","State":"MS","LocationType":"PRIMARY","Lat":"33.83","Long":"-90.72","Location":"NA-US-MS-MERIGOLD","Decommisioned":"false","TaxReturnsFiled":"629","EstimatedPopulation":"1156","TotalWages":"17917830"},
{"Zipcode":"38760","ZipCodeType":"PO BOX","City":"METCALFE","State":"MS","LocationType":"PRIMARY","Lat":"33.45","Long":"-91","Location":"NA-US-MS-METCALFE","Decommisioned":"false","TaxReturnsFiled":"351","EstimatedPopulation":"640","TotalWages":"6679612"},
{"Zipcode":"38647","ZipCodeType":"STANDARD","City":"MICHIGAN CITY","State":"MS","LocationType":"PRIMARY","Lat":"34.98","Long":"-89.25","Location":"NA-US-MS-MICHIGAN CITY","Decommisioned":"false","TaxReturnsFiled":"433","EstimatedPopulation":"776","TotalWages":"10182122"},
{"Zipcode":"38944","ZipCodeType":"STANDARD","City":"MINTER CITY","State":"MS","LocationType":"PRIMARY","Lat":"33.75","Long":"-90.33","Location":"NA-US-MS-MINTER CITY","Decommisioned":"false","TaxReturnsFiled":"null","EstimatedPopulation":"null","TotalWages":"null"},
{"Zipcode":"39762","ZipCodeType":"PO BOX","City":"MISSISSIPPI STATE","State":"MS","LocationType":"PRIMARY","Lat":"33.45","Long":"-88.79","Location":"NA-US-MS-MISSISSIPPI STATE","Decommisioned":"false","TaxReturnsFiled":"557","EstimatedPopulation":"849","TotalWages":"18109662"},
{"Zipcode":"39116","ZipCodeType":"STANDARD","City":"MIZE","State":"MS","LocationType":"PRIMARY","Lat":"31.86","Long":"-89.55","Location":"NA-US-MS-MIZE","Decommisioned":"false","TaxReturnsFiled":"977","EstimatedPopulation":"1899","TotalWages":"33477551"},
{"Zipcode":"39654","ZipCodeType":"STANDARD","City":"MONTICELLO","State":"MS","LocationType":"PRIMARY","Lat":"31.55","Long":"-90.11","Location":"NA-US-MS-MONTICELLO","Decommisioned":"false","TaxReturnsFiled":"2592","EstimatedPopulation":"4746","TotalWages":"79530928"},
{"Zipcode":"38857","ZipCodeType":"STANDARD","City":"MOOREVILLE","State":"MS","LocationType":"PRIMARY","Lat":"34.28","Long":"-88.59","Location":"NA-US-MS-MOOREVILLE","Decommisioned":"false","TaxReturnsFiled":"1370","EstimatedPopulation":"2621","TotalWages":"43668742"},
{"Zipcode":"38761","ZipCodeType":"STANDARD","City":"MOORHEAD","State":"MS","LocationType":"PRIMARY","Lat":"33.44","Long":"-90.5","Location":"NA-US-MS-MOORHEAD","Decommisioned":"false","TaxReturnsFiled":"955","EstimatedPopulation":"1740","TotalWages":"18005554"},
{"Zipcode":"38946","ZipCodeType":"PO BOX","City":"MORGAN CITY","State":"MS","LocationType":"PRIMARY","Lat":"33.37","Long":"-90.34","Location":"NA-US-MS-MORGAN CITY","Decommisioned":"false","TaxReturnsFiled":"null","EstimatedPopulation":"null","TotalWages":"null"},
{"Zipcode":"39117","ZipCodeType":"STANDARD","City":"MORTON","State":"MS","LocationType":"PRIMARY","Lat":"32.35","Long":"-89.65","Location":"NA-US-MS-MORTON","Decommisioned":"false","TaxReturnsFiled":"3886","EstimatedPopulation":"7390","TotalWages":"108686237"},
{"Zipcode":"39459","ZipCodeType":"STANDARD","City":"MOSELLE","State":"MS","LocationType":"PRIMARY","Lat":"31.48","Long":"-89.32","Location":"NA-US-MS-MOSELLE","Decommisioned":"false","TaxReturnsFiled":"1321","EstimatedPopulation":"2523","TotalWages":"41055954"},
{"Zipcode":"38762","ZipCodeType":"STANDARD","City":"MOUND BAYOU","State":"MS","LocationType":"PRIMARY","Lat":"33.88","Long":"-90.72","Location":"NA-US-MS-MOUND BAYOU","Decommisioned":"false","TaxReturnsFiled":"881","EstimatedPopulation":"1545","TotalWages":"16106323"},
{"Zipcode":"39119","ZipCodeType":"STANDARD","City":"MOUNT OLIVE","State":"MS","LocationType":"PRIMARY","Lat":"31.75","Long":"-89.65","Location":"NA-US-MS-MOUNT OLIVE","Decommisioned":"false","TaxReturnsFiled":"2214","EstimatedPopulation":"4137","TotalWages":"57166560"},
{"Zipcode":"38650","ZipCodeType":"STANDARD","City":"MYRTLE","State":"MS","LocationType":"PRIMARY","Lat":"34.55","Long":"-89.11","Location":"NA-US-MS-MYRTLE","Decommisioned":"false","TaxReturnsFiled":"1498","EstimatedPopulation":"2838","TotalWages":"39922440"},
{"Zipcode":"39120","ZipCodeType":"STANDARD","City":"NATCHEZ","State":"MS","LocationType":"PRIMARY","Lat":"31.54","Long":"-91.38","Location":"NA-US-MS-NATCHEZ","Decommisioned":"false","TaxReturnsFiled":"11745","EstimatedPopulation":"20822","TotalWages":"310840632"},
{"Zipcode":"39121","ZipCodeType":"PO BOX","City":"NATCHEZ","State":"MS","LocationType":"PRIMARY","Lat":"31.54","Long":"-91.38","Location":"NA-US-MS-NATCHEZ","Decommisioned":"false","TaxReturnsFiled":"601","EstimatedPopulation":"1027","TotalWages":"17113406"},
{"Zipcode":"39122","ZipCodeType":"PO BOX","City":"NATCHEZ","State":"MS","LocationType":"PRIMARY","Lat":"31.54","Long":"-91.38","Location":"NA-US-MS-NATCHEZ","Decommisioned":"false","TaxReturnsFiled":"354","EstimatedPopulation":"597","TotalWages":"10888991"},
{"Zipcode":"39461","ZipCodeType":"STANDARD","City":"NEELY","State":"MS","LocationType":"PRIMARY","Lat":"31.16","Long":"-88.75","Location":"NA-US-MS-NEELY","Decommisioned":"false","TaxReturnsFiled":"null","EstimatedPopulation":"null","TotalWages":"null"},
{"Zipcode":"38651","ZipCodeType":"STANDARD","City":"NESBIT","State":"MS","LocationType":"PRIMARY","Lat":"34.89","Long":"-90.02","Location":"NA-US-MS-NESBIT","Decommisioned":"false","TaxReturnsFiled":"3263","EstimatedPopulation":"6154","TotalWages":"141275122"},
{"Zipcode":"38858","ZipCodeType":"STANDARD","City":"NETTLETON","State":"MS","LocationType":"PRIMARY","Lat":"34.09","Long":"-88.61","Location":"NA-US-MS-NETTLETON","Decommisioned":"false","TaxReturnsFiled":"2783","EstimatedPopulation":"5263","TotalWages":"72541372"},
{"Zipcode":"38652","ZipCodeType":"STANDARD","City":"NEW ALBANY","State":"MS","LocationType":"PRIMARY","Lat":"34.49","Long":"-89.02","Location":"NA-US-MS-NEW ALBANY","Decommisioned":"false","TaxReturnsFiled":"6964","EstimatedPopulation":"13289","TotalWages":"206891626"},
{"Zipcode":"39462","ZipCodeType":"STANDARD","City":"NEW AUGUSTA","State":"MS","LocationType":"PRIMARY","Lat":"31.2","Long":"-89.02","Location":"NA-US-MS-NEW AUGUSTA","Decommisioned":"false","TaxReturnsFiled":"509","EstimatedPopulation":"920","TotalWages":"14202493"},
{"Zipcode":"39140","ZipCodeType":"STANDARD","City":"NEWHEBRON","State":"MS","LocationType":"PRIMARY","Lat":"31.72","Long":"-90.04","Location":"NA-US-MS-NEWHEBRON","Decommisioned":"false","TaxReturnsFiled":"941","EstimatedPopulation":"1745","TotalWages":"27934517"},
{"Zipcode":"39345","ZipCodeType":"STANDARD","City":"NEWTON","State":"MS","LocationType":"PRIMARY","Lat":"32.31","Long":"-89.15","Location":"NA-US-MS-NEWTON","Decommisioned":"false","TaxReturnsFiled":"2716","EstimatedPopulation":"4909","TotalWages":"67752524"},
{"Zipcode":"39463","ZipCodeType":"PO BOX","City":"NICHOLSON","State":"MS","LocationType":"PRIMARY","Lat":"30.49","Long":"-89.68","Location":"NA-US-MS-NICHOLSON","Decommisioned":"false","TaxReturnsFiled":"null","EstimatedPopulation":"null","TotalWages":"null"},
{"Zipcode":"38947","ZipCodeType":"PO BOX","City":"NORTH CARROLLTON","State":"MS","LocationType":"PRIMARY","Lat":"33.51","Long":"-89.91","Location":"NA-US-MS-NORTH CARROLLTON","Decommisioned":"false","TaxReturnsFiled":"304","EstimatedPopulation":"578","TotalWages":"8167405"},
{"Zipcode":"39346","ZipCodeType":"STANDARD","City":"NOXAPATER","State":"MS","LocationType":"PRIMARY","Lat":"32.99","Long":"-89.06","Location":"NA-US-MS-NOXAPATER","Decommisioned":"false","TaxReturnsFiled":"946","EstimatedPopulation":"1716","TotalWages":"24402768"},
{"Zipcode":"38948","ZipCodeType":"STANDARD","City":"OAKLAND","State":"MS","LocationType":"PRIMARY","Lat":"34.05","Long":"-89.91","Location":"NA-US-MS-OAKLAND","Decommisioned":"false","TaxReturnsFiled":"877","EstimatedPopulation":"1576","TotalWages":"20403335"},
{"Zipcode":"39656","ZipCodeType":"STANDARD","City":"OAK VALE","State":"MS","LocationType":"PRIMARY","Lat":"31.44","Long":"-90","Location":"NA-US-MS-OAK VALE","Decommisioned":"false","TaxReturnsFiled":"381","EstimatedPopulation":"710","TotalWages":"10628833"},
{"Zipcode":"39564","ZipCodeType":"STANDARD","City":"OCEAN SPRINGS","State":"MS","LocationType":"PRIMARY","Lat":"30.4","Long":"-88.8","Location":"NA-US-MS-OCEAN SPRINGS","Decommisioned":"false","TaxReturnsFiled":"15851","EstimatedPopulation":"28673","TotalWages":"644589818"},
{"Zipcode":"39565","ZipCodeType":"STANDARD","City":"VANCLEAVE","State":"MS","LocationType":"PRIMARY","Lat":"30.4","Long":"-88.8","Location":"NA-US-MS-VANCLEAVE","Decommisioned":"false","TaxReturnsFiled":"7844","EstimatedPopulation":"15113","TotalWages":"302704993"},
{"Zipcode":"39566","ZipCodeType":"PO BOX","City":"OCEAN SPRINGS","State":"MS","LocationType":"PRIMARY","Lat":"30.4","Long":"-88.8","Location":"NA-US-MS-OCEAN SPRINGS","Decommisioned":"false","TaxReturnsFiled":"600","EstimatedPopulation":"985","TotalWages":"19872103"},
{"Zipcode":"38860","ZipCodeType":"STANDARD","City":"OKOLONA","State":"MS","LocationType":"PRIMARY","Lat":"34","Long":"-88.75","Location":"NA-US-MS-OKOLONA","Decommisioned":"false","TaxReturnsFiled":"2629","EstimatedPopulation":"4719","TotalWages":"57326516"},
{"Zipcode":"38654","ZipCodeType":"STANDARD","City":"OLIVE BRANCH","State":"MS","LocationType":"PRIMARY","Lat":"34.95","Long":"-89.82","Location":"NA-US-MS-OLIVE BRANCH","Decommisioned":"false","TaxReturnsFiled":"20207","EstimatedPopulation":"38281","TotalWages":"925973852"},
{"Zipcode":"39657","ZipCodeType":"STANDARD","City":"OSYKA","State":"MS","LocationType":"PRIMARY","Lat":"31","Long":"-90.47","Location":"NA-US-MS-OSYKA","Decommisioned":"false","TaxReturnsFiled":"971","EstimatedPopulation":"1819","TotalWages":"27772258"},
{"Zipcode":"39464","ZipCodeType":"STANDARD","City":"OVETT","State":"MS","LocationType":"PRIMARY","Lat":"31.48","Long":"-89.03","Location":"NA-US-MS-OVETT","Decommisioned":"false","TaxReturnsFiled":"903","EstimatedPopulation":"1793","TotalWages":"29893019"},
{"Zipcode":"38655","ZipCodeType":"STANDARD","City":"OXFORD","State":"MS","LocationType":"PRIMARY","Lat":"34.35","Long":"-89.52","Location":"NA-US-MS-OXFORD","Decommisioned":"false","TaxReturnsFiled":"13558","EstimatedPopulation":"23547","TotalWages":"487652523"},
{"Zipcode":"38675","ZipCodeType":"STANDARD","City":"TULA","State":"MS","LocationType":"PRIMARY","Lat":"34.23","Long":"-89.36","Location":"NA-US-MS-TULA","Decommisioned":"false","TaxReturnsFiled":"null","EstimatedPopulation":"null","TotalWages":"null"},
{"Zipcode":"38764","ZipCodeType":"PO BOX","City":"PACE","State":"MS","LocationType":"PRIMARY","Lat":"33.79","Long":"-90.85","Location":"NA-US-MS-PACE","Decommisioned":"false","TaxReturnsFiled":"null","EstimatedPopulation":"null","TotalWages":"null"},
{"Zipcode":"39347","ZipCodeType":"STANDARD","City":"PACHUTA","State":"MS","LocationType":"PRIMARY","Lat":"32.04","Long":"-88.88","Location":"NA-US-MS-PACHUTA","Decommisioned":"false","TaxReturnsFiled":"626","EstimatedPopulation":"1142","TotalWages":"17542052"},
{"Zipcode":"38765","ZipCodeType":"PO BOX","City":"PANTHER BURN","State":"MS","LocationType":"PRIMARY","Lat":"33.06","Long":"-90.87","Location":"NA-US-MS-PANTHER BURN","Decommisioned":"false","TaxReturnsFiled":"null","EstimatedPopulation":"null","TotalWages":"null"},
{"Zipcode":"39562","ZipCodeType":"STANDARD","City":"MOSS POINT","State":"MS","LocationType":"PRIMARY","Lat":"30.42","Long":"-88.52","Location":"NA-US-MS-MOSS POINT","Decommisioned":"false","TaxReturnsFiled":"6889","EstimatedPopulation":"13059","TotalWages":"256507530"},
{"Zipcode":"39563","ZipCodeType":"STANDARD","City":"MOSS POINT","State":"MS","LocationType":"PRIMARY","Lat":"30.42","Long":"-88.52","Location":"NA-US-MS-MOSS POINT","Decommisioned":"false","TaxReturnsFiled":"5897","EstimatedPopulation":"10216","TotalWages":"162668146"},
{"Zipcode":"39567","ZipCodeType":"STANDARD","City":"PASCAGOULA","State":"MS","LocationType":"PRIMARY","Lat":"30.36","Long":"-88.54","Location":"NA-US-MS-PASCAGOULA","Decommisioned":"false","TaxReturnsFiled":"4232","EstimatedPopulation":"7423","TotalWages":"150984631"},
{"Zipcode":"39568","ZipCodeType":"PO BOX","City":"PASCAGOULA","State":"MS","LocationType":"PRIMARY","Lat":"30.36","Long":"-88.54","Location":"NA-US-MS-PASCAGOULA","Decommisioned":"false","TaxReturnsFiled":"507","EstimatedPopulation":"806","TotalWages":"20897173"},
{"Zipcode":"39569","ZipCodeType":"PO BOX","City":"PASCAGOULA","State":"MS","LocationType":"PRIMARY","Lat":"30.36","Long":"-88.54","Location":"NA-US-MS-PASCAGOULA","Decommisioned":"false","TaxReturnsFiled":"null","EstimatedPopulation":"null","TotalWages":"null"},
{"Zipcode":"39581","ZipCodeType":"STANDARD","City":"PASCAGOULA","State":"MS","LocationType":"PRIMARY","Lat":"30.36","Long":"-88.54","Location":"NA-US-MS-PASCAGOULA","Decommisioned":"false","TaxReturnsFiled":"4773","EstimatedPopulation":"8759","TotalWages":"150017655"},
{"Zipcode":"39595","ZipCodeType":"UNIQUE","City":"PASCAGOULA","State":"MS","LocationType":"PRIMARY","Lat":"30.36","Long":"-88.54","Location":"NA-US-MS-PASCAGOULA","Decommisioned":"false","TaxReturnsFiled":"null","EstimatedPopulation":"null","TotalWages":"null"},
{"Zipcode":"39571","ZipCodeType":"STANDARD","City":"PASS CHRISTIAN","State":"MS","LocationType":"PRIMARY","Lat":"30.31","Long":"-89.24","Location":"NA-US-MS-PASS CHRISTIAN","Decommisioned":"false","TaxReturnsFiled":"5412","EstimatedPopulation":"9818","TotalWages":"188302464"},
{"Zipcode":"39144","ZipCodeType":"STANDARD","City":"PATTISON","State":"MS","LocationType":"PRIMARY","Lat":"31.85","Long":"-90.8","Location":"NA-US-MS-PATTISON","Decommisioned":"false","TaxReturnsFiled":"582","EstimatedPopulation":"1087","TotalWages":"11627556"},
{"Zipcode":"39348","ZipCodeType":"STANDARD","City":"PAULDING","State":"MS","LocationType":"PRIMARY","Lat":"32","Long":"-89.07","Location":"NA-US-MS-PAULDING","Decommisioned":"false","TaxReturnsFiled":"null","EstimatedPopulation":"null","TotalWages":"null"},
{"Zipcode":"39145","ZipCodeType":"STANDARD","City":"PELAHATCHIE","State":"MS","LocationType":"PRIMARY","Lat":"32.31","Long":"-89.8","Location":"NA-US-MS-PELAHATCHIE","Decommisioned":"false","TaxReturnsFiled":"2189","EstimatedPopulation":"4171","TotalWages":"68936794"},
{"Zipcode":"39573","ZipCodeType":"STANDARD","City":"PERKINSTON","State":"MS","LocationType":"PRIMARY","Lat":"30.78","Long":"-89.13","Location":"NA-US-MS-PERKINSTON","Decommisioned":"false","TaxReturnsFiled":"3046","EstimatedPopulation":"5897","TotalWages":"103107923"},
{"Zipcode":"39465","ZipCodeType":"STANDARD","City":"PETAL","State":"MS","LocationType":"PRIMARY","Lat":"31.34","Long":"-89.25","Location":"NA-US-MS-PETAL","Decommisioned":"false","TaxReturnsFiled":"8767","EstimatedPopulation":"16917","TotalWages":"311986204"},
{"Zipcode":"39755","ZipCodeType":"STANDARD","City":"PHEBA","State":"MS","LocationType":"PRIMARY","Lat":"33.59","Long":"-88.94","Location":"NA-US-MS-PHEBA","Decommisioned":"false","TaxReturnsFiled":"435","EstimatedPopulation":"823","TotalWages":"9895951"},
{"Zipcode":"39350","ZipCodeType":"STANDARD","City":"PHILADELPHIA","State":"MS","LocationType":"PRIMARY","Lat":"32.77","Long":"-89.1","Location":"NA-US-MS-PHILADELPHIA","Decommisioned":"false","TaxReturnsFiled":"10607","EstimatedPopulation":"19037","TotalWages":"293583090"},
{"Zipcode":"38950","ZipCodeType":"STANDARD","City":"PHILIPP","State":"MS","LocationType":"PRIMARY","Lat":"33.75","Long":"-90.2","Location":"NA-US-MS-PHILIPP","Decommisioned":"false","TaxReturnsFiled":"null","EstimatedPopulation":"null","TotalWages":"null"},
{"Zipcode":"39466","ZipCodeType":"STANDARD","City":"PICAYUNE","State":"MS","LocationType":"PRIMARY","Lat":"30.52","Long":"-89.67","Location":"NA-US-MS-PICAYUNE","Decommisioned":"false","TaxReturnsFiled":"10785","EstimatedPopulation":"19966","TotalWages":"329779958"},
{"Zipcode":"39146","ZipCodeType":"STANDARD","City":"PICKENS","State":"MS","LocationType":"PRIMARY","Lat":"32.89","Long":"-89.96","Location":"NA-US-MS-PICKENS","Decommisioned":"false","TaxReturnsFiled":"1205","EstimatedPopulation":"2195","TotalWages":"25624218"},
{"Zipcode":"39179","ZipCodeType":"STANDARD","City":"VAUGHAN","State":"MS","LocationType":"PRIMARY","Lat":"32.81","Long":"-90.09","Location":"NA-US-MS-VAUGHAN","Decommisioned":"false","TaxReturnsFiled":"454","EstimatedPopulation":"843","TotalWages":"11013701"},
{"Zipcode":"39148","ZipCodeType":"PO BOX","City":"PINEY WOODS","State":"MS","LocationType":"PRIMARY","Lat":"32.12","Long":"-90.13","Location":"NA-US-MS-PINEY WOODS","Decommisioned":"false","TaxReturnsFiled":"null","EstimatedPopulation":"null","TotalWages":"null"},
{"Zipcode":"39149","ZipCodeType":"STANDARD","City":"PINOLA","State":"MS","LocationType":"PRIMARY","Lat":"31.82","Long":"-90.02","Location":"NA-US-MS-PINOLA","Decommisioned":"false","TaxReturnsFiled":"680","EstimatedPopulation":"1220","TotalWages":"15593310"},
{"Zipcode":"38951","ZipCodeType":"STANDARD","City":"PITTSBORO","State":"MS","LocationType":"PRIMARY","Lat":"33.94","Long":"-89.33","Location":"NA-US-MS-PITTSBORO","Decommisioned":"false","TaxReturnsFiled":"380","EstimatedPopulation":"722","TotalWages":"9279915"},
{"Zipcode":"38862","ZipCodeType":"STANDARD","City":"PLANTERSVILLE","State":"MS","LocationType":"PRIMARY","Lat":"34.21","Long":"-88.66","Location":"NA-US-MS-PLANTERSVILLE","Decommisioned":"false","TaxReturnsFiled":"1204","EstimatedPopulation":"2194","TotalWages":"32657102"},
{"Zipcode":"38863","ZipCodeType":"STANDARD","City":"PONTOTOC","State":"MS","LocationType":"PRIMARY","Lat":"34.24","Long":"-89","Location":"NA-US-MS-PONTOTOC","Decommisioned":"false","TaxReturnsFiled":"8062","EstimatedPopulation":"15383","TotalWages":"234844643"},
{"Zipcode":"38658","ZipCodeType":"STANDARD","City":"POPE","State":"MS","LocationType":"PRIMARY","Lat":"34.21","Long":"-89.94","Location":"NA-US-MS-POPE","Decommisioned":"false","TaxReturnsFiled":"926","EstimatedPopulation":"1719","TotalWages":"26721492"},
{"Zipcode":"39470","ZipCodeType":"STANDARD","City":"POPLARVILLE","State":"MS","LocationType":"PRIMARY","Lat":"30.83","Long":"-89.53","Location":"NA-US-MS-POPLARVILLE","Decommisioned":"false","TaxReturnsFiled":"4519","EstimatedPopulation":"8656","TotalWages":"143475741"},
{"Zipcode":"39352","ZipCodeType":"STANDARD","City":"PORTERVILLE","State":"MS","LocationType":"PRIMARY","Lat":"32.65","Long":"-88.48","Location":"NA-US-MS-PORTERVILLE","Decommisioned":"false","TaxReturnsFiled":"349","EstimatedPopulation":"639","TotalWages":"6805160"},
{"Zipcode":"39150","ZipCodeType":"STANDARD","City":"PORT GIBSON","State":"MS","LocationType":"PRIMARY","Lat":"31.95","Long":"-90.98","Location":"NA-US-MS-PORT GIBSON","Decommisioned":"false","TaxReturnsFiled":"2555","EstimatedPopulation":"4569","TotalWages":"61036270"},
{"Zipcode":"38659","ZipCodeType":"STANDARD","City":"POTTS CAMP","State":"MS","LocationType":"PRIMARY","Lat":"34.64","Long":"-89.3","Location":"NA-US-MS-POTTS CAMP","Decommisioned":"false","TaxReturnsFiled":"1135","EstimatedPopulation":"2163","TotalWages":"32160125"},
{"Zipcode":"39756","ZipCodeType":"STANDARD","City":"PRAIRIE","State":"MS","LocationType":"PRIMARY","Lat":"33.8","Long":"-88.66","Location":"NA-US-MS-PRAIRIE","Decommisioned":"false","TaxReturnsFiled":"891","EstimatedPopulation":"1593","TotalWages":"17549338"},
{"Zipcode":"39474","ZipCodeType":"STANDARD","City":"PRENTISS","State":"MS","LocationType":"PRIMARY","Lat":"31.59","Long":"-89.87","Location":"NA-US-MS-PRENTISS","Decommisioned":"false","TaxReturnsFiled":"2695","EstimatedPopulation":"4780","TotalWages":"63767399"},
{"Zipcode":"39354","ZipCodeType":"STANDARD","City":"PRESTON","State":"MS","LocationType":"PRIMARY","Lat":"32.85","Long":"-88.8","Location":"NA-US-MS-PRESTON","Decommisioned":"false","TaxReturnsFiled":"739","EstimatedPopulation":"1372","TotalWages":"17709631"},
{"Zipcode":"39151","ZipCodeType":"PO BOX","City":"PUCKETT","State":"MS","LocationType":"PRIMARY","Lat":"32.08","Long":"-89.77","Location":"NA-US-MS-PUCKETT","Decommisioned":"false","TaxReturnsFiled":"null","EstimatedPopulation":"null","TotalWages":"null"},
{"Zipcode":"39152","ZipCodeType":"STANDARD","City":"PULASKI","State":"MS","LocationType":"PRIMARY","Lat":"32.27","Long":"-89.63","Location":"NA-US-MS-PULASKI","Decommisioned":"false","TaxReturnsFiled":"485","EstimatedPopulation":"945","TotalWages":"12599722"},
{"Zipcode":"39475","ZipCodeType":"STANDARD","City":"PURVIS","State":"MS","LocationType":"PRIMARY","Lat":"31.14","Long":"-89.4","Location":"NA-US-MS-PURVIS","Decommisioned":"false","TaxReturnsFiled":"4893","EstimatedPopulation":"9441","TotalWages":"180276275"},
{"Zipcode":"39355","ZipCodeType":"STANDARD","City":"QUITMAN","State":"MS","LocationType":"PRIMARY","Lat":"32.04","Long":"-88.72","Location":"NA-US-MS-QUITMAN","Decommisioned":"false","TaxReturnsFiled":"2882","EstimatedPopulation":"5371","TotalWages":"85914193"},
{"Zipcode":"39153","ZipCodeType":"STANDARD","City":"RALEIGH","State":"MS","LocationType":"PRIMARY","Lat":"32.03","Long":"-89.52","Location":"NA-US-MS-RALEIGH","Decommisioned":"false","TaxReturnsFiled":"1447","EstimatedPopulation":"2756","TotalWages":"40443718"},
{"Zipcode":"38864","ZipCodeType":"STANDARD","City":"RANDOLPH","State":"MS","LocationType":"PRIMARY","Lat":"34.18","Long":"-89.16","Location":"NA-US-MS-RANDOLPH","Decommisioned":"false","TaxReturnsFiled":"534","EstimatedPopulation":"1038","TotalWages":"14758839"},
{"Zipcode":"39154","ZipCodeType":"STANDARD","City":"RAYMOND","State":"MS","LocationType":"PRIMARY","Lat":"32.26","Long":"-90.42","Location":"NA-US-MS-RAYMOND","Decommisioned":"false","TaxReturnsFiled":"3886","EstimatedPopulation":"7133","TotalWages":"146192969"},
{"Zipcode":"38661","ZipCodeType":"STANDARD","City":"RED BANKS","State":"MS","LocationType":"PRIMARY","Lat":"34.83","Long":"-89.58","Location":"NA-US-MS-RED BANKS","Decommisioned":"false","TaxReturnsFiled":"772","EstimatedPopulation":"1439","TotalWages":"22669914"},
{"Zipcode":"39156","ZipCodeType":"STANDARD","City":"REDWOOD","State":"MS","LocationType":"PRIMARY","Lat":"32.5","Long":"-90.79","Location":"NA-US-MS-REDWOOD","Decommisioned":"false","TaxReturnsFiled":"297","EstimatedPopulation":"578","TotalWages":"9538812"},
{"Zipcode":"38767","ZipCodeType":"PO BOX","City":"RENA LARA","State":"MS","LocationType":"PRIMARY","Lat":"34.15","Long":"-90.77","Location":"NA-US-MS-RENA LARA","Decommisioned":"false","TaxReturnsFiled":"null","EstimatedPopulation":"null","TotalWages":"null"},
{"Zipcode":"39476","ZipCodeType":"STANDARD","City":"RICHTON","State":"MS","LocationType":"PRIMARY","Lat":"31.34","Long":"-88.94","Location":"NA-US-MS-RICHTON","Decommisioned":"false","TaxReturnsFiled":"2952","EstimatedPopulation":"5841","TotalWages":"94318867"},
{"Zipcode":"39157","ZipCodeType":"STANDARD","City":"RIDGELAND","State":"MS","LocationType":"PRIMARY","Lat":"32.42","Long":"-90.13","Location":"NA-US-MS-RIDGELAND","Decommisioned":"false","TaxReturnsFiled":"10641","EstimatedPopulation":"18046","TotalWages":"525978897"},
{"Zipcode":"39158","ZipCodeType":"PO BOX","City":"RIDGELAND","State":"MS","LocationType":"PRIMARY","Lat":"32.42","Long":"-90.13","Location":"NA-US-MS-RIDGELAND","Decommisioned":"false","TaxReturnsFiled":"788","EstimatedPopulation":"1283","TotalWages":"30776805"},
{"Zipcode":"38865","ZipCodeType":"STANDARD","City":"RIENZI","State":"MS","LocationType":"PRIMARY","Lat":"34.76","Long":"-88.53","Location":"NA-US-MS-RIENZI","Decommisioned":"false","TaxReturnsFiled":"1966","EstimatedPopulation":"3815","TotalWages":"53184372"},
{"Zipcode":"38663","ZipCodeType":"STANDARD","City":"RIPLEY","State":"MS","LocationType":"PRIMARY","Lat":"34.72","Long":"-88.94","Location":"NA-US-MS-RIPLEY","Decommisioned":"false","TaxReturnsFiled":"5106","EstimatedPopulation":"9444","TotalWages":"132042313"},
{"Zipcode":"38664","ZipCodeType":"STANDARD","City":"ROBINSONVILLE","State":"MS","LocationType":"PRIMARY","Lat":"34.81","Long":"-90.31","Location":"NA-US-MS-ROBINSONVILLE","Decommisioned":"false","TaxReturnsFiled":"1364","EstimatedPopulation":"2301","TotalWages":"30902488"},
{"Zipcode":"39159","ZipCodeType":"STANDARD","City":"ROLLING FORK","State":"MS","LocationType":"PRIMARY","Lat":"32.9","Long":"-90.87","Location":"NA-US-MS-ROLLING FORK","Decommisioned":"false","TaxReturnsFiled":"1207","EstimatedPopulation":"2177","TotalWages":"25952648"},
{"Zipcode":"38768","ZipCodeType":"PO BOX","City":"ROME","State":"MS","LocationType":"PRIMARY","Lat":"33.93","Long":"-90.52","Location":"NA-US-MS-ROME","Decommisioned":"false","TaxReturnsFiled":"null","EstimatedPopulation":"null","TotalWages":"null"},
{"Zipcode":"38769","ZipCodeType":"STANDARD","City":"ROSEDALE","State":"MS","LocationType":"PRIMARY","Lat":"33.85","Long":"-91.03","Location":"NA-US-MS-ROSEDALE","Decommisioned":"false","TaxReturnsFiled":"925","EstimatedPopulation":"1670","TotalWages":"19435015"},
{"Zipcode":"39356","ZipCodeType":"STANDARD","City":"ROSE HILL","State":"MS","LocationType":"PRIMARY","Lat":"32.13","Long":"-89.01","Location":"NA-US-MS-ROSE HILL","Decommisioned":"false","TaxReturnsFiled":"319","EstimatedPopulation":"583","TotalWages":"9854530"},
{"Zipcode":"39661","ZipCodeType":"STANDARD","City":"ROXIE","State":"MS","LocationType":"PRIMARY","Lat":"31.5","Long":"-91.06","Location":"NA-US-MS-ROXIE","Decommisioned":"false","TaxReturnsFiled":"1123","EstimatedPopulation":"2149","TotalWages":"29186146"},
{"Zipcode":"38771","ZipCodeType":"STANDARD","City":"RULEVILLE","State":"MS","LocationType":"PRIMARY","Lat":"33.72","Long":"-90.55","Location":"NA-US-MS-RULEVILLE","Decommisioned":"false","TaxReturnsFiled":"1282","EstimatedPopulation":"2314","TotalWages":"27848438"},
{"Zipcode":"39662","ZipCodeType":"STANDARD","City":"RUTH","State":"MS","LocationType":"PRIMARY","Lat":"31.37","Long":"-90.29","Location":"NA-US-MS-RUTH","Decommisioned":"false","TaxReturnsFiled":"501","EstimatedPopulation":"1002","TotalWages":"19221972"},
{"Zipcode":"39107","ZipCodeType":"PO BOX","City":"MC ADAMS","State":"MS","LocationType":"PRIMARY","Lat":"33.04","Long":"-89.65","Location":"NA-US-MS-MC ADAMS","Decommisioned":"false","TaxReturnsFiled":"null","EstimatedPopulation":"null","TotalWages":"null"},
{"Zipcode":"39160","ZipCodeType":"STANDARD","City":"SALLIS","State":"MS","LocationType":"PRIMARY","Lat":"33.02","Long":"-89.76","Location":"NA-US-MS-SALLIS","Decommisioned":"false","TaxReturnsFiled":"1126","EstimatedPopulation":"2102","TotalWages":"28273301"},
{"Zipcode":"38866","ZipCodeType":"STANDARD","City":"SALTILLO","State":"MS","LocationType":"PRIMARY","Lat":"34.38","Long":"-88.68","Location":"NA-US-MS-SALTILLO","Decommisioned":"false","TaxReturnsFiled":"5053","EstimatedPopulation":"9642","TotalWages":"191830985"},
{"Zipcode":"39477","ZipCodeType":"PO BOX","City":"SANDERSVILLE","State":"MS","LocationType":"PRIMARY","Lat":"31.78","Long":"-89.03","Location":"NA-US-MS-SANDERSVILLE","Decommisioned":"false","TaxReturnsFiled":"410","EstimatedPopulation":"767","TotalWages":"13081580"},
{"Zipcode":"39161","ZipCodeType":"PO BOX","City":"SANDHILL","State":"MS","LocationType":"PRIMARY","Lat":"32.28","Long":"-89.88","Location":"NA-US-MS-SANDHILL","Decommisioned":"false","TaxReturnsFiled":"null","EstimatedPopulation":"null","TotalWages":"null"},
{"Zipcode":"39478","ZipCodeType":"STANDARD","City":"SANDY HOOK","State":"MS","LocationType":"PRIMARY","Lat":"31.03","Long":"-89.8","Location":"NA-US-MS-SANDY HOOK","Decommisioned":"false","TaxReturnsFiled":"822","EstimatedPopulation":"1593","TotalWages":"26878762"},
{"Zipcode":"38665","ZipCodeType":"STANDARD","City":"SARAH","State":"MS","LocationType":"PRIMARY","Lat":"34.6","Long":"-90.12","Location":"NA-US-MS-SARAH","Decommisioned":"false","TaxReturnsFiled":"933","EstimatedPopulation":"1832","TotalWages":"26039867"},
{"Zipcode":"38666","ZipCodeType":"STANDARD","City":"SARDIS","State":"MS","LocationType":"PRIMARY","Lat":"34.43","Long":"-89.91","Location":"NA-US-MS-SARDIS","Decommisioned":"false","TaxReturnsFiled":"2812","EstimatedPopulation":"5090","TotalWages":"64598376"},
{"Zipcode":"39162","ZipCodeType":"STANDARD","City":"SATARTIA","State":"MS","LocationType":"PRIMARY","Lat":"32.67","Long":"-90.54","Location":"NA-US-MS-SATARTIA","Decommisioned":"false","TaxReturnsFiled":"null","EstimatedPopulation":"null","TotalWages":"null"},
{"Zipcode":"39574","ZipCodeType":"STANDARD","City":"SAUCIER","State":"MS","LocationType":"PRIMARY","Lat":"30.63","Long":"-89.13","Location":"NA-US-MS-SAUCIER","Decommisioned":"false","TaxReturnsFiled":"5551","EstimatedPopulation":"10561","TotalWages":"175930642"},
{"Zipcode":"38952","ZipCodeType":"STANDARD","City":"SCHLATER","State":"MS","LocationType":"PRIMARY","Lat":"33.63","Long":"-90.34","Location":"NA-US-MS-SCHLATER","Decommisioned":"false","TaxReturnsFiled":"269","EstimatedPopulation":"500","TotalWages":"6238296"},
{"Zipcode":"38953","ZipCodeType":"STANDARD","City":"SCOBEY","State":"MS","LocationType":"PRIMARY","Lat":"33.93","Long":"-89.88","Location":"NA-US-MS-SCOBEY","Decommisioned":"false","TaxReturnsFiled":"274","EstimatedPopulation":"518","TotalWages":"7451066"},
{"Zipcode":"39358","ZipCodeType":"STANDARD","City":"SCOOBA","State":"MS","LocationType":"PRIMARY","Lat":"32.83","Long":"-88.47","Location":"NA-US-MS-SCOOBA","Decommisioned":"false","TaxReturnsFiled":"644","EstimatedPopulation":"1132","TotalWages":"15411031"},
{"Zipcode":"38772","ZipCodeType":"PO BOX","City":"SCOTT","State":"MS","LocationType":"PRIMARY","Lat":"33.59","Long":"-91.07","Location":"NA-US-MS-SCOTT","Decommisioned":"false","TaxReturnsFiled":"null","EstimatedPopulation":"null","TotalWages":"null"},
{"Zipcode":"39359","ZipCodeType":"PO BOX","City":"SEBASTOPOL","State":"MS","LocationType":"PRIMARY","Lat":"32.56","Long":"-89.33","Location":"NA-US-MS-SEBASTOPOL","Decommisioned":"false","TaxReturnsFiled":"276","EstimatedPopulation":"521","TotalWages":"8485593"},
{"Zipcode":"39479","ZipCodeType":"STANDARD","City":"SEMINARY","State":"MS","LocationType":"PRIMARY","Lat":"31.55","Long":"-89.49","Location":"NA-US-MS-SEMINARY","Decommisioned":"false","TaxReturnsFiled":"2258","EstimatedPopulation":"4385","TotalWages":"71083294"},
{"Zipcode":"38668","ZipCodeType":"STANDARD","City":"SENATOBIA","State":"MS","LocationType":"PRIMARY","Lat":"34.61","Long":"-89.97","Location":"NA-US-MS-SENATOBIA","Decommisioned":"false","TaxReturnsFiled":"5634","EstimatedPopulation":"10493","TotalWages":"184251425"},
{"Zipcode":"38868","ZipCodeType":"STANDARD","City":"SHANNON","State":"MS","LocationType":"PRIMARY","Lat":"34.11","Long":"-88.69","Location":"NA-US-MS-SHANNON","Decommisioned":"false","TaxReturnsFiled":"2348","EstimatedPopulation":"4249","TotalWages":"57592307"},
{"Zipcode":"39163","ZipCodeType":"PO BOX","City":"SHARON","State":"MS","LocationType":"PRIMARY","Lat":"32.65","Long":"-89.83","Location":"NA-US-MS-SHARON","Decommisioned":"false","TaxReturnsFiled":"null","EstimatedPopulation":"null","TotalWages":"null"},
{"Zipcode":"38773","ZipCodeType":"STANDARD","City":"SHAW","State":"MS","LocationType":"PRIMARY","Lat":"33.6","Long":"-90.77","Location":"NA-US-MS-SHAW","Decommisioned":"false","TaxReturnsFiled":"1323","EstimatedPopulation":"2409","TotalWages":"27148943"},
{"Zipcode":"38774","ZipCodeType":"STANDARD","City":"SHELBY","State":"MS","LocationType":"PRIMARY","Lat":"33.95","Long":"-90.76","Location":"NA-US-MS-SHELBY","Decommisioned":"false","TaxReturnsFiled":"989","EstimatedPopulation":"1807","TotalWages":"17777548"},
{"Zipcode":"38869","ZipCodeType":"PO BOX","City":"SHERMAN","State":"MS","LocationType":"PRIMARY","Lat":"34.35","Long":"-88.83","Location":"NA-US-MS-SHERMAN","Decommisioned":"false","TaxReturnsFiled":"null","EstimatedPopulation":"null","TotalWages":"null"},
{"Zipcode":"39360","ZipCodeType":"STANDARD","City":"SHUBUTA","State":"MS","LocationType":"PRIMARY","Lat":"31.86","Long":"-88.7","Location":"NA-US-MS-SHUBUTA","Decommisioned":"false","TaxReturnsFiled":"1644","EstimatedPopulation":"3048","TotalWages":"42304080"},
{"Zipcode":"39361","ZipCodeType":"STANDARD","City":"SHUQUALAK","State":"MS","LocationType":"PRIMARY","Lat":"32.97","Long":"-88.56","Location":"NA-US-MS-SHUQUALAK","Decommisioned":"false","TaxReturnsFiled":"651","EstimatedPopulation":"1133","TotalWages":"12615413"},
{"Zipcode":"39165","ZipCodeType":"PO BOX","City":"SIBLEY","State":"MS","LocationType":"PRIMARY","Lat":"31.39","Long":"-91.37","Location":"NA-US-MS-SIBLEY","Decommisioned":"false","TaxReturnsFiled":"null","EstimatedPopulation":"null","TotalWages":"null"},
{"Zipcode":"38954","ZipCodeType":"STANDARD","City":"SIDON","State":"MS","LocationType":"PRIMARY","Lat":"33.4","Long":"-90.2","Location":"NA-US-MS-SIDON","Decommisioned":"false","TaxReturnsFiled":"560","EstimatedPopulation":"1032","TotalWages":"11748712"},
{"Zipcode":"39115","ZipCodeType":"PO BOX","City":"MIDNIGHT","State":"MS","LocationType":"PRIMARY","Lat":"33.06","Long":"-90.56","Location":"NA-US-MS-MIDNIGHT","Decommisioned":"false","TaxReturnsFiled":"null","EstimatedPopulation":"null","TotalWages":"null"},
{"Zipcode":"39166","ZipCodeType":"STANDARD","City":"SILVER CITY","State":"MS","LocationType":"PRIMARY","Lat":"33.09","Long":"-90.49","Location":"NA-US-MS-SILVER CITY","Decommisioned":"false","TaxReturnsFiled":"null","EstimatedPopulation":"null","TotalWages":"null"},
{"Zipcode":"39663","ZipCodeType":"STANDARD","City":"SILVER CREEK","State":"MS","LocationType":"PRIMARY","Lat":"31.6","Long":"-90","Location":"NA-US-MS-SILVER CREEK","Decommisioned":"false","TaxReturnsFiled":"1080","EstimatedPopulation":"2032","TotalWages":"33288790"},
{"Zipcode":"38628","ZipCodeType":"STANDARD","City":"FALCON","State":"MS","LocationType":"PRIMARY","Lat":"34.39","Long":"-90.25","Location":"NA-US-MS-FALCON","Decommisioned":"false","TaxReturnsFiled":"null","EstimatedPopulation":"null","TotalWages":"null"},
{"Zipcode":"38670","ZipCodeType":"STANDARD","City":"SLEDGE","State":"MS","LocationType":"PRIMARY","Lat":"34.43","Long":"-90.22","Location":"NA-US-MS-SLEDGE","Decommisioned":"false","TaxReturnsFiled":"547","EstimatedPopulation":"998","TotalWages":"10362337"},
{"Zipcode":"39664","ZipCodeType":"STANDARD","City":"SMITHDALE","State":"MS","LocationType":"PRIMARY","Lat":"31.33","Long":"-90.68","Location":"NA-US-MS-SMITHDALE","Decommisioned":"false","TaxReturnsFiled":"834","EstimatedPopulation":"1622","TotalWages":"26568054"},
{"Zipcode":"38870","ZipCodeType":"STANDARD","City":"SMITHVILLE","State":"MS","LocationType":"PRIMARY","Lat":"34.06","Long":"-88.39","Location":"NA-US-MS-SMITHVILLE","Decommisioned":"false","TaxReturnsFiled":"1224","EstimatedPopulation":"2366","TotalWages":"38736940"},
{"Zipcode":"39665","ZipCodeType":"STANDARD","City":"SONTAG","State":"MS","LocationType":"PRIMARY","Lat":"31.65","Long":"-90.18","Location":"NA-US-MS-SONTAG","Decommisioned":"false","TaxReturnsFiled":"378","EstimatedPopulation":"719","TotalWages":"12227250"},
{"Zipcode":"39480","ZipCodeType":"STANDARD","City":"SOSO","State":"MS","LocationType":"PRIMARY","Lat":"31.75","Long":"-89.27","Location":"NA-US-MS-SOSO","Decommisioned":"false","TaxReturnsFiled":"1137","EstimatedPopulation":"2160","TotalWages":"35475538"},
{"Zipcode":"38671","ZipCodeType":"STANDARD","City":"SOUTHAVEN","State":"MS","LocationType":"PRIMARY","Lat":"34.97","Long":"-89.99","Location":"NA-US-MS-SOUTHAVEN","Decommisioned":"false","TaxReturnsFiled":"16341","EstimatedPopulation":"28707","TotalWages":"541448563"},
{"Zipcode":"38672","ZipCodeType":"STANDARD","City":"SOUTHAVEN","State":"MS","LocationType":"PRIMARY","Lat":"34.97","Long":"-89.99","Location":"NA-US-MS-SOUTHAVEN","Decommisioned":"false","TaxReturnsFiled":"4226","EstimatedPopulation":"8609","TotalWages":"237483563"},
{"Zipcode":"39167","ZipCodeType":"PO BOX","City":"STAR","State":"MS","LocationType":"PRIMARY","Lat":"32.12","Long":"-90.13","Location":"NA-US-MS-STAR","Decommisioned":"false","TaxReturnsFiled":"null","EstimatedPopulation":"null","TotalWages":"null"},
{"Zipcode":"39759","ZipCodeType":"STANDARD","City":"STARKVILLE","State":"MS","LocationType":"PRIMARY","Lat":"33.45","Long":"-88.82","Location":"NA-US-MS-STARKVILLE","Decommisioned":"false","TaxReturnsFiled":"14326","EstimatedPopulation":"24708","TotalWages":"449177920"},
{"Zipcode":"39760","ZipCodeType":"PO BOX","City":"STARKVILLE","State":"MS","LocationType":"PRIMARY","Lat":"33.45","Long":"-88.82","Location":"NA-US-MS-STARKVILLE","Decommisioned":"false","TaxReturnsFiled":"676","EstimatedPopulation":"1144","TotalWages":"18819483"},
{"Zipcode":"39362","ZipCodeType":"STANDARD","City":"STATE LINE","State":"MS","LocationType":"PRIMARY","Lat":"31.43","Long":"-88.47","Location":"NA-US-MS-STATE LINE","Decommisioned":"false","TaxReturnsFiled":"1048","EstimatedPopulation":"2025","TotalWages":"29741097"},
{"Zipcode":"39766","ZipCodeType":"STANDARD","City":"STEENS","State":"MS","LocationType":"PRIMARY","Lat":"33.57","Long":"-88.31","Location":"NA-US-MS-STEENS","Decommisioned":"false","TaxReturnsFiled":"1122","EstimatedPopulation":"2097","TotalWages":"34743223"},
{"Zipcode":"39767","ZipCodeType":"STANDARD","City":"STEWART","State":"MS","LocationType":"PRIMARY","Lat":"33.53","Long":"-89.49","Location":"NA-US-MS-STEWART","Decommisioned":"false","TaxReturnsFiled":"302","EstimatedPopulation":"587","TotalWages":"8162530"},
{"Zipcode":"38776","ZipCodeType":"PO BOX","City":"STONEVILLE","State":"MS","LocationType":"PRIMARY","Lat":"33.4","Long":"-90.94","Location":"NA-US-MS-STONEVILLE","Decommisioned":"false","TaxReturnsFiled":"null","EstimatedPopulation":"null","TotalWages":"null"},
{"Zipcode":"39363","ZipCodeType":"STANDARD","City":"STONEWALL","State":"MS","LocationType":"PRIMARY","Lat":"32.13","Long":"-88.79","Location":"NA-US-MS-STONEWALL","Decommisioned":"false","TaxReturnsFiled":"740","EstimatedPopulation":"1355","TotalWages":"20139912"},
{"Zipcode":"39460","ZipCodeType":"PO BOX","City":"MOSS","State":"MS","LocationType":"PRIMARY","Lat":"31.84","Long":"-89.15","Location":"NA-US-MS-MOSS","Decommisioned":"false","TaxReturnsFiled":"null","EstimatedPopulation":"null","TotalWages":"null"},
{"Zipcode":"39481","ZipCodeType":"STANDARD","City":"STRINGER","State":"MS","LocationType":"PRIMARY","Lat":"31.84","Long":"-89.26","Location":"NA-US-MS-STRINGER","Decommisioned":"false","TaxReturnsFiled":"694","EstimatedPopulation":"1345","TotalWages":"23800441"},
{"Zipcode":"39769","ZipCodeType":"STANDARD","City":"STURGIS","State":"MS","LocationType":"PRIMARY","Lat":"33.34","Long":"-89.04","Location":"NA-US-MS-STURGIS","Decommisioned":"false","TaxReturnsFiled":"761","EstimatedPopulation":"1386","TotalWages":"20992915"},
{"Zipcode":"39666","ZipCodeType":"STANDARD","City":"SUMMIT","State":"MS","LocationType":"PRIMARY","Lat":"31.28","Long":"-90.46","Location":"NA-US-MS-SUMMIT","Decommisioned":"false","TaxReturnsFiled":"4042","EstimatedPopulation":"7553","TotalWages":"132659018"},
{"Zipcode":"38957","ZipCodeType":"PO BOX","City":"SUMNER","State":"MS","LocationType":"PRIMARY","Lat":"33.96","Long":"-90.36","Location":"NA-US-MS-SUMNER","Decommisioned":"false","TaxReturnsFiled":"332","EstimatedPopulation":"610","TotalWages":"7226222"},
{"Zipcode":"39482","ZipCodeType":"STANDARD","City":"SUMRALL","State":"MS","LocationType":"PRIMARY","Lat":"31.41","Long":"-89.54","Location":"NA-US-MS-SUMRALL","Decommisioned":"false","TaxReturnsFiled":"3734","EstimatedPopulation":"7379","TotalWages":"126990072"},
{"Zipcode":"38778","ZipCodeType":"STANDARD","City":"SUNFLOWER","State":"MS","LocationType":"PRIMARY","Lat":"33.54","Long":"-90.53","Location":"NA-US-MS-SUNFLOWER","Decommisioned":"false","TaxReturnsFiled":"670","EstimatedPopulation":"1245","TotalWages":"12845483"},
{"Zipcode":"38959","ZipCodeType":"PO BOX","City":"SWIFTOWN","State":"MS","LocationType":"PRIMARY","Lat":"33.32","Long":"-90.4","Location":"NA-US-MS-SWIFTOWN","Decommisioned":"false","TaxReturnsFiled":"null","EstimatedPopulation":"null","TotalWages":"null"},
{"Zipcode":"38673","ZipCodeType":"STANDARD","City":"TAYLOR","State":"MS","LocationType":"PRIMARY","Lat":"34.27","Long":"-89.58","Location":"NA-US-MS-TAYLOR","Decommisioned":"false","TaxReturnsFiled":"401","EstimatedPopulation":"714","TotalWages":"10629169"},
{"Zipcode":"39168","ZipCodeType":"STANDARD","City":"TAYLORSVILLE","State":"MS","LocationType":"PRIMARY","Lat":"31.83","Long":"-89.43","Location":"NA-US-MS-TAYLORSVILLE","Decommisioned":"false","TaxReturnsFiled":"2726","EstimatedPopulation":"5086","TotalWages":"79153842"},
{"Zipcode":"39169","ZipCodeType":"STANDARD","City":"TCHULA","State":"MS","LocationType":"PRIMARY","Lat":"33.18","Long":"-90.22","Location":"NA-US-MS-TCHULA","Decommisioned":"false","TaxReturnsFiled":"1221","EstimatedPopulation":"2222","TotalWages":"21520365"},
{"Zipcode":"39170","ZipCodeType":"STANDARD","City":"TERRY","State":"MS","LocationType":"PRIMARY","Lat":"32.1","Long":"-90.29","Location":"NA-US-MS-TERRY","Decommisioned":"false","TaxReturnsFiled":"4353","EstimatedPopulation":"8155","TotalWages":"173786752"},
{"Zipcode":"38871","ZipCodeType":"STANDARD","City":"THAXTON","State":"MS","LocationType":"PRIMARY","Lat":"34.3","Long":"-89.17","Location":"NA-US-MS-THAXTON","Decommisioned":"false","TaxReturnsFiled":"727","EstimatedPopulation":"1414","TotalWages":"21576211"},
{"Zipcode":"38961","ZipCodeType":"STANDARD","City":"TILLATOBA","State":"MS","LocationType":"PRIMARY","Lat":"33.98","Long":"-89.89","Location":"NA-US-MS-TILLATOBA","Decommisioned":"false","TaxReturnsFiled":"389","EstimatedPopulation":"712","TotalWages":"9569238"},
{"Zipcode":"39173","ZipCodeType":"STANDARD","City":"TINSLEY","State":"MS","LocationType":"PRIMARY","Lat":"32.77","Long":"-90.43","Location":"NA-US-MS-TINSLEY","Decommisioned":"false","TaxReturnsFiled":"null","EstimatedPopulation":"null","TotalWages":"null"},
{"Zipcode":"38674","ZipCodeType":"STANDARD","City":"TIPLERSVILLE","State":"MS","LocationType":"PRIMARY","Lat":"34.9","Long":"-88.92","Location":"NA-US-MS-TIPLERSVILLE","Decommisioned":"false","TaxReturnsFiled":"389","EstimatedPopulation":"741","TotalWages":"10667663"},
{"Zipcode":"38962","ZipCodeType":"PO BOX","City":"TIPPO","State":"MS","LocationType":"PRIMARY","Lat":"33.91","Long":"-90.1","Location":"NA-US-MS-TIPPO","Decommisioned":"false","TaxReturnsFiled":"null","EstimatedPopulation":"null","TotalWages":"null"},
{"Zipcode":"38873","ZipCodeType":"STANDARD","City":"TISHOMINGO","State":"MS","LocationType":"PRIMARY","Lat":"34.63","Long":"-88.22","Location":"NA-US-MS-TISHOMINGO","Decommisioned":"false","TaxReturnsFiled":"1133","EstimatedPopulation":"2166","TotalWages":"31327902"},
{"Zipcode":"38874","ZipCodeType":"PO BOX","City":"TOCCOPOLA","State":"MS","LocationType":"PRIMARY","Lat":"34.25","Long":"-89.23","Location":"NA-US-MS-TOCCOPOLA","Decommisioned":"false","TaxReturnsFiled":"null","EstimatedPopulation":"null","TotalWages":"null"},
{"Zipcode":"39364","ZipCodeType":"STANDARD","City":"TOOMSUBA","State":"MS","LocationType":"PRIMARY","Lat":"32.43","Long":"-88.46","Location":"NA-US-MS-TOOMSUBA","Decommisioned":"false","TaxReturnsFiled":"1270","EstimatedPopulation":"2351","TotalWages":"35537508"},
{"Zipcode":"39174","ZipCodeType":"PO BOX","City":"TOUGALOO","State":"MS","LocationType":"PRIMARY","Lat":"32.39","Long":"-90.15","Location":"NA-US-MS-TOUGALOO","Decommisioned":"false","TaxReturnsFiled":"339","EstimatedPopulation":"546","TotalWages":"7694981"},
{"Zipcode":"38875","ZipCodeType":"PO BOX","City":"TREBLOC","State":"MS","LocationType":"PRIMARY","Lat":"33.83","Long":"-88.85","Location":"NA-US-MS-TREBLOC","Decommisioned":"false","TaxReturnsFiled":"null","EstimatedPopulation":"null","TotalWages":"null"},
{"Zipcode":"38876","ZipCodeType":"STANDARD","City":"TREMONT","State":"MS","LocationType":"PRIMARY","Lat":"34.23","Long":"-88.24","Location":"NA-US-MS-TREMONT","Decommisioned":"false","TaxReturnsFiled":"495","EstimatedPopulation":"944","TotalWages":"13931324"},
{"Zipcode":"38676","ZipCodeType":"STANDARD","City":"TUNICA","State":"MS","LocationType":"PRIMARY","Lat":"34.68","Long":"-90.38","Location":"NA-US-MS-TUNICA","Decommisioned":"false","TaxReturnsFiled":"3058","EstimatedPopulation":"5443","TotalWages":"68668034"},
{"Zipcode":"38801","ZipCodeType":"STANDARD","City":"TUPELO","State":"MS","LocationType":"PRIMARY","Lat":"34.26","Long":"-88.73","Location":"NA-US-MS-TUPELO","Decommisioned":"false","TaxReturnsFiled":"11578","EstimatedPopulation":"20894","TotalWages":"394837875"},
{"Zipcode":"38802","ZipCodeType":"PO BOX","City":"TUPELO","State":"MS","LocationType":"PRIMARY","Lat":"34.26","Long":"-88.73","Location":"NA-US-MS-TUPELO","Decommisioned":"false","TaxReturnsFiled":"584","EstimatedPopulation":"994","TotalWages":"21132713"},
{"Zipcode":"38803","ZipCodeType":"PO BOX","City":"TUPELO","State":"MS","LocationType":"PRIMARY","Lat":"34.26","Long":"-88.73","Location":"NA-US-MS-TUPELO","Decommisioned":"false","TaxReturnsFiled":"703","EstimatedPopulation":"1234","TotalWages":"21317058"},
{"Zipcode":"38804","ZipCodeType":"STANDARD","City":"TUPELO","State":"MS","LocationType":"PRIMARY","Lat":"34.26","Long":"-88.73","Location":"NA-US-MS-TUPELO","Decommisioned":"false","TaxReturnsFiled":"6760","EstimatedPopulation":"12150","TotalWages":"250632836"},
{"Zipcode":"38963","ZipCodeType":"STANDARD","City":"TUTWILER","State":"MS","LocationType":"PRIMARY","Lat":"34.01","Long":"-90.42","Location":"NA-US-MS-TUTWILER","Decommisioned":"false","TaxReturnsFiled":"626","EstimatedPopulation":"1167","TotalWages":"12813083"},
{"Zipcode":"39667","ZipCodeType":"STANDARD","City":"TYLERTOWN","State":"MS","LocationType":"PRIMARY","Lat":"31.11","Long":"-90.14","Location":"NA-US-MS-TYLERTOWN","Decommisioned":"false","TaxReturnsFiled":"4995","EstimatedPopulation":"9415","TotalWages":"132768382"},
{"Zipcode":"39365","ZipCodeType":"STANDARD","City":"UNION","State":"MS","LocationType":"PRIMARY","Lat":"32.57","Long":"-89.11","Location":"NA-US-MS-UNION","Decommisioned":"false","TaxReturnsFiled":"2929","EstimatedPopulation":"5667","TotalWages":"88431960"},
{"Zipcode":"39668","ZipCodeType":"STANDARD","City":"UNION CHURCH","State":"MS","LocationType":"PRIMARY","Lat":"31.7","Long":"-90.82","Location":"NA-US-MS-UNION CHURCH","Decommisioned":"false","TaxReturnsFiled":"271","EstimatedPopulation":"514","TotalWages":"8019876"},
{"Zipcode":"38677","ZipCodeType":"PO BOX","City":"UNIVERSITY","State":"MS","LocationType":"PRIMARY","Lat":"34.36","Long":"-89.59","Location":"NA-US-MS-UNIVERSITY","Decommisioned":"false","TaxReturnsFiled":"553","EstimatedPopulation":"801","TotalWages":"15081270"},
{"Zipcode":"39175","ZipCodeType":"STANDARD","City":"UTICA","State":"MS","LocationType":"PRIMARY","Lat":"32.1","Long":"-90.62","Location":"NA-US-MS-UTICA","Decommisioned":"false","TaxReturnsFiled":"2196","EstimatedPopulation":"3952","TotalWages":"58627262"},
{"Zipcode":"39176","ZipCodeType":"STANDARD","City":"VAIDEN","State":"MS","LocationType":"PRIMARY","Lat":"33.33","Long":"-89.75","Location":"NA-US-MS-VAIDEN","Decommisioned":"false","TaxReturnsFiled":"820","EstimatedPopulation":"1530","TotalWages":"21377104"},
{"Zipcode":"39177","ZipCodeType":"PO BOX","City":"VALLEY PARK","State":"MS","LocationType":"PRIMARY","Lat":"32.57","Long":"-90.86","Location":"NA-US-MS-VALLEY PARK","Decommisioned":"false","TaxReturnsFiled":"null","EstimatedPopulation":"null","TotalWages":"null"},
{"Zipcode":"38964","ZipCodeType":"STANDARD","City":"VANCE","State":"MS","LocationType":"PRIMARY","Lat":"34.08","Long":"-90.3","Location":"NA-US-MS-VANCE","Decommisioned":"false","TaxReturnsFiled":"null","EstimatedPopulation":"null","TotalWages":"null"},
{"Zipcode":"38877","ZipCodeType":"PO BOX","City":"VAN VLEET","State":"MS","LocationType":"PRIMARY","Lat":"33.97","Long":"-88.91","Location":"NA-US-MS-VAN VLEET","Decommisioned":"false","TaxReturnsFiled":"null","EstimatedPopulation":"null","TotalWages":"null"},
{"Zipcode":"38878","ZipCodeType":"STANDARD","City":"VARDAMAN","State":"MS","LocationType":"PRIMARY","Lat":"33.88","Long":"-89.17","Location":"NA-US-MS-VARDAMAN","Decommisioned":"false","TaxReturnsFiled":"1059","EstimatedPopulation":"2020","TotalWages":"24036587"},
{"Zipcode":"38879","ZipCodeType":"PO BOX","City":"VERONA","State":"MS","LocationType":"PRIMARY","Lat":"34.19","Long":"-88.71","Location":"NA-US-MS-VERONA","Decommisioned":"false","TaxReturnsFiled":"1240","EstimatedPopulation":"2214","TotalWages":"23441025"},
{"Zipcode":"39180","ZipCodeType":"STANDARD","City":"VICKSBURG","State":"MS","LocationType":"PRIMARY","Lat":"32.32","Long":"-90.87","Location":"NA-US-MS-VICKSBURG","Decommisioned":"false","TaxReturnsFiled":"14256","EstimatedPopulation":"25610","TotalWages":"473135481"},
{"Zipcode":"39181","ZipCodeType":"PO BOX","City":"VICKSBURG","State":"MS","LocationType":"PRIMARY","Lat":"32.32","Long":"-90.87","Location":"NA-US-MS-VICKSBURG","Decommisioned":"false","TaxReturnsFiled":"null","EstimatedPopulation":"null","TotalWages":"null"},
{"Zipcode":"39182","ZipCodeType":"PO BOX","City":"VICKSBURG","State":"MS","LocationType":"PRIMARY","Lat":"32.32","Long":"-90.87","Location":"NA-US-MS-VICKSBURG","Decommisioned":"false","TaxReturnsFiled":"667","EstimatedPopulation":"1117","TotalWages":"23185241"},
{"Zipcode":"39183","ZipCodeType":"STANDARD","City":"VICKSBURG","State":"MS","LocationType":"PRIMARY","Lat":"32.32","Long":"-90.87","Location":"NA-US-MS-VICKSBURG","Decommisioned":"false","TaxReturnsFiled":"6609","EstimatedPopulation":"12027","TotalWages":"231751023"},
{"Zipcode":"38679","ZipCodeType":"PO BOX","City":"VICTORIA","State":"MS","LocationType":"PRIMARY","Lat":"34.83","Long":"-89.59","Location":"NA-US-MS-VICTORIA","Decommisioned":"false","TaxReturnsFiled":"null","EstimatedPopulation":"null","TotalWages":"null"},
{"Zipcode":"39366","ZipCodeType":"STANDARD","City":"VOSSBURG","State":"MS","LocationType":"PRIMARY","Lat":"31.98","Long":"-88.96","Location":"NA-US-MS-VOSSBURG","Decommisioned":"false","TaxReturnsFiled":"605","EstimatedPopulation":"1094","TotalWages":"14026732"},
{"Zipcode":"38680","ZipCodeType":"STANDARD","City":"WALLS","State":"MS","LocationType":"PRIMARY","Lat":"34.95","Long":"-90.13","Location":"NA-US-MS-WALLS","Decommisioned":"false","TaxReturnsFiled":"2663","EstimatedPopulation":"4919","TotalWages":"91165658"},
{"Zipcode":"38686","ZipCodeType":"UNIQUE","City":"WALLS","State":"MS","LocationType":"PRIMARY","Lat":"34.95","Long":"-90.13","Location":"NA-US-MS-WALLS","Decommisioned":"false","TaxReturnsFiled":"null","EstimatedPopulation":"null","TotalWages":"null"},
{"Zipcode":"38683","ZipCodeType":"STANDARD","City":"WALNUT","State":"MS","LocationType":"PRIMARY","Lat":"34.94","Long":"-88.9","Location":"NA-US-MS-WALNUT","Decommisioned":"false","TaxReturnsFiled":"1826","EstimatedPopulation":"3593","TotalWages":"48406320"},
{"Zipcode":"39189","ZipCodeType":"STANDARD","City":"WALNUT GROVE","State":"MS","LocationType":"PRIMARY","Lat":"32.59","Long":"-89.45","Location":"NA-US-MS-WALNUT GROVE","Decommisioned":"false","TaxReturnsFiled":"1416","EstimatedPopulation":"2605","TotalWages":"36086377"},
{"Zipcode":"39771","ZipCodeType":"STANDARD","City":"WALTHALL","State":"MS","LocationType":"PRIMARY","Lat":"33.6","Long":"-89.27","Location":"NA-US-MS-WALTHALL","Decommisioned":"false","TaxReturnsFiled":"null","EstimatedPopulation":"null","TotalWages":"null"},
{"Zipcode":"39190","ZipCodeType":"PO BOX","City":"WASHINGTON","State":"MS","LocationType":"PRIMARY","Lat":"31.56","Long":"-91.26","Location":"NA-US-MS-WASHINGTON","Decommisioned":"false","TaxReturnsFiled":"364","EstimatedPopulation":"668","TotalWages":"9222001"},
{"Zipcode":"38685","ZipCodeType":"STANDARD","City":"WATERFORD","State":"MS","LocationType":"PRIMARY","Lat":"34.63","Long":"-89.46","Location":"NA-US-MS-WATERFORD","Decommisioned":"false","TaxReturnsFiled":"545","EstimatedPopulation":"992","TotalWages":"15012257"},
{"Zipcode":"38965","ZipCodeType":"STANDARD","City":"WATER VALLEY","State":"MS","LocationType":"PRIMARY","Lat":"34.16","Long":"-89.63","Location":"NA-US-MS-WATER VALLEY","Decommisioned":"false","TaxReturnsFiled":"3675","EstimatedPopulation":"6726","TotalWages":"96744434"},
{"Zipcode":"39367","ZipCodeType":"STANDARD","City":"WAYNESBORO","State":"MS","LocationType":"PRIMARY","Lat":"31.67","Long":"-88.64","Location":"NA-US-MS-WAYNESBORO","Decommisioned":"false","TaxReturnsFiled":"6141","EstimatedPopulation":"11551","TotalWages":"186026414"},
{"Zipcode":"38780","ZipCodeType":"PO BOX","City":"WAYSIDE","State":"MS","LocationType":"PRIMARY","Lat":"33.26","Long":"-91.02","Location":"NA-US-MS-WAYSIDE","Decommisioned":"false","TaxReturnsFiled":"null","EstimatedPopulation":"null","TotalWages":"null"},
{"Zipcode":"38966","ZipCodeType":"STANDARD","City":"WEBB","State":"MS","LocationType":"PRIMARY","Lat":"33.94","Long":"-90.34","Location":"NA-US-MS-WEBB","Decommisioned":"false","TaxReturnsFiled":"505","EstimatedPopulation":"926","TotalWages":"9022464"},
{"Zipcode":"39772","ZipCodeType":"STANDARD","City":"WEIR","State":"MS","LocationType":"PRIMARY","Lat":"33.26","Long":"-89.28","Location":"NA-US-MS-WEIR","Decommisioned":"false","TaxReturnsFiled":"731","EstimatedPopulation":"1351","TotalWages":"16113681"},
{"Zipcode":"39191","ZipCodeType":"STANDARD","City":"WESSON","State":"MS","LocationType":"PRIMARY","Lat":"31.7","Long":"-90.39","Location":"NA-US-MS-WESSON","Decommisioned":"false","TaxReturnsFiled":"3116","EstimatedPopulation":"6048","TotalWages":"101618701"},
{"Zipcode":"39192","ZipCodeType":"STANDARD","City":"WEST","State":"MS","LocationType":"PRIMARY","Lat":"33.19","Long":"-89.78","Location":"NA-US-MS-WEST","Decommisioned":"false","TaxReturnsFiled":"681","EstimatedPopulation":"1261","TotalWages":"18292365"},
{"Zipcode":"39754","ZipCodeType":"PO BOX","City":"MONTPELIER","State":"MS","LocationType":"PRIMARY","Lat":"33.71","Long":"-88.94","Location":"NA-US-MS-MONTPELIER","Decommisioned":"false","TaxReturnsFiled":"null","EstimatedPopulation":"null","TotalWages":"null"},
{"Zipcode":"39773","ZipCodeType":"STANDARD","City":"WEST POINT","State":"MS","LocationType":"PRIMARY","Lat":"33.6","Long":"-88.64","Location":"NA-US-MS-WEST POINT","Decommisioned":"false","TaxReturnsFiled":"6931","EstimatedPopulation":"12412","TotalWages":"184837229"},
{"Zipcode":"38880","ZipCodeType":"PO BOX","City":"WHEELER","State":"MS","LocationType":"PRIMARY","Lat":"34.58","Long":"-88.6","Location":"NA-US-MS-WHEELER","Decommisioned":"false","TaxReturnsFiled":"null","EstimatedPopulation":"null","TotalWages":"null"},
{"Zipcode":"39577","ZipCodeType":"STANDARD","City":"WIGGINS","State":"MS","LocationType":"PRIMARY","Lat":"30.86","Long":"-89.13","Location":"NA-US-MS-WIGGINS","Decommisioned":"false","TaxReturnsFiled":"4031","EstimatedPopulation":"7450","TotalWages":"114411183"},
{"Zipcode":"38967","ZipCodeType":"STANDARD","City":"WINONA","State":"MS","LocationType":"PRIMARY","Lat":"33.48","Long":"-89.72","Location":"NA-US-MS-WINONA","Decommisioned":"false","TaxReturnsFiled":"3072","EstimatedPopulation":"5619","TotalWages":"78027863"},
{"Zipcode":"38781","ZipCodeType":"PO BOX","City":"WINSTONVILLE","State":"MS","LocationType":"PRIMARY","Lat":"33.91","Long":"-90.75","Location":"NA-US-MS-WINSTONVILLE","Decommisioned":"false","TaxReturnsFiled":"null","EstimatedPopulation":"null","TotalWages":"null"},
{"Zipcode":"39776","ZipCodeType":"STANDARD","City":"WOODLAND","State":"MS","LocationType":"PRIMARY","Lat":"33.78","Long":"-89.05","Location":"NA-US-MS-WOODLAND","Decommisioned":"false","TaxReturnsFiled":"723","EstimatedPopulation":"1325","TotalWages":"16939245"},
{"Zipcode":"39669","ZipCodeType":"STANDARD","City":"WOODVILLE","State":"MS","LocationType":"PRIMARY","Lat":"31.1","Long":"-91.29","Location":"NA-US-MS-WOODVILLE","Decommisioned":"false","TaxReturnsFiled":"2243","EstimatedPopulation":"4031","TotalWages":"59498550"},
{"Zipcode":"39194","ZipCodeType":"STANDARD","City":"YAZOO CITY","State":"MS","LocationType":"PRIMARY","Lat":"32.86","Long":"-90.4","Location":"NA-US-MS-YAZOO CITY","Decommisioned":"false","TaxReturnsFiled":"6571","EstimatedPopulation":"12017","TotalWages":"160767569"}]
