[
{"Zipcode":"38601","Lat":34.492325,"Long": -89.443056},
{"Zipcode":"38603","Lat":34.848410,"Long": -89.142260},
{"Zipcode":"38606","Lat":34.303262,"Long": -89.952316},
{"Zipcode":"38610","Lat":34.651787,"Long": -89.025549},
{"Zipcode":"38611","Lat":34.856233,"Long": -89.676020},
{"Zipcode":"38614","Lat":34.157044,"Long": -90.597737},
{"Zipcode":"38617","Lat":34.351492,"Long": -90.522013},
{"Zipcode":"38618","Lat":34.716284,"Long": -89.937850},
{"Zipcode":"38619","Lat":34.518142,"Long": -89.835541},
{"Zipcode":"38620","Lat":34.230138,"Long": -89.902510},
{"Zipcode":"38621","Lat":34.447192,"Long": -90.170459},
{"Zipcode":"38622","Lat":34.171912,"Long": -90.138492},
{"Zipcode":"38623","Lat":34.367662,"Long": -90.282849},
{"Zipcode":"38625","Lat":34.612136,"Long": -88.826435},
{"Zipcode":"38626","Lat":34.517362,"Long": -90.414527},
{"Zipcode":"38627","Lat":34.417830,"Long": -89.207944},
{"Zipcode":"38629","Lat":34.862808,"Long": -89.009788},
{"Zipcode":"38630","Lat":34.278839,"Long": -90.685609},
{"Zipcode":"38631","Lat":34.360976,"Long": -90.619981},
{"Zipcode":"38632","Lat":34.795914,"Long": -90.015068},
{"Zipcode":"38633","Lat":34.647337,"Long": -89.194971},
{"Zipcode":"38635","Lat":34.766909,"Long": -89.486327},
{"Zipcode":"38637","Lat":34.952081,"Long": -90.049209},
{"Zipcode":"38639","Lat":34.303108,"Long": -90.432003},
{"Zipcode":"38641","Lat":34.911876,"Long": -90.191356},
{"Zipcode":"38642","Lat":34.928904,"Long": -89.334667},
{"Zipcode":"38643","Lat":34.148487,"Long": -90.260865},
{"Zipcode":"38644","Lat":34.460809,"Long": -90.493530},
{"Zipcode":"38645","Lat":34.247849,"Long": -90.476420},
{"Zipcode":"38646","Lat":34.289637,"Long": -90.314386},
{"Zipcode":"38647","Lat":34.963506,"Long": -89.224108},
{"Zipcode":"38650","Lat":34.528102,"Long": -89.145451},
{"Zipcode":"38651","Lat":34.893390,"Long": -90.002204},
{"Zipcode":"38652","Lat":34.483075,"Long": -88.996667},
{"Zipcode":"38654","Lat":34.933929,"Long": -89.816280},
{"Zipcode":"38655","Lat":34.333217,"Long": -89.473309},
{"Zipcode":"38658","Lat":34.188345,"Long": -89.901020},
{"Zipcode":"38659","Lat":34.621505,"Long": -89.331511},
{"Zipcode":"38661","Lat":34.896991,"Long": -89.561056},
{"Zipcode":"38663","Lat":34.734051,"Long": -88.882216},
{"Zipcode":"38664","Lat":34.811462,"Long": -90.329253},
{"Zipcode":"38665","Lat":34.583273,"Long": -90.166012},
{"Zipcode":"38666","Lat":34.425884,"Long": -89.920273},
{"Zipcode":"38668","Lat":34.590668,"Long": -89.917818},
{"Zipcode":"38670","Lat":34.416895,"Long": -90.288714},
{"Zipcode":"38671","Lat":34.966282,"Long": -89.998152},
{"Zipcode":"38672","Lat":34.911400,"Long": -89.927894},
{"Zipcode":"38673","Lat":34.293443,"Long": -89.635806},
{"Zipcode":"38674","Lat":34.868370,"Long": -88.892398},
{"Zipcode":"38676","Lat":34.666450,"Long": -90.383731},
{"Zipcode":"38677","Lat":34.365411,"Long": -89.537180},
{"Zipcode":"38680","Lat":34.951674,"Long": -90.146147},
{"Zipcode":"38683","Lat":34.934910,"Long": -88.867314},
{"Zipcode":"38685","Lat":34.593050,"Long": -89.488478},
{"Zipcode":"38701","Lat":33.310738,"Long": -91.044262},
{"Zipcode":"38702","Lat":33.535666,"Long": -91.180051},
{"Zipcode":"38703","Lat":33.475662,"Long": -91.052834},
{"Zipcode":"38704","Lat":33.007175,"Long": -91.021252},
{"Zipcode":"38720","Lat":34.108397,"Long": -90.788009},
{"Zipcode":"38721","Lat":32.989634,"Long": -90.746359},
{"Zipcode":"38722","Lat":33.260304,"Long": -90.883939},
{"Zipcode":"38723","Lat":33.229662,"Long": -91.038367},
{"Zipcode":"38725","Lat":33.648757,"Long": -91.030947},
{"Zipcode":"38726","Lat":33.755796,"Long": -90.988708},
{"Zipcode":"38730","Lat":33.682859,"Long": -90.790778},
{"Zipcode":"38731","Lat":33.066600,"Long": -91.046742},
{"Zipcode":"38732","Lat":33.758855,"Long": -90.725595},
{"Zipcode":"38736","Lat":33.642790,"Long": -90.537368},
{"Zipcode":"38737","Lat":33.863521,"Long": -90.524172},
{"Zipcode":"38738","Lat":33.945099,"Long": -90.533141},
{"Zipcode":"38740","Lat":34.057678,"Long": -90.798760},
{"Zipcode":"38744","Lat":33.014154,"Long": -91.037148},
{"Zipcode":"38745","Lat":32.972278,"Long": -90.992816},
{"Zipcode":"38746","Lat":33.961973,"Long": -90.909267},
{"Zipcode":"38748","Lat":33.151196,"Long": -90.902048},
{"Zipcode":"38749","Lat":33.447423,"Long": -90.752367},
{"Zipcode":"38751","Lat":33.445530,"Long": -90.686995},
{"Zipcode":"38753","Lat":33.347339,"Long": -90.576284},
{"Zipcode":"38754","Lat":33.249944,"Long": -90.622535},
{"Zipcode":"38756","Lat":33.389797,"Long": -90.860225},
{"Zipcode":"38759","Lat":33.825158,"Long": -90.730327},
{"Zipcode":"38760","Lat":33.458034,"Long": -90.989273},
{"Zipcode":"38761","Lat":33.430152,"Long": -90.484464},
{"Zipcode":"38762","Lat":33.895940,"Long": -90.716631},
{"Zipcode":"38764","Lat":33.780114,"Long": -90.866202},
{"Zipcode":"38765","Lat":33.069113,"Long": -90.874611},
{"Zipcode":"38767","Lat":34.140502,"Long": -90.784721},
{"Zipcode":"38768","Lat":33.975737,"Long": -90.499770},
{"Zipcode":"38769","Lat":33.864775,"Long": -90.985297},
{"Zipcode":"38771","Lat":33.739965,"Long": -90.528989},
{"Zipcode":"38772","Lat":33.559244,"Long": -91.052351},
{"Zipcode":"38773","Lat":33.607259,"Long": -90.776876},
{"Zipcode":"38774","Lat":33.960037,"Long": -90.762860},
{"Zipcode":"38778","Lat":33.547117,"Long": -90.531332},
{"Zipcode":"38781","Lat":33.908553,"Long": -90.756588},
{"Zipcode":"38801","Lat":34.222629,"Long": -88.774588},
{"Zipcode":"38804","Lat":34.281378,"Long": -88.672873},
{"Zipcode":"38821","Lat":33.977521,"Long": -88.436749},
{"Zipcode":"38824","Lat":34.520784,"Long": -88.643025},
{"Zipcode":"38826","Lat":34.301247,"Long": -88.841482},
{"Zipcode":"38827","Lat":34.516910,"Long": -88.177452},
{"Zipcode":"38828","Lat":34.429858,"Long": -88.869190},
{"Zipcode":"38829","Lat":34.650609,"Long": -88.527209},
{"Zipcode":"38833","Lat":34.918147,"Long": -88.319035},
{"Zipcode":"38834","Lat":34.917111,"Long": -88.571777},
{"Zipcode":"38838","Lat":34.546433,"Long": -88.255741},
{"Zipcode":"38841","Lat":34.352581,"Long": -89.015298},
{"Zipcode":"38843","Lat":34.262054,"Long": -88.376344},
{"Zipcode":"38844","Lat":33.838614,"Long": -88.255262},
{"Zipcode":"38846","Lat":34.851720,"Long": -88.385389},
{"Zipcode":"38847","Lat":34.412540,"Long": -88.232960},
{"Zipcode":"38848","Lat":33.937645,"Long": -88.271066},
{"Zipcode":"38849","Lat":34.460959,"Long": -88.696052},
{"Zipcode":"38850","Lat":34.058891,"Long": -89.057937},
{"Zipcode":"38851","Lat":33.910500,"Long": -88.968194},
{"Zipcode":"38852","Lat":34.843688,"Long": -88.213248},
{"Zipcode":"38855","Lat":34.323342,"Long": -88.485408},
{"Zipcode":"38856","Lat":34.467115,"Long": -88.455149},
{"Zipcode":"38857","Lat":34.281521,"Long": -88.574989},
{"Zipcode":"38858","Lat":34.099952,"Long": -88.549476},
{"Zipcode":"38859","Lat":34.514877,"Long": -88.375117},
{"Zipcode":"38860","Lat":33.971749,"Long": -88.761409},
{"Zipcode":"38862","Lat":34.168139,"Long": -88.623239},
{"Zipcode":"38863","Lat":34.217915,"Long": -89.019053},
{"Zipcode":"38864","Lat":34.157283,"Long": -89.207666},
{"Zipcode":"38865","Lat":34.788031,"Long": -88.595406},
{"Zipcode":"38866","Lat":34.367620,"Long": -88.680078},
{"Zipcode":"38868","Lat":34.123549,"Long": -88.762644},
{"Zipcode":"38869","Lat":34.357456,"Long": -88.835132},
{"Zipcode":"38870","Lat":34.067434,"Long": -88.336282},
{"Zipcode":"38871","Lat":34.381713,"Long": -89.247255},
{"Zipcode":"38873","Lat":34.659698,"Long": -88.242903},
{"Zipcode":"38876","Lat":34.213590,"Long": -88.230292},
{"Zipcode":"38878","Lat":33.904511,"Long": -89.187449},
{"Zipcode":"38879","Lat":34.184616,"Long": -88.718163},
{"Zipcode":"38901","Lat":33.762528,"Long": -89.802915},
{"Zipcode":"38913","Lat":34.138881,"Long": -89.384872},
{"Zipcode":"38914","Lat":33.846213,"Long": -89.416592},
{"Zipcode":"38915","Lat":34.037640,"Long": -89.388855},
{"Zipcode":"38916","Lat":33.816534,"Long": -89.352740},
{"Zipcode":"38917","Lat":33.557840,"Long": -90.008168},
{"Zipcode":"38920","Lat":33.910061,"Long": -89.995338},
{"Zipcode":"38921","Lat":33.982154,"Long": -90.144181},
{"Zipcode":"38922","Lat":33.932695,"Long": -89.649202},
{"Zipcode":"38923","Lat":33.388567,"Long": -89.988589},
{"Zipcode":"38924","Lat":33.291490,"Long": -90.224611},
{"Zipcode":"38925","Lat":33.626030,"Long": -89.634279},
{"Zipcode":"38927","Lat":34.142879,"Long": -90.026843},
{"Zipcode":"38928","Lat":33.869471,"Long": -90.291749},
{"Zipcode":"38929","Lat":33.739460,"Long": -89.531313},
{"Zipcode":"38930","Lat":33.538034,"Long": -90.154409},
{"Zipcode":"38940","Lat":33.744195,"Long": -90.056814},
{"Zipcode":"38941","Lat":33.484573,"Long": -90.358231},
{"Zipcode":"38943","Lat":33.539901,"Long": -89.845569},
{"Zipcode":"38944","Lat":33.765008,"Long": -90.341539},
{"Zipcode":"38945","Lat":33.600948,"Long": -90.168029},
{"Zipcode":"38946","Lat":33.364004,"Long": -90.378549},
{"Zipcode":"38947","Lat":33.533842,"Long": -89.898549},
{"Zipcode":"38948","Lat":34.067711,"Long": -89.882122},
{"Zipcode":"38949","Lat":34.191573,"Long": -89.425419},
{"Zipcode":"38950","Lat":33.733058,"Long": -90.200045},
{"Zipcode":"38951","Lat":33.973783,"Long": -89.290490},
{"Zipcode":"38952","Lat":33.628122,"Long": -90.344867},
{"Zipcode":"38953","Lat":33.930672,"Long": -89.933405},
{"Zipcode":"38954","Lat":33.415410,"Long": -90.212157},
{"Zipcode":"38957","Lat":33.991776,"Long": -90.350322},
{"Zipcode":"38958","Lat":33.303673,"Long": -90.428149},
{"Zipcode":"38961","Lat":33.954527,"Long": -89.914974},
{"Zipcode":"38962","Lat":33.871721,"Long": -90.185145},
{"Zipcode":"38963","Lat":34.024854,"Long": -90.393065},
{"Zipcode":"38964","Lat":34.099060,"Long": -90.398491},
{"Zipcode":"38965","Lat":34.135546,"Long": -89.601746},
{"Zipcode":"38966","Lat":33.947038,"Long": -90.319159},
{"Zipcode":"38967","Lat":33.457399,"Long": -89.732453},
{"Zipcode":"39038","Lat":33.186060,"Long": -90.484577},
{"Zipcode":"39039","Lat":32.816550,"Long": -90.217495},
{"Zipcode":"39040","Lat":32.629706,"Long": -90.417476},
{"Zipcode":"39041","Lat":32.404803,"Long": -90.468865},
{"Zipcode":"39042","Lat":32.197548,"Long": -89.895006},
{"Zipcode":"39044","Lat":32.029303,"Long": -89.974668},
{"Zipcode":"39045","Lat":32.819535,"Long": -89.784552},
{"Zipcode":"39046","Lat":32.632163,"Long": -89.983933},
{"Zipcode":"39047","Lat":32.421115,"Long": -89.945501},
{"Zipcode":"39051","Lat":32.778076,"Long": -89.490169},
{"Zipcode":"39054","Lat":32.774344,"Long": -90.939277},
{"Zipcode":"39056","Lat":32.373751,"Long": -90.350864},
{"Zipcode":"39057","Lat":32.490854,"Long": -89.284427},
{"Zipcode":"39059","Lat":31.982459,"Long": -90.355783},
{"Zipcode":"39061","Lat":33.086397,"Long": -90.820582},
{"Zipcode":"39062","Lat":31.985095,"Long": -89.898309},
{"Zipcode":"39063","Lat":33.116674,"Long": -89.897489},
{"Zipcode":"39066","Lat":32.296627,"Long": -90.606153},
{"Zipcode":"39067","Lat":33.110083,"Long": -89.443782},
{"Zipcode":"39069","Lat":31.686160,"Long": -91.043249},
{"Zipcode":"39071","Lat":32.556371,"Long": -90.318383},
{"Zipcode":"39073","Lat":32.102431,"Long": -90.135817},
{"Zipcode":"39074","Lat":32.393704,"Long": -89.478007},
{"Zipcode":"39078","Lat":31.878048,"Long": -90.188204},
{"Zipcode":"39079","Lat":32.935327,"Long": -89.898550},
{"Zipcode":"39082","Lat":31.941844,"Long": -90.120075},
{"Zipcode":"39083","Lat":31.844615,"Long": -90.477306},
{"Zipcode":"39086","Lat":31.949428,"Long": -90.766630},
{"Zipcode":"39088","Lat":32.754644,"Long": -90.703709},
{"Zipcode":"39090","Lat":33.002016,"Long": -89.543898},
{"Zipcode":"39092","Lat":32.319548,"Long": -89.362401},
{"Zipcode":"39094","Lat":32.586250,"Long": -89.663156},
{"Zipcode":"39095","Lat":33.129605,"Long": -90.087121},
{"Zipcode":"39096","Lat":31.817636,"Long": -91.120698},
{"Zipcode":"39097","Lat":32.989067,"Long": -90.607666},
{"Zipcode":"39108","Lat":33.149349,"Long": -89.338532},
{"Zipcode":"39110","Lat":32.504199,"Long": -90.147242},
{"Zipcode":"39111","Lat":31.896635,"Long": -89.718092},
{"Zipcode":"39113","Lat":32.913834,"Long": -91.017222},
{"Zipcode":"39114","Lat":31.951836,"Long": -89.824587},
{"Zipcode":"39115","Lat":33.044863,"Long": -90.566898},
{"Zipcode":"39116","Lat":31.896441,"Long": -89.538254},
{"Zipcode":"39117","Lat":32.296241,"Long": -89.656952},
{"Zipcode":"39119","Lat":31.751549,"Long": -89.670777},
{"Zipcode":"39120","Lat":31.508632,"Long": -91.358538},
{"Zipcode":"39140","Lat":31.749259,"Long": -90.020236},
{"Zipcode":"39144","Lat":31.821262,"Long": -90.792159},
{"Zipcode":"39145","Lat":32.344663,"Long": -89.794359},
{"Zipcode":"39146","Lat":32.875897,"Long": -89.994910},
{"Zipcode":"39149","Lat":31.831965,"Long": -90.010649},
{"Zipcode":"39150","Lat":32.004742,"Long": -90.976048},
{"Zipcode":"39152","Lat":32.207475,"Long": -89.585474},
{"Zipcode":"39153","Lat":32.045133,"Long": -89.490046},
{"Zipcode":"39154","Lat":32.225111,"Long": -90.444671},
{"Zipcode":"39156","Lat":32.547816,"Long": -90.776742},
{"Zipcode":"39157","Lat":32.425874,"Long": -90.169852},
{"Zipcode":"39159","Lat":32.826566,"Long": -90.935377},
{"Zipcode":"39160","Lat":32.992412,"Long": -89.764800},
{"Zipcode":"39162","Lat":32.618790,"Long": -90.624439},
{"Zipcode":"39166","Lat":33.040820,"Long": -90.481639},
{"Zipcode":"39167","Lat":32.094163,"Long": -90.041201},
{"Zipcode":"39168","Lat":31.831878,"Long": -89.411823},
{"Zipcode":"39169","Lat":33.215516,"Long": -90.245118},
{"Zipcode":"39170","Lat":32.111772,"Long": -90.330654},
{"Zipcode":"39174","Lat":32.401478,"Long": -90.159514},
{"Zipcode":"39175","Lat":32.090718,"Long": -90.631235},
{"Zipcode":"39176","Lat":33.306079,"Long": -89.768327},
{"Zipcode":"39177","Lat":32.623273,"Long": -90.800274},
{"Zipcode":"39179","Lat":32.802440,"Long": -90.096935},
{"Zipcode":"39180","Lat":32.224042,"Long": -90.857132},
{"Zipcode":"39183","Lat":32.447078,"Long": -90.806610},
{"Zipcode":"39189","Lat":32.608003,"Long": -89.400149},
{"Zipcode":"39191","Lat":31.711309,"Long": -90.424334},
{"Zipcode":"39192","Lat":33.183639,"Long": -89.762234},
{"Zipcode":"39193","Lat":32.234475,"Long": -90.079333},
{"Zipcode":"39194","Lat":32.845243,"Long": -90.520794},
{"Zipcode":"39201","Lat":32.289606,"Long": -90.184324},
{"Zipcode":"39202","Lat":32.311113,"Long": -90.170982},
{"Zipcode":"39203","Lat":32.308883,"Long": -90.200338},
{"Zipcode":"39204","Lat":32.279311,"Long": -90.206334},
{"Zipcode":"39206","Lat":32.372402,"Long": -90.172455},
{"Zipcode":"39208","Lat":32.259775,"Long": -90.091940},
{"Zipcode":"39209","Lat":32.395522,"Long": -90.293193},
{"Zipcode":"39211","Lat":32.372134,"Long": -90.122605},
{"Zipcode":"39212","Lat":32.243261,"Long": -90.280351},
{"Zipcode":"39213","Lat":32.392757,"Long": -90.236590},
{"Zipcode":"39216","Lat":32.333857,"Long": -90.159647},
{"Zipcode":"39217","Lat":32.299131,"Long": -90.210495},
{"Zipcode":"39218","Lat":32.230413,"Long": -90.159622},
{"Zipcode":"39232","Lat":32.330662,"Long": -90.091792},
{"Zipcode":"39269","Lat":32.301109,"Long": -90.188890},
{"Zipcode":"39272","Lat":32.190610,"Long": -90.258327},
{"Zipcode":"39301","Lat":32.273648,"Long": -88.580363},
{"Zipcode":"39305","Lat":32.463029,"Long": -88.714721},
{"Zipcode":"39307","Lat":32.334866,"Long": -88.796844},
{"Zipcode":"39309","Lat":32.548929,"Long": -88.615424},
{"Zipcode":"39320","Lat":32.569335,"Long": -88.744163},
{"Zipcode":"39322","Lat":31.535469,"Long": -88.503696},
{"Zipcode":"39323","Lat":32.352256,"Long": -88.923758},
{"Zipcode":"39325","Lat":32.561988,"Long": -88.877508},
{"Zipcode":"39326","Lat":32.602744,"Long": -88.656165},
{"Zipcode":"39327","Lat":32.446095,"Long": -89.118554},
{"Zipcode":"39328","Lat":32.743509,"Long": -88.698611},
{"Zipcode":"39330","Lat":32.180797,"Long": -88.843394},
{"Zipcode":"39332","Lat":32.304300,"Long": -88.998857},
{"Zipcode":"39335","Lat":32.533136,"Long": -88.491090},
{"Zipcode":"39336","Lat":32.300601,"Long": -89.262200},
{"Zipcode":"39337","Lat":32.507687,"Long": -88.979980},
{"Zipcode":"39338","Lat":32.106742,"Long": -89.230937},
{"Zipcode":"39339","Lat":33.101905,"Long": -89.011663},
{"Zipcode":"39341","Lat":33.098547,"Long": -88.566395},
{"Zipcode":"39342","Lat":32.424496,"Long": -88.648338},
{"Zipcode":"39345","Lat":32.291789,"Long": -89.121899},
{"Zipcode":"39346","Lat":32.965035,"Long": -89.095535},
{"Zipcode":"39347","Lat":32.060443,"Long": -88.942004},
{"Zipcode":"39348","Lat":32.015293,"Long": -89.032672},
{"Zipcode":"39350","Lat":32.796469,"Long": -89.125241},
{"Zipcode":"39352","Lat":32.684042,"Long": -88.481687},
{"Zipcode":"39354","Lat":32.875326,"Long": -88.840419},
{"Zipcode":"39355","Lat":32.054731,"Long": -88.624649},
{"Zipcode":"39356","Lat":32.134212,"Long": -89.021973},
{"Zipcode":"39358","Lat":32.905390,"Long": -88.411185},
{"Zipcode":"39359","Lat":32.567824,"Long": -89.333571},
{"Zipcode":"39360","Lat":31.864814,"Long": -88.754017},
{"Zipcode":"39361","Lat":32.995473,"Long": -88.596380},
{"Zipcode":"39362","Lat":31.390960,"Long": -88.541129},
{"Zipcode":"39363","Lat":32.127054,"Long": -88.765481},
{"Zipcode":"39364","Lat":32.405281,"Long": -88.486617},
{"Zipcode":"39365","Lat":32.602694,"Long": -89.126133},
{"Zipcode":"39366","Lat":31.943818,"Long": -88.918617},
{"Zipcode":"39367","Lat":31.676874,"Long": -88.665860},
{"Zipcode":"39401","Lat":31.234112,"Long": -89.265885},
{"Zipcode":"39402","Lat":31.333704,"Long": -89.419175},
{"Zipcode":"39406","Lat":31.328445,"Long": -89.334570},
{"Zipcode":"39421","Lat":31.492362,"Long": -89.721243},
{"Zipcode":"39422","Lat":31.959313,"Long": -89.257708},
{"Zipcode":"39423","Lat":31.170495,"Long": -88.915119},
{"Zipcode":"39425","Lat":31.060357,"Long": -89.080132},
{"Zipcode":"39426","Lat":30.655222,"Long": -89.661259},
{"Zipcode":"39427","Lat":31.480130,"Long": -89.814542},
{"Zipcode":"39428","Lat":31.651053,"Long": -89.572840},
{"Zipcode":"39429","Lat":31.239384,"Long": -89.763166},
{"Zipcode":"39437","Lat":31.579926,"Long": -89.218571},
{"Zipcode":"39439","Lat":31.849171,"Long": -89.013986},
{"Zipcode":"39440","Lat":31.693212,"Long": -89.147245},
{"Zipcode":"39443","Lat":31.716721,"Long": -89.078154},
{"Zipcode":"39451","Lat":31.177200,"Long": -88.621661},
{"Zipcode":"39452","Lat":30.873965,"Long": -88.601996},
{"Zipcode":"39455","Lat":31.011868,"Long": -89.458807},
{"Zipcode":"39456","Lat":31.060070,"Long": -88.823703},
{"Zipcode":"39459","Lat":31.489786,"Long": -89.304575},
{"Zipcode":"39461","Lat":31.205789,"Long": -88.732708},
{"Zipcode":"39462","Lat":31.234012,"Long": -89.056621},
{"Zipcode":"39464","Lat":31.491996,"Long": -89.083940},
{"Zipcode":"39465","Lat":31.339572,"Long": -89.188170},
{"Zipcode":"39466","Lat":30.520513,"Long": -89.585934},
{"Zipcode":"39470","Lat":30.822892,"Long": -89.569010},
{"Zipcode":"39474","Lat":31.612609,"Long": -89.855170},
{"Zipcode":"39475","Lat":31.153467,"Long": -89.425360},
{"Zipcode":"39476","Lat":31.386969,"Long": -88.866929},
{"Zipcode":"39477","Lat":31.788272,"Long": -89.033802},
{"Zipcode":"39478","Lat":31.054177,"Long": -89.856810},
{"Zipcode":"39479","Lat":31.529263,"Long": -89.458176},
{"Zipcode":"39480","Lat":31.711510,"Long": -89.315093},
{"Zipcode":"39481","Lat":31.868385,"Long": -89.238136},
{"Zipcode":"39482","Lat":31.372022,"Long": -89.579154},
{"Zipcode":"39483","Lat":31.242774,"Long": -89.932348},
{"Zipcode":"39501","Lat":30.382966,"Long": -89.102426},
{"Zipcode":"39503","Lat":30.474612,"Long": -89.152878},
{"Zipcode":"39507","Lat":30.400484,"Long": -89.034466},
{"Zipcode":"39520","Lat":30.271308,"Long": -89.481756},
{"Zipcode":"39525","Lat":30.381932,"Long": -89.370784},
{"Zipcode":"39530","Lat":30.409826,"Long": -88.880304},
{"Zipcode":"39531","Lat":30.403986,"Long": -88.966183},
{"Zipcode":"39532","Lat":30.493085,"Long": -88.964318},
{"Zipcode":"39534","Lat":30.407460,"Long": -88.924631},
{"Zipcode":"39540","Lat":30.443102,"Long": -88.897234},
{"Zipcode":"39553","Lat":30.410797,"Long": -88.644997},
{"Zipcode":"39556","Lat":30.441523,"Long": -89.440233},
{"Zipcode":"39560","Lat":30.376353,"Long": -89.172731},
{"Zipcode":"39561","Lat":30.702516,"Long": -89.154883},
{"Zipcode":"39562","Lat":30.546682,"Long": -88.489452},
{"Zipcode":"39563","Lat":30.421750,"Long": -88.523082},
{"Zipcode":"39564","Lat":30.404770,"Long": -88.771229},
{"Zipcode":"39565","Lat":30.587095,"Long": -88.744463},
{"Zipcode":"39567","Lat":30.365446,"Long": -88.540115},
{"Zipcode":"39571","Lat":30.420066,"Long": -89.275043},
{"Zipcode":"39572","Lat":30.251304,"Long": -89.601020},
{"Zipcode":"39573","Lat":30.730997,"Long": -89.093397},
{"Zipcode":"39574","Lat":30.611848,"Long": -89.089935},
{"Zipcode":"39576","Lat":30.290082,"Long": -89.383278},
{"Zipcode":"39577","Lat":30.904729,"Long": -89.086488},
{"Zipcode":"39581","Lat":30.357101,"Long": -88.489323},
{"Zipcode":"39601","Lat":31.563080,"Long": -90.471262},
{"Zipcode":"39629","Lat":31.436637,"Long": -90.456850},
{"Zipcode":"39630","Lat":31.459306,"Long": -90.845350},
{"Zipcode":"39631","Lat":31.067208,"Long": -91.134006},
{"Zipcode":"39633","Lat":31.306441,"Long": -91.180646},
{"Zipcode":"39635","Lat":31.191429,"Long": -90.463430},
{"Zipcode":"39638","Lat":31.225004,"Long": -90.995924},
{"Zipcode":"39641","Lat":31.355199,"Long": -90.174857},
{"Zipcode":"39643","Lat":31.246549,"Long": -90.014258},
{"Zipcode":"39645","Lat":31.148785,"Long": -90.798891},
{"Zipcode":"39647","Lat":31.525975,"Long": -90.722700},
{"Zipcode":"39648","Lat":31.189344,"Long": -90.384302},
{"Zipcode":"39652","Lat":31.113659,"Long": -90.475396},
{"Zipcode":"39653","Lat":31.481823,"Long": -90.864478},
{"Zipcode":"39654","Lat":31.544944,"Long": -90.136681},
{"Zipcode":"39656","Lat":31.443901,"Long": -89.931798},
{"Zipcode":"39657","Lat":31.040324,"Long": -90.506268},
{"Zipcode":"39661","Lat":31.484447,"Long": -91.083468},
{"Zipcode":"39662","Lat":31.386372,"Long": -90.285394},
{"Zipcode":"39663","Lat":31.594893,"Long": -90.038161},
{"Zipcode":"39664","Lat":31.325970,"Long": -90.674153},
{"Zipcode":"39665","Lat":31.642810,"Long": -90.209176},
{"Zipcode":"39666","Lat":31.294966,"Long": -90.482726},
{"Zipcode":"39667","Lat":31.124737,"Long": -90.126164},
{"Zipcode":"39668","Lat":31.710493,"Long": -90.809340},
{"Zipcode":"39669","Lat":31.121117,"Long": -91.383123},
{"Zipcode":"39701","Lat":33.393933,"Long": -88.504719},
{"Zipcode":"39702","Lat":33.439736,"Long": -88.344713},
{"Zipcode":"39705","Lat":33.587945,"Long": -88.441102},
{"Zipcode":"39730","Lat":33.843635,"Long": -88.565615},
{"Zipcode":"39735","Lat":33.353169,"Long": -89.187425},
{"Zipcode":"39736","Lat":33.431914,"Long": -88.652317},
{"Zipcode":"39737","Lat":33.670566,"Long": -89.330323},
{"Zipcode":"39739","Lat":33.239354,"Long": -88.573864},
{"Zipcode":"39740","Lat":33.722448,"Long": -88.305334},
{"Zipcode":"39741","Lat":33.645295,"Long": -88.866068},
{"Zipcode":"39743","Lat":33.336759,"Long": -88.618920},
{"Zipcode":"39744","Lat":33.579940,"Long": -89.307271},
{"Zipcode":"39745","Lat":33.296546,"Long": -89.451227},
{"Zipcode":"39746","Lat":33.749040,"Long": -88.414965},
{"Zipcode":"39747","Lat":33.409239,"Long": -89.554553},
{"Zipcode":"39750","Lat":33.568955,"Long": -89.044772},
{"Zipcode":"39751","Lat":33.695301,"Long": -89.093267},
{"Zipcode":"39752","Lat":33.522607,"Long": -89.150748},
{"Zipcode":"39755","Lat":33.607091,"Long": -88.963874},
{"Zipcode":"39756","Lat":33.756717,"Long": -88.741085},
{"Zipcode":"39759","Lat":33.437924,"Long": -88.825142},
{"Zipcode":"39760","Lat":33.464234,"Long": -88.705141},
{"Zipcode":"39762","Lat":33.452793,"Long": -88.795207},
{"Zipcode":"39766","Lat":33.587707,"Long": -88.312071},
{"Zipcode":"39767","Lat":33.475509,"Long": -89.448715},
{"Zipcode":"39769","Lat":33.321925,"Long": -89.017837},
{"Zipcode":"39771","Lat":33.606242,"Long": -89.275295},
{"Zipcode":"39772","Lat":33.295116,"Long": -89.304309},
{"Zipcode":"39773","Lat":33.647676,"Long": -88.690332},
{"Zipcode":"39776","Lat":33.780141,"Long": -89.040474}
]